{"version": 0.6, "generator": "Overpass API 0.7.56.9 76e5016d", "osm3s": {"timestamp_osm_base": "2021-09-21T11:46:31Z", "copyright": "The data included in this document is from www.openstreetmap.org. The data is made available under ODbL."}, "elements": [{"type": "node", "id": 25589138, "lat": 55.6091374, "lon": 13.0006612, "tags": {"name": "Malm\u00f6 C", "public_transport": "station", "railway": "station", "railway:ref": "M", "railway:track_ref": "8", "uic_ref": "7400003", "website": "https://www.dinstation.se/malmo-centralstation/", "wheelchair": "limited", "wikidata": "Q575797", "wikipedia": "sv:Malm\u00f6 centralstation"}}, {"type": "node", "id": 28321802, "lat": 55.7618855, "lon": 12.5215091, "tags": {"light_rail": "yes", "name": "J\u00e6gersborg", "public_transport": "station", "railway": "station", "railway:ref": "J\u00e6t", "ref": "8600674", "ref_name": "J\u00e6gersborg St.", "station": "light_rail", "wikidata": "Q1953807", "wikipedia": "da:J\u00e6gersborg Station"}}, {"type": "node", "id": 28321897, "lat": 55.7849627, "lon": 12.4973638, "tags": {"light_rail": "yes", "name": "Fuglevad", "operator": "Lokalbanen", "public_transport": "station", "railway": "station", "railway:ref": "Fgv", "station": "light_rail", "wikidata": "Q12313148"}}, {"type": "node", "id": 28321940, "lat": 55.799759, "lon": 12.5097837, "tags": {"light_rail": "yes", "name": "\u00d8rholm", "public_transport": "station", "railway": "station", "railway:ref": "\u00d8rh", "station": "light_rail", "wikidata": "Q12342048"}}, {"type": "node", "id": 286886137, "lat": 55.6397684, "lon": 12.4998659, "tags": {"light_rail": "yes", "name": "\u00c5marken", "public_transport": "station", "railway": "station", "railway:ref": "\u00c5m", "station": "light_rail", "wheelchair": "yes", "wikidata": "Q2796986"}}, {"type": "node", "id": 303949304, "lat": 55.6409633, "lon": 13.0804059, "tags": {"name": "Burl\u00f6v", "public_transport": "stop_position", "railway": "station", "railway:track_ref": "2", "ref": "Blv", "train": "yes", "wheelchair": "yes"}}, {"type": "node", "id": 494382792, "lat": 55.7188384, "lon": 12.4435483, "tags": {"light_rail": "yes", "name": "Herlev", "public_transport": "station", "railway": "station", "railway:ref": "Her", "station": "light_rail", "wheelchair": "yes", "wikidata": "Q2368951"}}, {"type": "node", "id": 494382836, "lat": 55.7471585, "lon": 12.4941762, "tags": {"light_rail": "yes", "name": "Buddinge", "public_transport": "station", "railway": "station", "railway:ref": "Bud", "station": "light_rail", "wheelchair": "yes", "wikidata": "Q2411572"}}, {"type": "node", "id": 595293336, "lat": 55.7155342, "lon": 12.5788253, "tags": {"light_rail": "yes", "name": "Svanem\u00f8llen", "operator": "DSB", "public_transport": "station", "railway": "station", "railway:ref": "Sam", "start_date": "1934", "station": "light_rail", "wheelchair": "yes", "wikidata": "Q1810737"}}, {"type": "node", "id": 597730022, "lat": 55.7323761, "lon": 12.5360326, "tags": {"light_rail": "yes", "name": "Dysseg\u00e5rd", "public_transport": "station", "railway": "station", "railway:ref": "Dyt", "station": "light_rail", "wikidata": "Q2615777"}}, {"type": "node", "id": 597771450, "lat": 55.7652202, "lon": 12.4079689, "tags": {"light_rail": "yes", "name": "Hareskov", "public_transport": "station", "railway": "station", "railway:ref": "Har", "station": "light_rail", "wikidata": "Q2724161"}}, {"type": "node", "id": 598201521, "lat": 55.7305908, "lon": 12.566911, "tags": {"light_rail": "yes", "name": "Hellerup", "public_transport": "station", "railway": "station", "railway:ref": "Hl", "station": "light_rail", "train": "yes", "wheelchair": "yes", "wikidata": "Q3248474"}}, {"type": "node", "id": 598205283, "lat": 55.7535946, "lon": 12.541436, "tags": {"light_rail": "yes", "name": "Gentofte", "public_transport": "station", "railway": "station", "railway:ref": "Gj", "station": "light_rail", "wheelchair": "yes", "wikidata": "Q2430559"}}, {"type": "node", "id": 611305003, "lat": 55.6855434, "lon": 12.4988664, "tags": {"light_rail": "yes", "name": "Flintholm", "public_transport": "station", "railway": "station", "railway:ref": "Fl", "station": "light_rail", "wheelchair": "yes"}}, {"type": "node", "id": 868632786, "lat": 55.4902567, "lon": 13.1079497, "tags": {"name": "V\u00e4stra Ingelstad", "public_transport": "station", "railway": "station", "ref": "Vid"}}, {"type": "node", "id": 1271230723, "lat": 55.6834487, "lon": 12.5131859, "tags": {"name": "Lindevang", "network": "Metro", "public_transport": "station", "railway": "station", "station": "subway", "subway": "yes", "wheelchair": "yes", "wikidata": "Q801103"}}, {"type": "node", "id": 1607415271, "lat": 55.5625456, "lon": 12.9758457}, {"type": "node", "id": 1607415272, "lat": 55.5625577, "lon": 12.9759715}, {"type": "node", "id": 1607415273, "lat": 55.5625591, "lon": 12.9757244}, {"type": "node", "id": 1607415274, "lat": 55.5625872, "lon": 12.9760654}, {"type": "node", "id": 1607415275, "lat": 55.5626002, "lon": 12.9756106}, {"type": "node", "id": 1607415276, "lat": 55.5626237, "lon": 12.9761292}, {"type": "node", "id": 1607415277, "lat": 55.5626342, "lon": 12.9755603}, {"type": "node", "id": 1607415279, "lat": 55.5626673, "lon": 12.9761733}, {"type": "node", "id": 1607415280, "lat": 55.5627089, "lon": 12.9755078}, {"type": "node", "id": 1607415281, "lat": 55.5627276, "lon": 12.976199}, {"type": "node", "id": 1607415283, "lat": 55.5627645, "lon": 12.9761981}, {"type": "node", "id": 1607415284, "lat": 55.5627728, "lon": 12.9755064}, {"type": "node", "id": 1607415285, "lat": 55.5628148, "lon": 12.9761765}, {"type": "node", "id": 1607415286, "lat": 55.5628371, "lon": 12.9755443}, {"type": "node", "id": 1607415288, "lat": 55.5628817, "lon": 12.9761003}, {"type": "node", "id": 1607415289, "lat": 55.5628918, "lon": 12.9756212}, {"type": "node", "id": 1607415290, "lat": 55.5629175, "lon": 12.9760159}, {"type": "node", "id": 1607415291, "lat": 55.5629275, "lon": 12.9757246}, {"type": "node", "id": 1607415292, "lat": 55.5629359, "lon": 12.9757733}, {"type": "node", "id": 1607415293, "lat": 55.5629368, "lon": 12.9759221}, {"type": "node", "id": 1607415294, "lat": 55.5629409, "lon": 12.9758407}, {"type": "node", "id": 1742785276, "lat": 55.6309113, "lon": 12.6492236, "tags": {"alt_name": "K\u00f8benhavns Lufthavn, Kastup", "alt_name:en": "Copenhagen Airport, Kastrup", "check_date:alt_name": "2020-09-15", "check_date:name": "2020-09-15", "name": "Lufthavnen (Metro)", "name:en": "The Airport", "network": "Metro", "public_transport": "station", "railway": "station", "station": "subway", "subway": "yes", "wheelchair": "yes"}}, {"type": "node", "id": 2042342677, "lat": 55.619371, "lon": 12.5755841, "tags": {"layer": "1", "name": "Vestamager", "network": "Metro", "public_transport": "station", "railway": "station", "station": "subway", "subway": "yes", "wheelchair": "yes", "wikidata": "Q801562"}}, {"type": "node", "id": 2089115303, "lat": 55.6290128, "lon": 12.579355, "tags": {"name": "\u00d8restad", "network": "Metro", "public_transport": "station", "railway": "station", "station": "subway", "subway": "yes", "wheelchair": "yes"}}, {"type": "node", "id": 2705309629, "lat": 55.6451882, "lon": 12.638338, "tags": {"layer": "1", "name": "Fem\u00f8ren", "network": "Metro", "public_transport": "station", "railway": "station", "station": "subway", "subway": "yes", "wheelchair": "yes", "wikidata": "Q800748"}}, {"type": "node", "id": 2705309632, "lat": 55.6561353, "lon": 12.6318585, "tags": {"layer": "1", "name": "Amager Strand", "network": "Metro", "public_transport": "station", "railway": "station", "station": "subway", "subway": "yes", "wheelchair": "yes", "wikidata": "Q800380"}}, {"type": "node", "id": 2705309633, "lat": 55.6357222, "lon": 12.6469508, "tags": {"layer": "1", "name": "Kastrup", "network": "Metro", "public_transport": "station", "railway": "station", "station": "subway", "subway": "yes", "wheelchair": "yes"}}, {"type": "node", "id": 2705324067, "lat": 55.6380729, "lon": 12.582926, "tags": {"layer": "1", "name": "Bella Center", "network": "Metro", "public_transport": "station", "railway": "station", "station": "subway", "subway": "yes", "wheelchair": "yes", "wikidata": "Q800463"}}, {"type": "node", "id": 2705324072, "lat": 55.6614401, "lon": 12.6287182, "tags": {"name": "\u00d8resund", "network": "Metro", "public_transport": "station", "railway": "station", "station": "subway", "subway": "yes", "wheelchair": "yes", "wikidata": "Q801686"}}, {"type": "node", "id": 2705324074, "lat": 55.6557682, "lon": 12.5890175, "tags": {"layer": "1", "name": "DR Byen", "network": "Metro", "public_transport": "station", "railway": "station", "station": "subway", "subway": "yes", "wheelchair": "yes"}}, {"type": "node", "id": 2705324076, "lat": 55.6452516, "lon": 12.5857172, "tags": {"layer": "1", "name": "Sundby", "network": "Metro", "public_transport": "station", "railway": "station", "station": "subway", "subway": "yes", "wheelchair": "yes", "wikidata": "Q801498"}}, {"type": "node", "id": 2705324077, "lat": 55.6634112, "lon": 12.5852113, "tags": {"layer": "-1", "name": "Islands Brygge", "network": "Metro", "public_transport": "station", "railway": "station", "station": "subway", "subway": "yes", "wheelchair": "yes"}}, {"type": "node", "id": 2951409808, "lat": 55.7767944, "lon": 12.5880869, "tags": {"light_rail": "yes", "name": "Klampenborg", "public_transport": "station", "railway": "station", "railway:ref": "Kl", "station": "light_rail"}}, {"type": "node", "id": 3739700409, "lat": 55.6295641, "lon": 12.649417, "tags": {"name": "K\u00f8benhavns Lufthavn Kastrup", "name:en": "Copenhagen Airport, Kastrup", "note": "Both the danish and the english names are written on the station signs", "public_transport": "station", "railway": "station", "railway:ref": "Cph", "train": "yes"}}, {"type": "node", "id": 3739700410, "lat": 55.6724527, "lon": 12.5653736, "tags": {"loc_name": "Hovedbanen", "name": "K\u00f8benhavn H", "name:da": "K\u00f8benhavns Hovedbaneg\u00e5rd", "name:de": "Kopenhagen Hbf", "name:en": "Copenhagen Central Station", "name:fi": "K\u00f6\u00f6penhaminan p\u00e4\u00e4rautatieasema", "name:fr": "Gare centrale de Copenhague", "name:ko": "\ucf54\ud39c\ud558\uac90 \uc911\uc559\uc5ed", "official_name": "K\u00f8benhavns Hovedbaneg\u00e5rd", "public_transport": "station", "railway": "station", "railway:ref": "Kh", "reg_name": "Hovedbaneg\u00e5rden", "short_name": "K\u00f8benhavn H", "train": "yes", "wheelchair": "yes"}}, {"type": "node", "id": 4989664667, "lat": 55.693346, "lon": 12.5883611, "tags": {"light_rail": "yes", "name": "\u00d8sterport", "network": "S-tog", "public_transport": "station", "railway": "station", "railway:ref": "Kk", "station": "light_rail", "wheelchair": "yes"}}, {"type": "node", "id": 5066122139, "lat": 55.6871452, "lon": 12.4925009, "tags": {"name": "Vanl\u00f8se", "public_transport": "station", "railway": "station", "station": "subway", "subway": "yes", "wheelchair": "yes"}}, {"type": "node", "id": 5066122140, "lat": 55.6871724, "lon": 12.4915039, "tags": {"light_rail": "yes", "name": "Vanl\u00f8se", "public_transport": "station", "railway": "station", "railway:ref": "Van", "station": "light_rail"}}, {"type": "node", "id": 5072901609, "lat": 55.6858744, "lon": 12.4994896, "tags": {"name": "Flintholm", "public_transport": "station", "railway": "station", "station": "subway", "subway": "yes", "wheelchair": "yes"}}, {"type": "node", "id": 5073252188, "lat": 55.6637755, "lon": 12.5135924, "tags": {"light_rail": "yes", "name": "Valby", "public_transport": "station", "railway": "station", "railway:ref": "Val", "station": "light_rail", "wheelchair": "yes"}}, {"type": "node", "id": 5096749954, "lat": 55.6721858, "lon": 12.564607, "tags": {"light_rail": "yes", "loc_name": "Hovedbanen", "name": "K\u00f8benhavn H", "name:da": "K\u00f8benhavns Hovedbaneg\u00e5rd", "name:de": "Kopenhagen Hbf", "name:en": "Copenhagen Central Station", "name:fi": "K\u00f6\u00f6penhaminan p\u00e4\u00e4rautatieasema", "name:fr": "Gare centrale de Copenhague", "name:ko": "\ucf54\ud39c\ud558\uac90 \uc911\uc559\uc5ed", "official_name": "K\u00f8benhavns Hovedbaneg\u00e5rd", "public_transport": "station", "railway": "station", "railway:ref": "Kh", "reg_name": "Hovedbaneg\u00e5rden", "short_name": "K\u00f8benhavn H", "station": "light_rail", "wheelchair": "yes"}}, {"type": "node", "id": 5680478829, "lat": 55.7768088, "lon": 12.5886325, "tags": {"name": "Klampenborg", "public_transport": "station", "railway": "station", "railway:ref": "Kl", "train": "yes"}}, {"type": "node", "id": 5715956175, "lat": 55.662236, "lon": 12.6170475, "tags": {"name": "Lergravsparken", "public_transport": "station", "railway": "station", "station": "subway", "subway": "yes", "wheelchair": "yes", "wikidata": "Q801094"}}, {"type": "node", "id": 5715956176, "lat": 55.6633965, "lon": 12.6028945, "tags": {"name": "Amagerbro", "public_transport": "station", "railway": "station", "station": "subway", "subway": "yes", "wikidata": "Q800382"}}, {"type": "node", "id": 5715956177, "lat": 55.6720958, "lon": 12.5913771, "tags": {"name": "Christianshavn", "public_transport": "station", "railway": "station", "station": "subway", "subway": "yes", "wheelchair": "yes", "wikidata": "Q587485"}}, {"type": "node", "id": 5715956178, "lat": 55.6796344, "lon": 12.5850827, "tags": {"name": "Kongens Nytorv", "network": "Metro", "public_transport": "station", "railway": "station", "station": "subway", "subway": "yes", "wheelchair": "yes", "wikidata": "Q801029", "wikipedia": "da:Kongens Nytorv Station"}}, {"type": "node", "id": 5715956180, "lat": 55.6818073, "lon": 12.5525408, "tags": {"level": "-2", "name": "Forum", "public_transport": "station", "railway": "station", "station": "subway", "subway": "yes", "wikidata": "Q800764"}}, {"type": "node", "id": 5715956181, "lat": 55.6811699, "lon": 12.5322237, "tags": {"name": "Frederiksberg", "network": "Metro", "public_transport": "station", "railway": "station", "station": "subway", "subway": "yes", "wheelchair": "yes"}}, {"type": "node", "id": 5715956182, "lat": 55.6815945, "lon": 12.5235687, "tags": {"name": "Fasanvej", "public_transport": "station", "railway": "station", "station": "subway", "subway": "yes", "wheelchair": "yes", "wikidata": "Q800749"}}, {"type": "node", "id": 5762708641, "lat": 55.7680595, "lon": 12.5031145, "tags": {"light_rail": "yes", "name": "Lyngby", "public_transport": "station", "railway": "station", "railway:ref": "Ly", "station": "light_rail", "wheelchair": "yes", "wikidata": "Q578784"}}, {"type": "node", "id": 5974664508, "lat": 55.6489712, "lon": 12.5343368, "tags": {"construction": "yes", "layer": "-2", "name": "Mozarts Plads", "network": "Metro", "railway": "station", "subway": "yes", "wheelchair": "yes", "wikidata": "Q61060497"}}, {"type": "node", "id": 5974664509, "lat": 55.6459874, "lon": 12.5446124, "tags": {"construction": "yes", "layer": "-2", "name": "Sluseholmen", "network": "Metro", "railway": "station", "subway": "yes", "wheelchair": "yes", "wikidata": "Q61060509"}}, {"type": "node", "id": 5974664510, "lat": 55.6541531, "lon": 12.5572449, "tags": {"construction": "yes", "layer": "-2", "name": "Enghave Brygge", "network": "Metro", "railway": "station", "subway": "yes", "wikidata": "Q61060512"}}, {"type": "node", "id": 5974664511, "lat": 55.6613534, "lon": 12.5588113, "tags": {"construction": "yes", "layer": "-2", "name": "Havneholmen", "network": "Metro", "railway": "station", "subway": "yes", "wheelchair": "yes", "wikidata": "Q61060539"}}, {"type": "node", "id": 5974664512, "lat": 55.6529502, "lon": 12.5159978, "tags": {"name": "Ny Ellebjerg", "network": "Metro", "public_transport": "station", "railway": "station", "station": "subway", "subway": "yes", "wheelchair": "yes"}}, {"type": "node", "id": 6041192146, "lat": 55.7118379, "lon": 12.5951777, "tags": {"layer": "1", "name": "Orientkaj", "network": "metro", "public_transport": "station", "railway": "station", "station": "subway", "subway": "yes", "wheelchair": "yes", "wikidata": "Q17165662"}}, {"type": "node", "id": 6283632850, "lat": 55.5628597, "lon": 12.975576, "tags": {"entrance": "main"}}, {"type": "node", "id": 6836386876, "lat": 55.6714003, "lon": 12.5638753, "tags": {"loc_name": "Hovedbanen", "name": "K\u00f8benhavn H", "name:da": "K\u00f8benhavns Hovedbaneg\u00e5rd", "name:de": "Kopenhagen Hbf", "name:en": "Copenhagen Central Station", "name:fi": "K\u00f6\u00f6penhaminan p\u00e4\u00e4rautatieasema", "name:fr": "Gare centrale de Copenhague", "name:ko": "\ucf54\ud39c\ud558\uac90 \uc911\uc559\uc5ed", "network": "Metro", "official_name": "K\u00f8benhavns Hovedbaneg\u00e5rd", "public_transport": "station", "railway": "station", "reg_name": "Hovedbaneg\u00e5rden", "short_name": "K\u00f8benhavn H", "station": "subway", "subway": "yes", "wheelchair": "yes"}}, {"type": "node", "id": 6836386877, "lat": 55.6764406, "lon": 12.5682006, "tags": {"name": "R\u00e5dhuspladsen", "network": "Metro", "public_transport": "station", "railway": "station", "station": "subway", "subway": "yes", "wheelchair": "yes", "wikidata": "Q11998805"}}, {"type": "node", "id": 6836386879, "lat": 55.6775945, "lon": 12.5789275, "tags": {"name": "Gammel Strand", "network": "Metro", "public_transport": "station", "railway": "station", "station": "subway", "subway": "yes", "wheelchair": "yes", "wikidata": "Q11971512"}}, {"type": "node", "id": 6836434801, "lat": 55.667227, "lon": 12.5467948, "tags": {"layer": "-2", "name": "Enghave Plads", "network": "Metro", "public_transport": "station", "railway": "station", "station": "subway", "subway": "yes", "wheelchair": "yes", "wikidata": "Q11967561"}}, {"type": "node", "id": 6836434802, "lat": 55.6735083, "lon": 12.5406118, "tags": {"name": "Frederiksberg All\u00e9", "network": "Metro", "public_transport": "station", "railway": "station", "station": "subway", "subway": "yes", "wheelchair": "yes", "wikidata": "Q11970037"}}, {"type": "node", "id": 6836446142, "lat": 55.693528, "lon": 12.5489348, "tags": {"layer": "-2", "name": "N\u00f8rrebros Runddel", "network": "Metro", "public_transport": "station", "railway": "station", "station": "subway", "subway": "yes", "wheelchair": "yes", "wikidata": "Q11992956"}}, {"type": "node", "id": 6836446143, "lat": 55.7000485, "lon": 12.5379713, "tags": {"layer": "-2", "name": "N\u00f8rrebro", "network": "Metro", "public_transport": "station", "railway": "station", "station": "subway", "subway": "yes", "wheelchair": "yes"}}, {"type": "node", "id": 6836446144, "lat": 55.6860507, "lon": 12.5329471, "tags": {"name": "Aksel M\u00f8llers Have", "network": "Metro", "public_transport": "station", "railway": "station", "station": "subway", "subway": "yes", "wheelchair": "yes", "wikidata": "Q11957158"}}, {"type": "node", "id": 6836446145, "lat": 55.6884779, "lon": 12.5425294, "tags": {"name": "Nuuks Plads", "network": "Metro", "public_transport": "station", "railway": "station", "station": "subway", "subway": "yes", "wheelchair": "yes", "wikidata": "Q11992758"}}, {"type": "node", "id": 6836466111, "lat": 55.7034992, "lon": 12.5487689, "tags": {"layer": "-2", "name": "Skjolds Plads", "network": "Metro", "public_transport": "station", "railway": "station", "station": "subway", "subway": "yes", "wheelchair": "yes", "wikidata": "Q12001069"}}, {"type": "node", "id": 6836624243, "lat": 55.7063956, "lon": 12.5647764, "tags": {"layer": "-2", "name": "Vibenhus Runddel", "network": "Metro", "public_transport": "station", "railway": "station", "station": "subway", "subway": "yes", "wheelchair": "yes"}}, {"type": "node", "id": 6836648163, "lat": 55.692878, "lon": 12.5859236, "tags": {"name": "\u00d8sterport", "network": "Metro", "public_transport": "station", "railway": "station", "station": "subway", "subway": "yes", "wheelchair": "yes"}}, {"type": "node", "id": 6836648164, "lat": 55.6851258, "lon": 12.5890307, "tags": {"name": "Marmorkirken", "network": "Metro", "public_transport": "station", "railway": "station", "station": "subway", "subway": "yes", "wheelchair": "yes", "wikidata": "Q11988456"}}, {"type": "node", "id": 6836652392, "lat": 55.6992513, "lon": 12.575555, "tags": {"name": "Trianglen", "network": "Metro", "public_transport": "station", "railway": "station", "station": "subway", "subway": "yes", "wheelchair": "yes", "wikidata": "Q12007414"}}, {"type": "node", "id": 6836652393, "lat": 55.7094751, "lon": 12.5761362, "tags": {"layer": "-2", "name": "Poul Henningsens Plads", "network": "Metro", "public_transport": "station", "railway": "station", "station": "subway", "subway": "yes", "wheelchair": "yes", "wikidata": "Q11996138"}}, {"type": "node", "id": 7339730678, "lat": 55.7074271, "lon": 12.5915656, "tags": {"name": "Nordhavn", "network": "Metro", "public_transport": "station", "railway": "station", "station": "subway", "subway": "yes", "wheelchair": "yes"}}, {"type": "node", "id": 7541645331, "lat": 55.5472428, "lon": 12.99265, "tags": {"alt_name": "Malm\u00f6 Syd", "name": "Sv\u00e5gertorp", "railway": "station", "railway:ref": "Stp", "train": "yes", "wikidata": "Q2658355"}}, {"type": "node", "id": 7541645332, "lat": 55.5932748, "lon": 13.0010372, "tags": {"name": "Triangeln", "public_transport": "station", "railway": "station", "railway:ref": "Tri", "toilets:wheelchair": "no", "train": "yes", "uic_ref": "7401587", "wheelchair": "yes", "wikipedia": "sv:Triangelns station"}}, {"type": "node", "id": 7541645333, "lat": 55.58062, "lon": 13.0293366, "tags": {"alt_name": "Malm\u00f6 Persborg", "name": "Persborg", "public_transport": "station", "railway": "station", "railway:ref": "Mpb", "wikidata": "Q10624450"}}, {"type": "node", "id": 7541645334, "lat": 55.5888929, "lon": 13.0307937, "tags": {"name": "Roseng\u00e5rd", "public_transport": "station", "railway": "station", "railway:ref": "Rog", "train": "yes"}}, {"type": "node", "id": 7541645335, "lat": 55.6078691, "lon": 13.0315018, "tags": {"name": "\u00d6sterv\u00e4rn", "public_transport": "station", "railway": "station", "railway:ref": "\u00d6vn", "train": "yes", "wikidata": "Q1945050"}}, {"type": "node", "id": 7541645336, "lat": 55.541757, "lon": 13.0956763, "tags": {"name": "Oxie", "public_transport": "station", "railway": "station", "railway:ref": "Ox", "train": "yes", "wikidata": "Q10613690"}}, {"type": "node", "id": 7899100664, "lat": 55.6931402, "lon": 12.5887669, "tags": {"name": "\u00d8sterport", "public_transport": "station", "railway": "station", "railway:ref": "Kk", "train": "yes", "wheelchair": "yes"}}, {"type": "node", "id": 8448979993, "lat": 55.6739319, "lon": 13.0749433, "tags": {"name": "Lomma", "public_transport": "station", "railway": "station", "train": "yes"}}, {"type": "node", "id": 8528446170, "lat": 55.562801, "lon": 12.9759909, "tags": {"name": "Hyllie", "public_transport": "station", "railway": "station", "train": "yes"}}, {"type": "node", "id": 8559657094, "lat": 55.5944641, "lon": 13.0004292, "tags": {"addr:city": "Malm\u00f6", "addr:housenumber": "2A", "addr:postcode": "211 46", "addr:street": "Sankt Johannesgatan", "bus": "yes", "name": "Triangeln", "public_transport": "station", "railway": "station", "train": "yes", "wheelchair": "yes"}}, {"type": "way", "id": 147530552, "nodes": [1607415291, 1607415289, 6283632850, 1607415286, 1607415284, 1607415280, 1607415277, 1607415275, 1607415273, 1607415271, 1607415272, 1607415274, 1607415276, 1607415279, 1607415281, 1607415283, 1607415285, 1607415288, 1607415290, 1607415293, 1607415294, 1607415292, 1607415291], "tags": {"alt_name": "Hyllie station", "building": "train_station", "name": "Hyllie", "platforms": "4", "public_transport": "station", "railway": "station", "ref": "Hie", "uic_ref": "7401586", "wheelchair": "limited", "wikidata": "Q1844369", "wikipedia": "sv:Hyllie station"}}]}