{"version": 0.6, "generator": "Overpass API 0.7.56.9 76e5016d", "osm3s": {"timestamp_osm_base": "2021-09-21T11:14:58Z", "copyright": "The data included in this document is from www.openstreetmap.org. The data is made available under ODbL."}, "elements": [{"type": "node", "id": 1634166173, "lat": 55.8689986, "lon": 13.0942982, "tags": {"amenity": "restaurant", "name": "Barbaros House"}}, {"type": "node", "id": 2742255900, "lat": 55.8629995, "lon": 13.1483614}, {"type": "node", "id": 2742255902, "lat": 55.8630038, "lon": 13.1485944}, {"type": "node", "id": 2742255934, "lat": 55.8631291, "lon": 13.1483538}, {"type": "node", "id": 2742255936, "lat": 55.8631334, "lon": 13.1485869}, {"type": "node", "id": 9017317254, "lat": 55.8633691, "lon": 13.1582093, "tags": {"amenity": "restaurant", "name": "Hardings"}}, {"type": "way", "id": 268935508, "nodes": [2742255934, 2742255936, 2742255902, 2742255900, 2742255934], "tags": {"addr:city": "Marieholm", "addr:country": "SE", "addr:housenumber": "4", "addr:street": "K\u00e4vlingev\u00e4gen", "amenity": "restaurant", "building": "yes", "cuisine": "pizza", "name": "Marieholms restaurang"}}]}