{"version": 0.6, "generator": "Overpass API 0.7.56.9 76e5016d", "osm3s": {"timestamp_osm_base": "2021-09-21T12:00:59Z", "copyright": "The data included in this document is from www.openstreetmap.org. The data is made available under ODbL."}, "elements": [{"type": "node", "id": 12705587, "lat": 55.8824425, "lon": 12.5315085, "tags": {"name": "Rungsted Kyst", "public_transport": "station", "railway": "station", "railway:ref": "Ru", "wikidata": "Q7379866"}}, {"type": "node", "id": 12705592, "lat": 55.8527265, "lon": 12.5624471, "tags": {"name": "Vedb\u00e6k", "public_transport": "station", "railway": "halt", "railway:ref": "Vb"}}, {"type": "node", "id": 20946305, "lat": 55.8076871, "lon": 12.4685342, "tags": {"light_rail": "yes", "name": "Holte", "operator": "DSB", "public_transport": "station", "railway": "station", "railway:ref": "Hot", "station": "light_rail", "wikidata": "Q4289870"}}, {"type": "node", "id": 279575818, "lat": 55.9770374, "lon": 12.4069742, "tags": {"name": "Fredensborg", "public_transport": "station", "railway": "station", "railway:ref": "Fd", "wikidata": "Q12312492"}}, {"type": "node", "id": 279575829, "lat": 55.9812303, "lon": 12.4515485, "tags": {"name": "Langer\u00f8d", "public_transport": "station", "railway": "halt", "railway:ref": "Lrt"}}, {"type": "node", "id": 293064041, "lat": 55.9334337, "lon": 12.5062517, "tags": {"name": "Niv\u00e5", "public_transport": "station", "railway": "station", "railway:ref": "Ni", "wikidata": "Q12329072"}}, {"type": "node", "id": 349187308, "lat": 55.8403845, "lon": 12.4235029, "tags": {"light_rail": "yes", "name": "Birker\u00f8d", "public_transport": "station", "railway": "station", "railway:ref": "Bi", "station": "light_rail", "wikidata": "Q3260911"}}, {"type": "node", "id": 571279866, "lat": 55.8659162, "lon": 12.8272056, "tags": {"amenity": "bus_station", "name": "Landskrona Skeppsbron", "public_transport": "station"}}, {"type": "node", "id": 705436137, "lat": 55.8234905, "lon": 12.5716763, "tags": {"name": "Skodsborg", "public_transport": "station", "railway": "station", "railway:ref": "S\u00e5", "wikidata": "Q12335738"}}, {"type": "node", "id": 855111002, "lat": 55.8713107, "lon": 13.0854569}, {"type": "node", "id": 855111024, "lat": 55.871059, "lon": 13.0864588}, {"type": "node", "id": 855111077, "lat": 55.871336, "lon": 13.0856576}, {"type": "node", "id": 969996610, "lat": 56.0401889, "lon": 12.6110689, "tags": {"name": "Gr\u00f8nnehave", "public_transport": "station", "railway": "station", "railway:ref": "Gr\u00f8", "wikidata": "Q12314516"}}, {"type": "node", "id": 973877157, "lat": 56.0891468, "lon": 12.4597507, "tags": {"name": "Hornb\u00e6k", "public_transport": "station", "railway": "station", "railway:ref": "Hnk", "wikidata": "Q12317219"}}, {"type": "node", "id": 974277027, "lat": 56.089918, "lon": 12.4353091, "tags": {"name": "Horneby Sand", "public_transport": "station", "railway": "halt", "railway:ref": "Hsa"}}, {"type": "node", "id": 974277028, "lat": 56.0926327, "lon": 12.4236891, "tags": {"name": "Kildekrog", "public_transport": "station", "railway": "halt", "railway:ref": "Kil"}}, {"type": "node", "id": 974278697, "lat": 56.0770008, "lon": 12.4855689, "tags": {"name": "Saunte", "public_transport": "station", "railway": "station", "railway:ref": "Sau", "wikidata": "Q12334696"}}, {"type": "node", "id": 981794046, "lat": 56.0783894, "lon": 12.5131402, "tags": {"name": "Skibstrup", "public_transport": "station", "railway": "halt", "railway:ref": "Skb"}}, {"type": "node", "id": 981794047, "lat": 56.0829775, "lon": 12.4686067, "tags": {"name": "Karineb\u00e6k", "public_transport": "station", "railway": "halt", "railway:ref": "Kab"}}, {"type": "node", "id": 982184668, "lat": 56.0021658, "lon": 12.5327463, "tags": {"name": "M\u00f8rdrup", "public_transport": "station", "railway": "halt", "railway:ref": "M\u00f8t"}}, {"type": "node", "id": 996708565, "lat": 56.0093169, "lon": 12.5831746, "tags": {"name": "Snekkersten", "public_transport": "station", "railway": "station", "railway:ref": "Sq", "wikidata": "Q1825718"}}, {"type": "node", "id": 1029779062, "lat": 56.0750002, "lon": 12.5383162, "tags": {"name": "\u00c5lsg\u00e5rde", "public_transport": "station", "railway": "station", "railway:ref": "Aal", "wikidata": "Q15280883"}}, {"type": "node", "id": 1029779166, "lat": 56.0666162, "lon": 12.5540236, "tags": {"name": "Helleb\u00e6k", "public_transport": "station", "railway": "station", "railway:ref": "Hel", "wikidata": "Q12316088"}}, {"type": "node", "id": 1029779207, "lat": 56.0432857, "lon": 12.6023376, "tags": {"name": "Marienlyst", "public_transport": "station", "railway": "halt", "railway:ref": "Mar"}}, {"type": "node", "id": 1030167773, "lat": 56.032885, "lon": 12.6131788, "tags": {"name": "Helsing\u00f8r", "public_transport": "station", "railway": "station", "railway:ref": "Hg", "wikidata": "Q2162602"}}, {"type": "node", "id": 1030169723, "lat": 56.0480848, "lon": 12.5932509, "tags": {"name": "H\u00f8jstrup", "public_transport": "station", "railway": "station", "railway:ref": "H\u00f8p", "wikidata": "Q12317799"}}, {"type": "node", "id": 1151857144, "lat": 55.9962961, "lon": 12.5497608, "tags": {"amenity": "bus_station", "bus": "yes", "name": "Esperg\u00e6rde Station", "public_transport": "station"}}, {"type": "node", "id": 1631414194, "lat": 56.033997, "lon": 12.6157324, "tags": {"amenity": "ferry_terminal", "cargo": "passengers;bicycle", "ferry": "yes", "operator": "Sundbusserne", "public_transport": "station"}}, {"type": "node", "id": 1736388766, "lat": 55.9027239, "lon": 12.5022195, "tags": {"amenity": "bus_station", "bus": "yes", "name": "Kokkedal st. Bus(150S,500S,377,384,95N)", "public_transport": "station", "wheelchair": "yes"}}, {"type": "node", "id": 1862951488, "lat": 56.0296728, "lon": 12.6097261, "tags": {"amenity": "ferry_terminal", "ferry": "yes", "name": "Forsea", "network": "https://www.forsea.dk", "note": "Fahrscheine F\u00e4hre", "operator": "Forsea", "payment:coins": "yes", "payment:debit_cards": "yes", "payment:electronic_purses": "yes", "payment:notes": "yes", "public_transport": "station", "website": "https://www.forsea.dk"}}, {"type": "node", "id": 1922594960, "lat": 55.9960945, "lon": 12.5495439, "tags": {"amenity": "bus_station", "bus": "yes", "operator": "PAPUGA", "public_transport": "station"}}, {"type": "node", "id": 1935599097, "lat": 55.9340773, "lon": 12.5058579, "tags": {"amenity": "bus_station", "bus": "yes", "name": "Niv\u00e5 st.", "public_transport": "station"}}, {"type": "node", "id": 1944571163, "lat": 55.8828268, "lon": 12.5316811, "tags": {"amenity": "bus_station", "bus": "yes", "public_transport": "station"}}, {"type": "node", "id": 2103252551, "lat": 55.9032608, "lon": 12.5024245, "tags": {"name": "Kokkedal", "public_transport": "station", "railway": "halt", "railway:ref": "Ok"}}, {"type": "node", "id": 2450710436, "lat": 55.8656464, "lon": 12.8259359}, {"type": "node", "id": 2450710437, "lat": 55.8657892, "lon": 12.825506}, {"type": "node", "id": 2450710438, "lat": 55.8659482, "lon": 12.8261448}, {"type": "node", "id": 2450710439, "lat": 55.8659657, "lon": 12.8256141}, {"type": "node", "id": 2462198177, "lat": 55.8709613, "lon": 13.0855949}, {"type": "node", "id": 2462198180, "lat": 55.87117, "lon": 13.0864179}, {"type": "node", "id": 3168442677, "lat": 55.8230233, "lon": 13.0323526, "tags": {"name": "D\u00f6sjebro", "public_transport": "station", "railway": "station", "ref": "D\u00f6s", "train": "yes"}}, {"type": "node", "id": 3168442678, "lat": 55.9441998, "lon": 12.8139456, "tags": {"name": "Glumsl\u00f6v", "public_transport": "station", "railway": "station", "ref": "Glv"}}, {"type": "node", "id": 3168442680, "lat": 55.8609346, "lon": 12.9117426, "tags": {"name": "H\u00e4ljarp", "public_transport": "station", "railway": "station", "railway:track_ref": "1", "ref": "H\u00e4p", "train": "yes"}}, {"type": "node", "id": 3168442683, "lat": 55.9658595, "lon": 12.7834962, "tags": {"name": "Rydeb\u00e4ck", "public_transport": "station", "railway": "station", "ref": "Ry\u00e4", "wheelchair": "yes"}}, {"type": "node", "id": 3168462305, "lat": 55.8705218, "lon": 13.0857829, "tags": {"name": "Teckomatorp", "public_transport": "station", "railway": "station", "ref": "Tp"}}, {"type": "node", "id": 3170047172, "lat": 55.883817, "lon": 12.9957337, "tags": {"name": "Billeberga", "public_transport": "station", "railway": "station", "ref": "Bib"}}, {"type": "node", "id": 3378132455, "lat": 56.0976319, "lon": 12.3875631, "tags": {"name": "Dronningm\u00f8lle", "public_transport": "station", "railway": "station", "railway:ref": "Drm", "wikidata": "Q12308992"}}, {"type": "node", "id": 3419809033, "lat": 55.9022831, "lon": 12.5021839}, {"type": "node", "id": 3419809034, "lat": 55.9028168, "lon": 12.5019571}, {"type": "node", "id": 3419809035, "lat": 55.9030117, "lon": 12.5021409}, {"type": "node", "id": 3419809036, "lat": 55.9030637, "lon": 12.5022734}, {"type": "node", "id": 3419809037, "lat": 55.902956, "lon": 12.5023628}, {"type": "node", "id": 3419809038, "lat": 55.9025253, "lon": 12.5025813}, {"type": "node", "id": 3419809039, "lat": 55.9022413, "lon": 12.5022833}, {"type": "node", "id": 5672913971, "lat": 55.9905165, "lon": 12.5027958, "tags": {"name": "Kvistg\u00e5rd", "public_transport": "station", "railway": "halt", "railway:ref": "K\u00e5"}}, {"type": "node", "id": 5767992044, "lat": 55.8138743, "lon": 12.5281913, "tags": {"light_rail": "yes", "name": "N\u00e6rum", "public_transport": "station", "railway": "station", "railway:ref": "N\u00e6r", "station": "light_rail", "wikidata": "Q12329544"}}, {"type": "node", "id": 5987468124, "lat": 55.9637554, "lon": 12.5330122, "tags": {"name": "Humleb\u00e6k", "public_transport": "station", "railway": "halt", "railway:ref": "Hum"}}, {"type": "node", "id": 5987802721, "lat": 55.9954523, "lon": 12.5495709, "tags": {"name": "Esperg\u00e6rde", "public_transport": "station", "railway": "halt", "railway:ref": "G\u00e6"}}, {"type": "node", "id": 8892052671, "lat": 55.9035448, "lon": 12.7223024, "tags": {"amenity": "ferry_terminal", "ferry": "yes", "name": "Helsingborg - Ven", "operator": "Hartford Rederi AB", "public_transport": "station"}}, {"type": "way", "id": 71938244, "nodes": [855111002, 855111077, 2462198180, 855111024, 2462198177, 855111002], "tags": {"amenity": "bus_station", "name": "Teckomatorps station", "public_transport": "station"}}, {"type": "way", "id": 237124853, "nodes": [2450710437, 2450710436, 2450710438, 2450710439, 2450710437], "tags": {"building": "yes", "public_transport": "station"}}, {"type": "way", "id": 334860995, "nodes": [3419809033, 3419809034, 3419809035, 3419809036, 3419809037, 3419809038, 3419809039, 3419809033], "tags": {"amenity": "bus_station", "bus": "yes", "name": "Kokkedal Station", "operator": "PAPUGA", "public_transport": "station", "wheelchair": "yes"}}]}