{"version": 0.6, "generator": "Overpass API 0.7.56.9 76e5016d", "osm3s": {"timestamp_osm_base": "2021-09-21T12:01:59Z", "copyright": "The data included in this document is from www.openstreetmap.org. The data is made available under ODbL."}, "elements": [{"type": "node", "id": 30334728, "lat": 56.0625363, "lon": 12.1363259, "tags": {"name": "Vejby", "public_transport": "station", "railway": "station", "railway:ref": "Vej", "wikidata": "Q12343746"}}, {"type": "node", "id": 30334737, "lat": 56.0556907, "lon": 12.1626176, "tags": {"name": "\u00d8rby", "public_transport": "station", "railway": "halt", "railway:ref": "\u00d8bg"}}, {"type": "node", "id": 30334748, "lat": 56.0231203, "lon": 12.2054546, "tags": {"name": "Helsinge", "public_transport": "station", "railway": "station", "railway:ref": "Hlg", "wikidata": "Q12316163"}}, {"type": "node", "id": 30334754, "lat": 56.0096416, "lon": 12.2628678, "tags": {"name": "Duemose", "public_transport": "station", "railway": "halt", "railway:ref": "Dug"}}, {"type": "node", "id": 30334760, "lat": 55.9974247, "lon": 12.2860904, "tags": {"name": "Kagerup", "public_transport": "station", "railway": "station", "railway:ref": "Kgg", "wikidata": "Q12321032"}}, {"type": "node", "id": 30334762, "lat": 55.9872318, "lon": 12.3022266, "tags": {"name": "Gribs\u00f8", "public_transport": "station", "railway": "halt", "railway:ref": "G\u00f8g"}}, {"type": "node", "id": 30911532, "lat": 55.9373116, "lon": 11.9052677, "tags": {"amenity": "ferry_terminal", "ferry": "yes", "name": "F\u00e6rgeoverfarten Kulhuse - S\u00f8lager", "public_transport": "station"}}, {"type": "node", "id": 30911540, "lat": 55.9443844, "lon": 11.9024492, "tags": {"amenity": "ferry_terminal", "ferry": "yes", "name": "F\u00e6rgeoverfarten S\u00f8lager - Kulhuse", "public_transport": "station"}}, {"type": "node", "id": 60123928, "lat": 55.9231206, "lon": 12.0733664, "tags": {"name": "\u00d8lsted", "public_transport": "station", "railway": "station", "railway:ref": "\u00d8ls", "wheelchair": "yes", "wikidata": "Q12342006"}}, {"type": "node", "id": 270506611, "lat": 56.0593898, "lon": 12.0779859, "tags": {"name": "Tisvildeleje", "public_transport": "station", "railway": "station", "railway:ref": "Tvl", "wikidata": "Q12339449"}}, {"type": "node", "id": 270507353, "lat": 56.0595256, "lon": 12.1172836, "tags": {"name": "Holl\u00f8se", "public_transport": "station", "railway": "halt", "railway:ref": "Hog"}}, {"type": "node", "id": 290264375, "lat": 55.8867645, "lon": 12.2021191, "tags": {"name": "G\u00f8rl\u00f8se", "public_transport": "station", "railway": "station", "railway:ref": "G\u00f8r", "wikidata": "Q12314810"}}, {"type": "node", "id": 409130801, "lat": 56.1163997, "lon": 12.2983736, "tags": {"name": "Fjellenstrup", "public_transport": "station", "railway": "halt", "railway:ref": "Fjg"}}, {"type": "node", "id": 409130897, "lat": 56.0632032, "lon": 12.2956377, "tags": {"name": "Gr\u00e6sted syd", "public_transport": "station", "railway": "halt", "railway:ref": "Grs"}}, {"type": "node", "id": 496383856, "lat": 55.8649715, "lon": 12.3828421, "tags": {"name": "Blovstr\u00f8d H", "public_transport": "station", "railway": "station"}}, {"type": "node", "id": 496386014, "lat": 55.8583852, "lon": 12.3754988, "tags": {"name": "Oskar Jensens Bro", "public_transport": "station", "railway": "halt"}}, {"type": "node", "id": 587738050, "lat": 55.8349843, "lon": 12.0661855, "tags": {"light_rail": "yes", "name": "Frederikssund", "public_transport": "station", "railway": "station", "railway:ref": "Fs", "toilets": "no", "wheelchair": "yes", "wikidata": "Q2350881"}}, {"type": "node", "id": 587738110, "lat": 55.7957669, "lon": 12.1593166, "tags": {"light_rail": "yes", "name": "\u00d8lstykke", "public_transport": "station", "railway": "station", "railway:ref": "\u00d8l", "station": "light_rail", "wikidata": "Q8079213"}}, {"type": "node", "id": 597771482, "lat": 55.8121053, "lon": 12.3737085, "tags": {"light_rail": "yes", "name": "Farum", "public_transport": "station", "railway": "station", "railway:ref": "Fm", "station": "light_rail", "wheelchair": "yes", "wheelchair:description": "Hele forpladsen til stationsomr\u00e5det er belagt med sm\u00e5 brosten. Det g\u00f8r det meget sv\u00e6rt at komme til og fra stationen.", "wikidata": "Q2494694"}}, {"type": "node", "id": 606290640, "lat": 55.9684351, "lon": 12.0194657, "tags": {"name": "Frederiksv\u00e6rk", "public_transport": "station", "railway": "station", "railway:ref": "Frv", "wheelchair": "yes", "wikidata": "Q12312837"}}, {"type": "node", "id": 974079715, "lat": 56.1007761, "lon": 12.3013937, "tags": {"name": "P\u00e5rup", "public_transport": "station", "railway": "halt", "railway:ref": "Ppg"}}, {"type": "node", "id": 974395704, "lat": 56.0728918, "lon": 12.2867797, "tags": {"name": "Gr\u00e6sted", "public_transport": "station", "railway": "station", "railway:ref": "Gr\u00e6", "wikidata": "Q12314467"}}, {"type": "node", "id": 981472227, "lat": 55.9425356, "lon": 12.3111932, "tags": {"name": "Slotspavillonen", "public_transport": "station", "railway": "station", "railway:ref": "Spg", "wheelchair": "limited", "wikidata": "Q12336094"}}, {"type": "node", "id": 981721774, "lat": 56.0389494, "lon": 12.1832451, "tags": {"name": "Laug\u00f8", "public_transport": "station", "railway": "halt", "railway:ref": "L\u00f8g"}}, {"type": "node", "id": 981756634, "lat": 56.0306161, "lon": 12.3172416, "tags": {"name": "M\u00e5rum", "public_transport": "station", "railway": "station", "railway:ref": "Mmg", "wikidata": "Q12328043"}}, {"type": "node", "id": 982170796, "lat": 55.9531826, "lon": 12.3694427, "tags": {"name": "Gr\u00f8nholt", "public_transport": "station", "railway": "halt", "railway:ref": "Grt"}}, {"type": "node", "id": 982618713, "lat": 56.054409, "lon": 12.3218282, "tags": {"name": "Saltrup", "public_transport": "station", "railway": "halt", "railway:ref": "Sag"}}, {"type": "node", "id": 996617445, "lat": 55.9664199, "lon": 12.392047, "tags": {"name": "Kratbjerg", "public_transport": "station", "railway": "halt", "railway:ref": "Krb"}}, {"type": "node", "id": 998154730, "lat": 55.9465918, "lon": 12.0342457, "tags": {"name": "Lille Kregme", "public_transport": "station", "railway": "halt", "railway:ref": "Llk"}}, {"type": "node", "id": 998154790, "lat": 55.9349214, "lon": 12.0465329, "tags": {"name": "Kregme", "public_transport": "station", "railway": "station", "railway:ref": "Krf", "wheelchair": "yes", "wikidata": "Q12322837"}}, {"type": "node", "id": 998155107, "lat": 55.9073352, "lon": 12.1495823, "tags": {"name": "Sk\u00e6vinge", "public_transport": "station", "railway": "station", "railway:ref": "Skv", "wheelchair": "yes", "wikidata": "Q12335965"}}, {"type": "node", "id": 998155928, "lat": 55.8935491, "lon": 12.2795272, "tags": {"name": "Br\u00f8deskov", "public_transport": "station", "railway": "station", "railway:ref": "Bsk", "wheelchair": "yes", "wikidata": "Q12304533"}}, {"type": "node", "id": 998175782, "lat": 55.975101, "lon": 12.0012103, "tags": {"name": "Hanehoved", "public_transport": "station", "railway": "halt", "railway:ref": "Hhf"}}, {"type": "node", "id": 998228805, "lat": 55.9657624, "lon": 11.8465877, "tags": {"name": "Hundested Havn", "public_transport": "station", "railway": "station", "railway:ref": "Huh", "wheelchair": "yes", "wikidata": "Q12317452"}}, {"type": "node", "id": 998228941, "lat": 55.9602162, "lon": 11.8730926, "tags": {"name": "Vibehus", "public_transport": "station", "railway": "halt", "railway:ref": "Vif"}}, {"type": "node", "id": 998228961, "lat": 55.9767852, "lon": 11.9136932, "tags": {"name": "\u00d8sterbjerg", "public_transport": "station", "railway": "station", "railway:ref": "\u00d8sf", "wikidata": "Q12342111"}}, {"type": "node", "id": 998229009, "lat": 55.991433, "lon": 11.971413, "tags": {"name": "Melby", "public_transport": "station", "railway": "station", "railway:ref": "Mel", "wheelchair": "yes", "wikidata": "Q12326581"}}, {"type": "node", "id": 998776421, "lat": 56.0982157, "lon": 12.356426, "tags": {"name": "Firh\u00f8j", "public_transport": "station", "railway": "station", "railway:ref": "Fir", "wikidata": "Q12311425"}}, {"type": "node", "id": 998781639, "lat": 56.1005472, "lon": 12.333882, "tags": {"name": "S\u00f8borg", "public_transport": "station", "railway": "halt", "railway:ref": "S\u00f8b"}}, {"type": "node", "id": 999247120, "lat": 55.91571, "lon": 12.1021686, "tags": {"name": "Grimstrup", "public_transport": "station", "railway": "halt", "railway:ref": "Gsf"}}, {"type": "node", "id": 1106552903, "lat": 56.1225918, "lon": 12.3091701, "tags": {"name": "Gilleleje \u00d8st", "public_transport": "station", "railway": "halt", "railway:ref": "Gl\u00f8"}}, {"type": "node", "id": 1733449578, "lat": 55.9270287, "lon": 12.311414, "tags": {"light_rail": "yes", "name": "Hiller\u00f8d", "operator": "DSB S-tog", "public_transport": "station", "railway": "station", "railway:ref": "Hi", "station": "light_rail", "wheelchair": "yes"}}, {"type": "node", "id": 1735290089, "lat": 55.8710098, "lon": 12.3563603, "tags": {"amenity": "bus_station", "bus": "yes", "name": "Aller\u00f8d st.", "public_transport": "station"}}, {"type": "node", "id": 1797765147, "lat": 55.9276718, "lon": 12.3113945, "tags": {"name": "Hiller\u00f8d", "operator": "Nordsj\u00e6llands Lokalbaner", "public_transport": "station", "railway": "station", "railway:ref": "Hi", "train": "yes", "wheelchair": "yes"}}, {"type": "node", "id": 1967961407, "lat": 55.843849, "lon": 12.1745316}, {"type": "node", "id": 1967961411, "lat": 55.843948, "lon": 12.1751723}, {"type": "node", "id": 1967961435, "lat": 55.8442282, "lon": 12.1743456}, {"type": "node", "id": 1967961450, "lat": 55.8443272, "lon": 12.1749863}, {"type": "node", "id": 2125774244, "lat": 55.9854238, "lon": 11.9427382, "tags": {"name": "Dyssekilde", "public_transport": "station", "railway": "station", "railway:ref": "Dsk", "wikidata": "Q12309132"}}, {"type": "node", "id": 2125797516, "lat": 56.0599174, "lon": 12.0972072, "tags": {"name": "Godhavn", "public_transport": "station", "railway": "halt", "railway:ref": "Ghg"}}, {"type": "node", "id": 2318879730, "lat": 55.9636015, "lon": 11.8527389, "tags": {"name": "Hundested", "public_transport": "station", "railway": "station", "railway:ref": "Hun", "wikidata": "Q2063161"}}, {"type": "node", "id": 2319475694, "lat": 56.123614, "lon": 12.3022774, "tags": {"name": "Gilleleje", "public_transport": "station", "railway": "station", "railway:ref": "Gll", "wikidata": "Q12313890"}}, {"type": "node", "id": 3378133411, "lat": 56.1122073, "lon": 12.3188462, "tags": {"name": "St\u00e6remosen", "public_transport": "station", "railway": "halt", "railway:ref": "St\u00e6"}}, {"type": "node", "id": 4999568739, "lat": 55.8509769, "lon": 12.3883601, "tags": {"light_rail": "yes", "name": "H\u00f8velte", "public_transport": "station", "railway": "halt", "railway:ref": "H\u00f8v", "station": "light_rail"}}, {"type": "node", "id": 5163379132, "lat": 55.8033845, "lon": 12.387554, "tags": {"amenity": "ferry_terminal", "cargo": "passengers", "ferry": "yes", "name": "Fures\u00f8bad", "operator": "B\u00e5dfarten", "public_transport": "station", "source": "survey"}}, {"type": "node", "id": 5672905559, "lat": 55.8582756, "lon": 12.3771815, "tags": {"name": "Teglv\u00e6rket", "public_transport": "station", "railway": "station"}}, {"type": "node", "id": 5696961214, "lat": 55.8710875, "lon": 12.3569533, "tags": {"light_rail": "yes", "name": "Aller\u00f8d", "old_name": "Liller\u00f8d", "operator": "DSB", "public_transport": "station", "railway": "station", "railway:ref": "Li", "station": "light_rail", "wheelchair": "yes", "wikidata": "Q4596270"}}, {"type": "node", "id": 5697181536, "lat": 55.8614974, "lon": 12.379674, "tags": {"name": "Storkevad", "public_transport": "station", "railway": "halt"}}, {"type": "node", "id": 8203164043, "lat": 55.8102883, "lon": 12.1158016, "tags": {"light_rail": "yes", "name": "Vinge", "public_transport": "station", "railway": "halt", "railway:ref": "Vng", "start_date": "2020-12-14", "station": "light_rail", "wheelchair": "yes"}}, {"type": "way", "id": 186090860, "nodes": [1967961450, 1967961435, 1967961407, 1967961411, 1967961450], "tags": {"amenity": "bus_station", "name": "Slangerup Busstation", "public_transport": "station"}}]}