{"version": 0.6, "generator": "Overpass API 0.7.56.9 76e5016d", "osm3s": {"timestamp_osm_base": "2021-09-21T11:15:59Z", "copyright": "The data included in this document is from www.openstreetmap.org. The data is made available under ODbL."}, "elements": [{"type": "node", "id": 26727018, "lat": 55.6732754, "lon": 12.0815339, "tags": {"amenity": "restaurant", "cuisine": "regional", "fvst:navnelbnr": "108905", "name": "Vigen", "opening_hours": "Apr-Sep 12:00-22:00; Oct-Mar Mo-We 12:00-22:00", "phone": "+45 46755008"}}, {"type": "node", "id": 279792273, "lat": 55.6665313, "lon": 12.4095803, "tags": {"amenity": "restaurant", "contact:facebook": "La-Cocotte", "fvst:name": "Glostrup Park Hotel Restaurant La Cocotte", "fvst:navnelbnr": "90258", "name": "La Cocotte", "opening_hours": "06:30-22:00", "phone": "+45 43221806", "website": "https://www.parkhotel.dk/en/restaurant-2/"}}, {"type": "node", "id": 282883589, "lat": 55.6654653, "lon": 12.3986009, "tags": {"amenity": "restaurant", "cuisine": "regional", "fvst:navnelbnr": "721746", "level": "1", "name": "Siesta", "opening_hours": "09:00-23:00; Su,PH 10:00-22:00", "phone": "+45 43453484", "website": "https://restaurantsiesta.dk/"}}, {"type": "node", "id": 286687998, "lat": 55.6227438, "lon": 12.3880111, "tags": {"amenity": "restaurant", "cuisine": "chinese", "fvst:navnelbnr": "107973", "name": "Hao Hua", "opening_hours": "10:00-23:00", "phone": "+45 43561858"}}, {"type": "node", "id": 286688141, "lat": 55.6231942, "lon": 12.3889423, "tags": {"amenity": "restaurant", "cuisine": "steak", "fvst:navnelbnr": "546523", "name": "Kaff'ka Cafe & Steakhouse", "opening_hours": "Mo-Th 11:00-22:00; Fr-Sa 11:00-22:00; Su 12:00-22:00", "phone": "+45 43541006", "website": "http://www.cafekaffka.dk/"}}, {"type": "node", "id": 288484775, "lat": 55.7813053, "lon": 12.3700289, "tags": {"amenity": "restaurant", "cuisine": "italian", "fvst:navnelbnr": "98049", "name": "Mediterraneo", "opening_hours": "Mo-Fr 16:00-22:00; Sa-Su 16:00-23:00", "opening_hours:kitchen": "Mo-Fr 16:00-21:00; Sa-Su 16:00-22:00", "phone": "+45 44484141", "website": "https://mediterraneo.dk/"}}, {"type": "node", "id": 300149063, "lat": 55.5937878, "lon": 12.3430026, "tags": {"amenity": "restaurant", "cuisine": "asian", "fvst:navnelbnr": "634478", "name": "Cheng's K\u00f8kken", "opening_hours": "Mo-Fr 15:00-21:30; Sa-Su 12:00-21:30", "phone": "+45 43696661", "website": "http://www.chengskoekken.dk/"}}, {"type": "node", "id": 364723505, "lat": 55.7290411, "lon": 12.3598513, "tags": {"amenity": "restaurant", "cuisine": "chinese", "fvst:navnelbnr": "109168", "name": "Ba-Le", "opening_hours": "11:30-22:00; Jul 1-Aug 10 Tu off", "phone": "+45 44661500", "takeaway": "yes", "website": "http://www.ba-le.dk/"}}, {"type": "node", "id": 835197255, "lat": 55.7846219, "lon": 12.3736713, "tags": {"amenity": "restaurant", "cuisine": "italian", "fvst:navnelbnr": "511462", "name": "Ristorante Atlantico", "opening_hours": "Mo-Th 12:00-22:00; Fr-Sa 12:00-23:00; Su,PH 15:00-22:00", "price": "DKK 200 menu", "website": "https://www.atlantico.dk/"}}, {"type": "node", "id": 835197259, "lat": 55.7830724, "lon": 12.3728534, "tags": {"amenity": "restaurant", "cuisine": "chinese", "fvst:navnelbnr": "92884", "name": "Hai Long", "opening_hours": "Mo-Th 14:00-22:00; Fr-Sa 12:00-22:00; Su,PH 14:00-22:00", "phone": "+45 44488886", "website": "http://www.hailong.dk"}}, {"type": "node", "id": 945491916, "lat": 55.6499171, "lon": 12.0779752, "tags": {"amenity": "restaurant", "fvst:navnelbnr": "111107", "name": "Snekken", "opening_hours": "Mo-Fr 11:30-22:00; Sa-Su 10:00-22:00", "opening_hours:kitchen": "Mo-Fr 11:30-16:30,17:30-21:00; Sa-Su 10:00-16:30,17:30-21:00", "website": "http://www.snekken.dk"}}, {"type": "node", "id": 1071641489, "lat": 55.7335646, "lon": 12.3873733, "tags": {"amenity": "restaurant", "contact:phone": "+45 4468 1000", "cuisine": "european", "fvst:navnelbnr": "90394", "name": "Lautrup Park Restaurant", "opening_hours": "Mo-Fr 06:00-10:00,12:00-14:00,18:00-21:45; Sa-Su 07:00-10:30,17:30-21:00", "operator": "Hotel Lautrup Park", "website": "https://lautruppark.dk/"}}, {"type": "node", "id": 1103998399, "lat": 55.7628, "lon": 12.3838818, "tags": {"amenity": "restaurant", "cuisine": "regional", "fvst:navnelbnr": "95248", "microbrewery": "yes", "name": "Bryggeri Skovlyst", "opening_hours": "Mo-Sa 11:30-22:00; Su 11:30-17:00", "opening_hours:kitchen": "Mo-Sa 11:30-15:30, 17:00-21:00; Su 11:30-16:00", "outdoor_seating": "yes", "phone": "+45 44986545", "website": "https://www.bryggeriskovlyst.dk/", "wheelchair": "yes", "wikidata": "Q12304485", "wikipedia": "da:Bryggeri Skovlyst"}}, {"type": "node", "id": 1210920459, "lat": 55.6097474, "lon": 12.3889524, "tags": {"amenity": "restaurant", "fvst:navnelbnr": "91999", "name": "Kabyssen", "opening_hours": "Nov-Feb Tu-Su 10:00-17:00; Mar,Apr,Sep,Oct Su-We 12:00-17:00,Th-Sa 12:00-21:00; May-Aug 12:00-21:00", "opening_hours:kitchen": "Nov-Feb Tu-Su 10:00-17:00; Mar,Apr,Sep,Oct Su-We 12:00-17:00,Th-Sa 12:00-20:00; May-Aug 12:00-20:00", "phone": "+45 43737971", "website": "http://www.ishoj-havn.dk/kabyssen/"}}, {"type": "node", "id": 1222039856, "lat": 55.592609, "lon": 12.3535592, "tags": {"amenity": "restaurant", "cuisine": "steak;seafood", "fvst:navnelbnr": "931060", "name": "Fregatten", "opening_hours": "11:00-22:00", "phone": "+45 43601835", "website": "https://fregatten.dk/"}}, {"type": "node", "id": 1222040186, "lat": 55.6129018, "lon": 12.3968928, "tags": {"amenity": "restaurant", "cuisine": "seafood", "fvst:navnelbnr": "94621", "name": "Krabben", "opening_hours": "Mo-Fr 11:30-22:00; Sa-Su 12:00-22:00", "opening_hours:kitchen": "Mo-Fr 11:30-16:00,17:00-21:00; Sa-Su 12:00-16:00,17:00-21:00; Dec 24-Dec 26 off; Jan 1 off", "phone": "+45 43540545", "takeaway": "yes", "website": "https://restaurant-krabben.dk/"}}, {"type": "node", "id": 1271754667, "lat": 55.6499281, "lon": 12.2014907, "tags": {"amenity": "restaurant", "cuisine": "asian", "fvst:navnelbnr": "110811", "name": "Asia House", "opening_hours": "12:00-22:00", "opening_hours:buffet": "17:00-22:00", "website": "http://www.restaurant-asiahouse.dk/"}}, {"type": "node", "id": 1271754672, "lat": 55.6492419, "lon": 12.197792, "tags": {"amenity": "restaurant", "fvst:fixme": "wrong location in FVST", "fvst:name": "Bollinis Restaurant", "fvst:navnelbnr": "109720", "name": "Bollinis Familierestaurant", "opening_hours": "11:00-23:00", "opening_hours:kitchen": "11:00-21:30", "phone": "+45 46560095", "website": "http://www.bollinishedehusene.dk/"}}, {"type": "node", "id": 1304620532, "lat": 55.7942194, "lon": 12.1570201, "tags": {"amenity": "restaurant", "cuisine": "chinese;sushi;mongolian", "fvst:navnelbnr": "538746", "name": "Huang Cheng", "opening_hours": "Mo-Th 14:00-22:30; Fr-Su 12:00-23:00", "phone": "+45 4717 4088", "source": "local", "website": "http://www.huangcheng.dk"}}, {"type": "node", "id": 1456124569, "lat": 55.6656254, "lon": 12.3962752, "tags": {"alt_name": "Big Ben's Restaturant", "amenity": "restaurant", "fvst:navnelbnr": "740291", "name": "Big Ben Cafe og Restaurant"}}, {"type": "node", "id": 1559592567, "lat": 55.793706, "lon": 12.2628363}, {"type": "node", "id": 1559592583, "lat": 55.7934662, "lon": 12.2628363}, {"type": "node", "id": 1559592587, "lat": 55.7933185, "lon": 12.2628577}, {"type": "node", "id": 1559592612, "lat": 55.7935614, "lon": 12.2628109}, {"type": "node", "id": 1559592627, "lat": 55.793519, "lon": 12.2630535}, {"type": "node", "id": 1559592639, "lat": 55.7936763, "lon": 12.2628448}, {"type": "node", "id": 1559592640, "lat": 55.7934662, "lon": 12.2628068}, {"type": "node", "id": 1559592654, "lat": 55.7935597, "lon": 12.2627907}, {"type": "node", "id": 1559592663, "lat": 55.7937165, "lon": 12.2630267}, {"type": "node", "id": 1559592683, "lat": 55.7935168, "lon": 12.2630362}, {"type": "node", "id": 1559592704, "lat": 55.7933357, "lon": 12.2630784}, {"type": "node", "id": 1559592710, "lat": 55.7936739, "lon": 12.2627813}, {"type": "node", "id": 1670156959, "lat": 55.7414567, "lon": 12.3204795, "tags": {"amenity": "restaurant", "cuisine": "regional", "fvst:navnelbnr": "95311", "name": "Restaurant Kongemosen", "opening_hours": "Mo-Sa 12:00-22:00; Su 11:00- 15:00", "phone": "+45 44684545", "website": "http://www.restaurantkongemosen.dk/"}}, {"type": "node", "id": 1744716535, "lat": 55.6425803, "lon": 12.3522233, "tags": {"amenity": "restaurant", "fvst:navnelbnr": "95464", "name": "Spisestedet Mosen", "opening_hours": "We-Su 12:00-22:00", "opening_hours:kitchen": "We-Su 12:00-16:00,17:00-21:00", "website": "http://www.spisestedet-mosen.dk/"}}, {"type": "node", "id": 1816734394, "lat": 55.649644, "lon": 12.076869, "tags": {"amenity": "restaurant", "cuisine": "danish", "fvst:name": "Gourmethuset Store B\u00f8rs", "fvst:navnelbnr": "565382", "name": "Store B\u00f8rs", "opening_hours": "Tu-Sa 12:00-15:30,17:00-23:00", "phone": "+45 46325045", "website": "https://www.store-bors.dk/"}}, {"type": "node", "id": 1900404024, "lat": 55.7371049, "lon": 12.0301665}, {"type": "node", "id": 1900404028, "lat": 55.736965, "lon": 12.030268}, {"type": "node", "id": 1900404084, "lat": 55.7370928, "lon": 12.0298132}, {"type": "node", "id": 1900404119, "lat": 55.7369605, "lon": 12.0301563}, {"type": "node", "id": 1900404120, "lat": 55.7371404, "lon": 12.0299907}, {"type": "node", "id": 1900404139, "lat": 55.7370001, "lon": 12.0301526}, {"type": "node", "id": 1900404146, "lat": 55.7371067, "lon": 12.0302507}, {"type": "node", "id": 1900404161, "lat": 55.7369879, "lon": 12.0298192}, {"type": "node", "id": 1900404185, "lat": 55.7371412, "lon": 12.0301021}, {"type": "node", "id": 1900404194, "lat": 55.737096, "lon": 12.0299892}, {"type": "node", "id": 2105758200, "lat": 55.7591692, "lon": 12.3384496, "tags": {"alt_name": "Jonstrup Gl. K\u00f8bmandsgaard", "amenity": "restaurant", "cuisine": "french", "fvst:navnelbnr": "96895", "name": "Jonstrup Gl. K\u00f8bmandsg\u00e5rd", "opening_hours": "17:30-22:00", "website": "https://www.restaurantjonstrup.dk/"}}, {"type": "node", "id": 2287329172, "lat": 55.7371608, "lon": 12.0301008}, {"type": "node", "id": 2287329173, "lat": 55.7371615, "lon": 12.0301612}, {"type": "node", "id": 2619629810, "lat": 55.6460306, "lon": 12.0813229}, {"type": "node", "id": 2619629811, "lat": 55.6460756, "lon": 12.0815333}, {"type": "node", "id": 2619629814, "lat": 55.64615, "lon": 12.0812429}, {"type": "node", "id": 2619629819, "lat": 55.6461949, "lon": 12.0814533}, {"type": "node", "id": 2918430698, "lat": 55.6585032, "lon": 12.2723573, "tags": {"access": "private", "amenity": "restaurant", "fvst:navnelbnr": "925161", "name": "Teknologisk Institut Kantine", "opening_hours": "Mo-Fr"}}, {"type": "node", "id": 3096534539, "lat": 55.7369939, "lon": 12.0300058, "tags": {"entrance": "yes"}}, {"type": "node", "id": 3269145133, "lat": 55.6461741, "lon": 12.297647, "tags": {"amenity": "restaurant", "fvst:navnelbnr": "94839", "name": "Hereford Steak House", "opening_hours": "Mo-Fr 11:00-22:00;Sa 17:00-22:00", "phone": "+45 43 52 00 39", "website": "http://www.herefordsteakhouse.dk/"}}, {"type": "node", "id": 3404321054, "lat": 55.7445817, "lon": 12.097239, "tags": {"amenity": "restaurant", "cuisine": "asian", "fvst:navnelbnr": "505365", "name": "Ny Asien Jyllinge", "opening_hours": "May-Aug 12:00-22:00; Sep-Apr 17:00-22:00; 17:00-22:00; Dec 24-25 off", "phone": "+45 32105030", "website": "http://nyasien.dk/", "wheelchair": "yes"}}, {"type": "node", "id": 3404321167, "lat": 55.67995, "lon": 12.25731, "tags": {"amenity": "restaurant", "cuisine": "pork", "fvst:fixme": "fvst:no_pos", "fvst:navnelbnr": "948856", "name": "Sengel\u00f8se Kro", "opening_hours": "We 17:00-21:00", "phone": "+45 51784078", "website": "http://sengeloesekro.dk/"}}, {"type": "node", "id": 3739715147, "lat": 55.7485836, "lon": 12.101036, "tags": {"amenity": "restaurant", "cuisine": "steak", "fvst:navnelbnr": "91679", "name": "Restaurant S\u00f8fryd", "opening_hours": "11:30-23:00", "opening_hours:kitchen": "11:30-22:00", "phone": "+45 46788011", "website": "https://www.hotel-sofryd.dk/"}}, {"type": "node", "id": 3739718611, "lat": 55.6414996, "lon": 12.1008903, "tags": {"amenity": "restaurant", "cuisine": "steak", "fvst:navnelbnr": "554386", "level": "1", "name": "Flammen Roskilde", "opening_hours": "Su-We 17:00-22:00; Th 17:00-22:30; Fr-Sa 17:00-23:00; Sa 10:00-14:30", "phone": "+45 44223351", "website": "https://www.restaurant-flammen.dk/roskilde/", "wheelchair": "yes"}}, {"type": "node", "id": 3797548301, "lat": 55.7417457, "lon": 12.4002876}, {"type": "node", "id": 3922716415, "lat": 55.5822968, "lon": 12.3123748, "tags": {"amenity": "restaurant", "cuisine": "japanese", "fvst:name": "Fish & Rice Greve", "fvst:navnelbnr": "711967", "name": "Fish & Rice", "opening_hours": "14:00-16:00; Sa-Su 12:00-16:00", "takeaway": "yes", "website": "http://www.fishandrice.dk/"}}, {"type": "node", "id": 3922722266, "lat": 55.5995928, "lon": 12.3498737}, {"type": "node", "id": 3924300457, "lat": 55.5822252, "lon": 12.3124298, "tags": {"amenity": "restaurant", "fvst:navnelbnr": "557149", "name": "Zio Lino", "opening_hours": "16:00-22:00", "phone": "+45 43424349", "website": "http://www.ziolino.dk/"}}, {"type": "node", "id": 3927840503, "lat": 55.748213, "lon": 12.103915, "tags": {"amenity": "restaurant", "cuisine": "danish;italian", "fvst:navnelbnr": "92115", "name": "Restaurant Bondestuen", "opening_hours": "Tu-Fr 14:00-22:00; Sa,Su 12:00-22:00; Mo off", "phone": "+45 46789122", "website": "https://bondestuenjyllinge.dk/", "wheelchair": "yes"}}, {"type": "node", "id": 3927867702, "lat": 55.594159, "lon": 12.3427143, "tags": {"amenity": "restaurant", "fvst:navnelbnr": "109873", "name": "Restaurant Jin Jiang", "phone": "+45 43902277"}}, {"type": "node", "id": 3927867703, "lat": 55.5977936, "lon": 12.3292638, "tags": {"amenity": "restaurant", "cuisine": "steak", "fvst:name": "Jensens B\u00f8fhus", "fvst:navnelbnr": "132082", "name": "Jensens B\u00f8fhus Greve", "opening_hours": "11:00-21:00", "phone": "+45 70304050", "website": "https://www.jensens.com/restaurant/greve/"}}, {"type": "node", "id": 3930628132, "lat": 55.760754, "lon": 12.200037, "tags": {"amenity": "restaurant", "club": "sport", "fvst:navnelbnr": "92505", "name": "Stenl\u00f8se Boldklub", "sport": "soccer", "website": "https://www.stenloese-bk.dk/"}}, {"type": "node", "id": 3930628133, "lat": 55.793693, "lon": 12.154339, "tags": {"amenity": "restaurant", "cuisine": "italian", "fvst:name": "AA Rossini", "fvst:navnelbnr": "733400", "name": "Rossini", "phone": "+45 47176011"}}, {"type": "node", "id": 3932154895, "lat": 55.7682302, "lon": 12.1955168, "tags": {"amenity": "restaurant", "fvst:navnelbnr": "92987", "name": "R\u00e5dhus Cafe og Restaurant", "outdoor_seating": "yes", "phone": "+45 47108072"}}, {"type": "node", "id": 3932195076, "lat": 55.6417551, "lon": 12.0996762, "tags": {"amenity": "restaurant", "cuisine": "italian", "fvst:navnelbnr": "94283", "level": "1", "name": "La Rustica", "phone": "+45 46326347", "website": "http://www.la-rustica.dk/hvem-er-vi.aspx"}}, {"type": "node", "id": 3933198036, "lat": 55.613585, "lon": 12.355986, "tags": {"amenity": "restaurant", "cuisine": "sushi", "fvst:name": "Nya Sakura", "fvst:navnelbnr": "671369", "name": "NYU Sakura", "opening_hours": "11:00-21:30; Dec 24-25 off", "phone": "+45 50706688", "takeaway": "yes", "website": "https://www.nyu-sakura.dk/"}}, {"type": "node", "id": 3946818143, "lat": 55.7294492, "lon": 12.3578162, "tags": {"amenity": "restaurant", "cuisine": "sushi", "fvst:navnelbnr": "109600", "name": "Sushi V Take Away", "opening_hours": "11:30-21:00; Dec 24-25 off", "phone": "+45 44588688", "takeaway": "yes", "website": "http://sushi-v.dk/"}}, {"type": "node", "id": 3955884899, "lat": 55.6481964, "lon": 12.2726412, "tags": {"amenity": "restaurant", "fvst:navnelbnr": "557489", "name": "First Hotel H\u00f8je Taastrup Restaurant", "operator": "First Hotel H\u00f8je Taastrup"}}, {"type": "node", "id": 3955904881, "lat": 55.7320537, "lon": 12.3627344, "tags": {"amenity": "restaurant", "cuisine": "italian", "fvst:navnelbnr": "92250", "name": "Ristorante Avanti"}}, {"type": "node", "id": 3957313489, "lat": 55.661325, "lon": 12.334069, "tags": {"amenity": "restaurant", "cuisine": "pizza", "fvst:navnelbnr": "937198", "name": "Xanthos Pizza og Restaurant", "website": "http://www.xanthospizza.dk/"}}, {"type": "node", "id": 3957313494, "lat": 55.6248797, "lon": 12.4122959, "tags": {"amenity": "restaurant", "cuisine": "pizza;kebab;turkish", "fvst:navnelbnr": "518583", "name": "U.P. Pizzaria", "website": "http://www.up-pizza.dk/"}}, {"type": "node", "id": 4073455276, "lat": 55.7233013, "lon": 12.3739208, "tags": {"amenity": "restaurant", "cuisine": "steak", "fvst:fixme": "wrong location in FVST", "fvst:navnelbnr": "512784", "name": "Ballerup Bowling Restaurant", "opening_hours": "Tu-Sa 13:00-20:30", "phone": "+45 30302782"}}, {"type": "node", "id": 4268998697, "lat": 55.7309321, "lon": 12.3613766, "tags": {"amenity": "restaurant", "cuisine": "sushi", "fvst:navnelbnr": "636954", "name": "Great sushi", "opening_hours": "12:00-22:00", "phone": "+45 44661111", "takeaway": "yes", "website": "http://www.greatsushi.dk/"}}, {"type": "node", "id": 4332163377, "lat": 55.72733, "lon": 12.3431938, "tags": {"amenity": "restaurant", "cuisine": "sushi", "fvst:navnelbnr": "652654", "name": "Palace garden", "opening_hours": "14:00-22:00; Sa-Su 12:00-22:00", "phone": "+45 44668889", "website": "http://www.palacegarden.dk/"}}, {"type": "node", "id": 4462456733, "lat": 55.6644362, "lon": 12.4008778, "tags": {"amenity": "restaurant", "branch": "Glostrup", "cuisine": "sushi", "fvst:name": "Amor Glostrup", "fvst:navnelbnr": "1010085", "name": "Sushi Amor", "opening_hours": "Mo-Sa 12:00-21:00; Su 14:00-21:00", "ref:DK:cvr": "42484199", "ref:DK:cvr:pnummer": "1027282950", "takeaway": "yes", "website": "http://sushiamor.dk/Glostrup/index.html"}}, {"type": "node", "id": 4481540986, "lat": 55.7416601, "lon": 12.4002909}, {"type": "node", "id": 4481540987, "lat": 55.7416642, "lon": 12.4006304}, {"type": "node", "id": 4481540988, "lat": 55.7417443, "lon": 12.4001721}, {"type": "node", "id": 4481542390, "lat": 55.7418235, "lon": 12.400169}, {"type": "node", "id": 4481542391, "lat": 55.7418243, "lon": 12.400236}, {"type": "node", "id": 4481542393, "lat": 55.7418867, "lon": 12.4002336}, {"type": "node", "id": 4481542394, "lat": 55.7418915, "lon": 12.4006217}, {"type": "node", "id": 4593154512, "lat": 55.728474, "lon": 12.306098, "tags": {"amenity": "restaurant", "fvst:navnelbnr": "669835", "name": "Restaurant Eagle"}}, {"type": "node", "id": 4677393345, "lat": 55.6572297, "lon": 12.2717102, "tags": {"access": "customers", "amenity": "restaurant", "fvst:name": "Dansk Teknologisk Institut, G\u00e6sterestaurant Bygning 8", "fvst:navnelbnr": "925163", "name": "Dansk Teknologisk Institut, G\u00e6sterestaurant Bygning 8"}}, {"type": "node", "id": 4694407002, "lat": 55.6593087, "lon": 12.2706641, "tags": {"access": "private", "amenity": "restaurant", "fvst:navnelbnr": "925162", "name": "Dansk Teknologisk Institut, Medarbejderrestaurant Bygning 3"}}, {"type": "node", "id": 4993474364, "lat": 55.731913, "lon": 12.360739, "tags": {"amenity": "restaurant", "fvst:navnelbnr": "904609", "name": "Dr\u00f8mmen ApS"}}, {"type": "node", "id": 5054508474, "lat": 55.7163206, "lon": 11.9792528, "tags": {"amenity": "restaurant", "fvst:fixme": "fvst:no_pos", "fvst:navnelbnr": "985039", "name": "Gersh\u00f8j Kro & Strandhotel", "phone": "+45 24460124", "ref:DK:cvr": "42073660", "ref:DK:cvr:pnummer": "1026744454", "website": "https://gershojkro.dk/"}}, {"type": "node", "id": 5726695158, "lat": 55.7227742, "lon": 12.3856644, "tags": {"alt_name": "Nuova Italia 3", "amenity": "restaurant", "cuisine": "italian", "fvst:fixme": "fvst position missing, fixed from overpassturbo/osak", "fvst:navnelbnr": "954506", "name": "Nuova Italia", "phone": "+45 36724000", "website": "https://nuovaitalia.dk/"}}, {"type": "node", "id": 5737465463, "lat": 55.667677, "lon": 12.387582, "tags": {"amenity": "restaurant", "fvst:navnelbnr": "912884", "name": "Dem", "phone": "+45 87100010"}}, {"type": "node", "id": 5737495297, "lat": 55.6931801, "lon": 12.1004959, "tags": {"access": "employees", "amenity": "restaurant", "fvst:navnelbnr": "757217", "name": "DTU Ris\u00f8 Campus canteen"}}, {"type": "node", "id": 6195295343, "lat": 55.5995647, "lon": 12.3498368}, {"type": "node", "id": 6195299605, "lat": 55.5995739, "lon": 12.3502267}, {"type": "node", "id": 6195299812, "lat": 55.5997402, "lon": 12.349676}, {"type": "node", "id": 6195301651, "lat": 55.5996296, "lon": 12.349786}, {"type": "node", "id": 6195302060, "lat": 55.5996382, "lon": 12.3500734}, {"type": "node", "id": 6195307499, "lat": 55.5997877, "lon": 12.3497018}, {"type": "node", "id": 6195308916, "lat": 55.5995674, "lon": 12.3499695}, {"type": "node", "id": 6195309139, "lat": 55.5995789, "lon": 12.350196}, {"type": "node", "id": 6195311555, "lat": 55.5997633, "lon": 12.3497598}, {"type": "node", "id": 6195313997, "lat": 55.5995618, "lon": 12.3499476}, {"type": "node", "id": 6195318101, "lat": 55.599644, "lon": 12.3498048}, {"type": "node", "id": 6195319835, "lat": 55.5996331, "lon": 12.3500666}, {"type": "node", "id": 6195324154, "lat": 55.5996199, "lon": 12.350287}, {"type": "node", "id": 6195324372, "lat": 55.599713, "lon": 12.3496405}, {"type": "node", "id": 6195325526, "lat": 55.5995579, "lon": 12.3499569}, {"type": "node", "id": 6195325754, "lat": 55.5995101, "lon": 12.3501061}, {"type": "node", "id": 6195327988, "lat": 55.599814, "lon": 12.3498263}, {"type": "node", "id": 6195329305, "lat": 55.59975, "lon": 12.3496525}, {"type": "node", "id": 6195330345, "lat": 55.5995337, "lon": 12.3499107}, {"type": "node", "id": 6700631864, "lat": 55.6661004, "lon": 12.3981459, "tags": {"amenity": "restaurant", "cuisine": "steak_house", "fvst:navnelbnr": "789462", "name": "Restaurant Flammen Glostrup", "opening_hours": "17:00-22:00; Fr-Sa 17:00-23:00", "operator": "\u00d8vrige engros-k\u00e6der", "phone": "+45 44223362", "website": "https://www.restaurant-flammen.dk/glostrup/"}}, {"type": "node", "id": 7185304736, "lat": 55.649607, "lon": 12.26981, "tags": {"amenity": "restaurant", "fvst:fixme": "fvst position missing, fixed from overpassturbo/osak", "fvst:navnelbnr": "925066", "name": "Restaurant YoYo"}}, {"type": "node", "id": 7185304740, "lat": 55.667895, "lon": 12.387188, "tags": {"amenity": "restaurant", "cuisine": "chinese", "fvst:navnelbnr": "921408", "name": "Kinesisk Restaurant FEI HE"}}, {"type": "node", "id": 7198238010, "lat": 55.7840269, "lon": 12.3727652, "tags": {"amenity": "restaurant", "cuisine": "sushi", "fvst:navnelbnr": "913725", "name": "C-Weed", "opening_hours": "12:00-22:00", "phone": "+45 97878888", "website": "https://cweed.dk/"}}, {"type": "node", "id": 7705669302, "lat": 55.582228, "lon": 12.311315, "tags": {"amenity": "restaurant", "cuisine": "steak", "fvst:fixme": "fvst position missing, fixed from overpassturbo/osak", "fvst:name": "Bergs Steakhouse", "fvst:navnelbnr": "930618", "name": "Greve Steakhouse", "phone": "+45 33338787", "website": "https://grevesteakhouse.dk/"}}, {"type": "node", "id": 7705669303, "lat": 55.610403, "lon": 12.389602, "tags": {"amenity": "restaurant", "cuisine": "pizza", "fvst:fixme": "fvst position missing, fixed from overpassturbo/osak", "fvst:navnelbnr": "940105", "name": "V\u00e6rftet Restaurant & Caf\u00e9", "phone": "+45 31414517", "website": "https://www.xn--restaurantvrftet-4ob.dk/"}}, {"type": "node", "id": 7807117817, "lat": 55.7934786, "lon": 12.1570146, "tags": {"amenity": "restaurant", "check_date": "2021-01-10", "cuisine": "indian", "name": "Curry Away", "opening_hours": "15:00-21:30", "phone": "+45 4717 1847", "phone:restaurant": "+45 52396566", "takeaway": "yes", "website": "https://curry-away.dk/"}}, {"type": "node", "id": 8311177495, "lat": 55.6638707, "lon": 12.3970085, "tags": {"amenity": "restaurant", "cuisine": "thai", "fvst:navnelbnr": "968556", "name": "Farms Kitchen", "opening_hours": "11:00-20:30", "phone": "+45 41412110", "ref:DK:cvr": "38568531", "ref:DK:cvr:pnummer": "1022360678", "takeaway": "yes", "website": "http://www.farmskitchen.dk/"}}, {"type": "node", "id": 8311593381, "lat": 55.730038, "lon": 12.359209, "tags": {"amenity": "restaurant", "cuisine": "sushi", "fvst:navnelbnr": "966653", "name": "Izumi Ballerup", "opening_hours": "12:00-22:00; Fr-Sa 12:00-23:00", "phone": "+45 43434349", "ref:DK:cvr": "41591528", "ref:DK:cvr:pnummer": "1026153715"}}, {"type": "node", "id": 9038229877, "lat": 55.6500665, "lon": 12.0777872, "tags": {"amenity": "restaurant", "fvst:navnelbnr": "506736", "name": "Restaurant Snekken Isbod", "ref:DK:cvr": "33152620", "ref:DK:cvr:pnummer": "1016300329", "seasonal": "summer"}}, {"type": "way", "id": 142516301, "nodes": [1559592710, 1559592639, 1559592567, 1559592663, 1559592627, 1559592683, 1559592704, 1559592587, 1559592583, 1559592640, 1559592654, 1559592612, 1559592710], "tags": {"amenity": "restaurant", "building": "yes", "contact:email": "mail@ganlosekro.dk", "cuisine": "danish", "fvst:navnelbnr": "733718", "name": "Ganl\u00f8se Kro", "opening_hours": "Tu-Fr 17:00-22:00; Sa-Su 12:00-22:00", "opening_hours:kitchen": "Tu-Fr 17:00-20:4500", "phone": "+45 48183001", "source": "BBR", "website": "https://ganlosekro.dk/"}}, {"type": "way", "id": 179631200, "nodes": [1900404161, 1900404084, 1900404194, 1900404120, 1900404185, 2287329172, 2287329173, 1900404024, 1900404146, 1900404028, 1900404119, 1900404139, 3096534539, 1900404161], "tags": {"amenity": "restaurant", "building": "yes", "cuisine": "danish", "fvst:navnelbnr": "91927", "name": "S\u00f8nderby kro", "opening_hours": "Th-Fr 18:00-22:00; Sa-Su 12:00-22:00", "phone": "+45 47520133", "source": "Bing", "website": "http://www.s\u00f8nderbykro.dk/"}}, {"type": "way", "id": 256291780, "nodes": [2619629819, 2619629811, 2619629810, 2619629814, 2619629819], "tags": {"amenity": "restaurant", "building": "yes", "fvst:navnelbnr": "647614", "name": "Pipers Hus", "opening_hours": "09:00-22:00 \"kitchen to 21:00\"", "phone": "+45 46365696", "roof:material": "thatch", "roof:shape": "pyramidal", "website": "https://pipershus.dk/"}}, {"type": "way", "id": 451328225, "nodes": [4481542391, 4481542393, 4481542394, 4481540987, 4481540986, 3797548301, 4481540988, 4481542390, 4481542391], "tags": {"amenity": "restaurant", "building": "yes", "cuisine": "danish", "delivery": "yes", "fvst:name": "Silles Cafe & Catering", "fvst:navnelbnr": "578110", "name": "Silles Caf\u00e9", "outdoor_seating": "yes", "smoking": "outside", "takeaway": "no", "website": "http://wp.hjgk.dk/restaurant/"}}, {"type": "way", "id": 661749039, "nodes": [6195302060, 6195319835, 6195309139, 6195325754, 6195308916, 6195325526, 6195313997, 6195330345, 6195295343, 3922722266, 6195301651, 6195318101, 6195324372, 6195299812, 6195329305, 6195307499, 6195311555, 6195327988, 6195324154, 6195299605, 6195302060], "tags": {"amenity": "restaurant", "building": "yes", "cuisine": "danish", "fvst:navnelbnr": "91713", "name": "K\u00f8ge Bugt Kro", "opening_hours": "11:30-22:30", "phone": "+45 43900290"}}]}