{"version": 0.6, "generator": "Overpass API 0.7.56.9 76e5016d", "osm3s": {"timestamp_osm_base": "2021-09-21T11:12:58Z", "copyright": "The data included in this document is from www.openstreetmap.org. The data is made available under ODbL."}, "elements": [{"type": "node", "id": 254490277, "lat": 55.6436929, "lon": 13.2099448, "tags": {"amenity": "restaurant", "created_by": "JOSM", "name": "Tv\u00e5 Kockar"}}, {"type": "node", "id": 255742360, "lat": 55.6419951, "lon": 13.2041493, "tags": {"amenity": "restaurant", "cuisine": "thai", "name": "Thai Palm"}}, {"type": "node", "id": 255898915, "lat": 55.7516415, "lon": 13.3647066, "tags": {"amenity": "restaurant", "created_by": "JOSM", "name": "Robins Pizza & Grill"}}, {"type": "node", "id": 370805687, "lat": 55.7168847, "lon": 13.1983619, "tags": {"amenity": "restaurant", "cuisine": "pizza", "name": "Pizzeria Portofino", "wheelchair": "limited"}}, {"type": "node", "id": 373782483, "lat": 55.7078815, "lon": 13.1889718, "tags": {"amenity": "restaurant", "cuisine": "italian", "name": "V.E.S.P.A", "wheelchair": "yes"}}, {"type": "node", "id": 374372777, "lat": 55.6931268, "lon": 13.1787924, "tags": {"amenity": "restaurant", "cuisine": "pizza", "name": "Klosterg\u00e5rdens Pizzeria"}}, {"type": "node", "id": 453559813, "lat": 55.723532, "lon": 13.2039914, "tags": {"addr:city": "Lund", "addr:country": "SE", "addr:housenumber": "6", "addr:postcode": "22647", "addr:street": "F\u00e4ladstorget", "amenity": "restaurant", "check_date:opening_hours": "2021-06-06", "cuisine": "kebab;pizza", "diet:vegetarian": "yes", "name": "Restaurang F\u00e4laden", "opening_hours": "Mo-Th 11:00-21:00, Fr 11:00-23:00, Sa 13:00-22:00, Su 13:00-21:00", "outdoor_seating": "yes", "phone": "+4646131940", "website": "http://restaurangfaladen.se/", "wheelchair": "yes"}}, {"type": "node", "id": 456993502, "lat": 55.7222452, "lon": 13.2126443, "tags": {"addr:city": "Lund", "addr:country": "SE", "addr:housenumber": "61", "addr:postcode": "226 44", "addr:street": "Magistratsv\u00e4gen", "amenity": "restaurant", "cuisine": "pizza", "level": "1", "name": "Delphi Pizzeria & Restaurang", "opening_hours": "Mo-Th 11:00-22:00, Fr 11:00-23:00, Sa 12:00-23:00, Su 12:00-22:00", "phone": "+46-211 67 17", "smoking": "outside", "takeaway": "yes", "website": "http://www.delphipizzeria.nu/"}}, {"type": "node", "id": 457336827, "lat": 55.7148626, "lon": 13.2163287, "tags": {"amenity": "restaurant", "name": "Restaurang H\u00f6jdpunkten", "opening_hours": "Mo-Fr 11:00-14:00", "website": "http://www.restauranghojdpunkten.se/Meny"}}, {"type": "node", "id": 457336828, "lat": 55.7127208, "lon": 13.2145904, "tags": {"amenity": "restaurant", "name": "Restaurant Ideon", "opening_hours": "Mo-Fr 11:00-14:00", "website": "http://www.restaurant.ideon.se/"}}, {"type": "node", "id": 461597699, "lat": 55.7200951, "lon": 13.2084213, "tags": {"amenity": "restaurant", "cuisine": "kebab;pizza", "diet:vegetarian": "yes", "name": "Al Forno Restaurang"}}, {"type": "node", "id": 672091211, "lat": 55.6419563, "lon": 13.2160923}, {"type": "node", "id": 672091221, "lat": 55.641903, "lon": 13.2161403}, {"type": "node", "id": 672091228, "lat": 55.6419498, "lon": 13.2158818}, {"type": "node", "id": 672091251, "lat": 55.6420886, "lon": 13.2157943}, {"type": "node", "id": 672091400, "lat": 55.6419969, "lon": 13.2160438}, {"type": "node", "id": 672091426, "lat": 55.6421267, "lon": 13.2159268}, {"type": "node", "id": 672091477, "lat": 55.6419995, "lon": 13.2160534}, {"type": "node", "id": 672091535, "lat": 55.6419584, "lon": 13.2159116}, {"type": "node", "id": 672091541, "lat": 55.6418534, "lon": 13.2159687}, {"type": "node", "id": 672097240, "lat": 55.6411807, "lon": 13.2149464}, {"type": "node", "id": 672097256, "lat": 55.6411708, "lon": 13.2147526}, {"type": "node", "id": 672097261, "lat": 55.6411131, "lon": 13.2147619}, {"type": "node", "id": 672097264, "lat": 55.6409977, "lon": 13.2144857}, {"type": "node", "id": 672097268, "lat": 55.641098, "lon": 13.2144695}, {"type": "node", "id": 672097276, "lat": 55.6410226, "lon": 13.2149719}, {"type": "node", "id": 696958410, "lat": 55.5974043, "lon": 13.2610696, "tags": {"amenity": "restaurant", "cuisine": "pizza", "name": "Pizzeria Kl\u00e5gerup"}}, {"type": "node", "id": 710465515, "lat": 55.7481088, "lon": 13.3524747}, {"type": "node", "id": 762082822, "lat": 55.7756626, "lon": 13.1006499, "tags": {"amenity": "restaurant", "name": "Milas"}}, {"type": "node", "id": 795771120, "lat": 55.7047539, "lon": 13.1963084}, {"type": "node", "id": 795771122, "lat": 55.7048423, "lon": 13.1963006}, {"type": "node", "id": 795771125, "lat": 55.7048212, "lon": 13.1964662}, {"type": "node", "id": 795771131, "lat": 55.7048379, "lon": 13.1963881}, {"type": "node", "id": 795771135, "lat": 55.7047315, "lon": 13.1967964}, {"type": "node", "id": 795771158, "lat": 55.7047224, "lon": 13.196786}, {"type": "node", "id": 795771162, "lat": 55.7048063, "lon": 13.1962252}, {"type": "node", "id": 795771164, "lat": 55.704801, "lon": 13.1964526}, {"type": "node", "id": 795771166, "lat": 55.7047851, "lon": 13.1962426}, {"type": "node", "id": 795771172, "lat": 55.7047315, "lon": 13.1969466}, {"type": "node", "id": 795771194, "lat": 55.7047061, "lon": 13.1969721}, {"type": "node", "id": 795771198, "lat": 55.7048202, "lon": 13.196214}, {"type": "node", "id": 795771207, "lat": 55.7048442, "lon": 13.1962506}, {"type": "node", "id": 795771215, "lat": 55.704725, "lon": 13.1965238}, {"type": "node", "id": 795771249, "lat": 55.7047322, "lon": 13.1969442}, {"type": "node", "id": 795771258, "lat": 55.7047679, "lon": 13.1966594}, {"type": "node", "id": 795771261, "lat": 55.7047668, "lon": 13.1966584}, {"type": "node", "id": 795771272, "lat": 55.7047072, "lon": 13.1968529}, {"type": "node", "id": 795771288, "lat": 55.7047819, "lon": 13.1966069}, {"type": "node", "id": 795771297, "lat": 55.7047202, "lon": 13.1969367}, {"type": "node", "id": 795771303, "lat": 55.7047688, "lon": 13.1963185}, {"type": "node", "id": 795771305, "lat": 55.7047717, "lon": 13.1962532}, {"type": "node", "id": 795771322, "lat": 55.7047095, "lon": 13.196975}, {"type": "node", "id": 795771329, "lat": 55.7048318, "lon": 13.196309}, {"type": "node", "id": 795771355, "lat": 55.7047851, "lon": 13.1965273}, {"type": "node", "id": 795771361, "lat": 55.7047544, "lon": 13.1963859}, {"type": "node", "id": 795771377, "lat": 55.70473, "lon": 13.1969423}, {"type": "node", "id": 795771379, "lat": 55.7047388, "lon": 13.19657}, {"type": "node", "id": 795771411, "lat": 55.7048177, "lon": 13.1963746}, {"type": "node", "id": 795771414, "lat": 55.7047457, "lon": 13.1965377}, {"type": "node", "id": 795771418, "lat": 55.7047311, "lon": 13.1968701}, {"type": "node", "id": 795771464, "lat": 55.7047394, "lon": 13.1963756}, {"type": "node", "id": 795771481, "lat": 55.7047796, "lon": 13.1966048}, {"type": "node", "id": 795771482, "lat": 55.7048156, "lon": 13.1965479}, {"type": "node", "id": 795771486, "lat": 55.7047779, "lon": 13.1962765}, {"type": "node", "id": 795771490, "lat": 55.7047454, "lon": 13.196744}, {"type": "node", "id": 795771504, "lat": 55.7048267, "lon": 13.1962389}, {"type": "node", "id": 795771547, "lat": 55.7047443, "lon": 13.1967431}, {"type": "node", "id": 795771569, "lat": 55.7048376, "lon": 13.1962818}, {"type": "node", "id": 795771583, "lat": 55.7047909, "lon": 13.1962151}, {"type": "node", "id": 797941368, "lat": 55.7083283, "lon": 13.2128738, "tags": {"amenity": "restaurant", "cuisine": "regional", "diet:vegetarian": "yes", "name": "Finn Inn", "wheelchair": "no"}}, {"type": "node", "id": 945899989, "lat": 55.7062439, "lon": 13.1828863, "tags": {"amenity": "restaurant", "cuisine": "pizza", "name": "Avesta Pizzeria", "opening_hours": "Mo-Fr 11:00-22:00; Sa,Su 12:00-22:00", "wheelchair": "yes"}}, {"type": "node", "id": 945900041, "lat": 55.7058887, "lon": 13.1830119, "tags": {"amenity": "restaurant", "check_date:opening_hours": "2021-04-13", "contact:website": "http://amazingthai.info/", "cuisine": "thai", "diet:vegetarian": "yes", "name": "Amazing Thai Restaurang", "opening_hours": "Mo-Su 10:30-21:00", "website": "http://amazingthai.info/", "wheelchair": "yes"}}, {"type": "node", "id": 945909636, "lat": 55.7065453, "lon": 13.1814252, "tags": {"addr:city": "Lund", "addr:country": "SE", "addr:housenumber": "8", "addr:postcode": "227 36", "addr:street": "Hantverksgatan", "amenity": "restaurant", "cuisine": "pizza", "name": "La Cucina", "outdoor_seating": "yes"}}, {"type": "node", "id": 968564826, "lat": 55.7042443, "lon": 13.1885599, "tags": {"amenity": "restaurant", "cuisine": "chinese", "name": "Tatung"}}, {"type": "node", "id": 1029436340, "lat": 55.7083041, "lon": 13.1958386, "tags": {"amenity": "restaurant", "cuisine": "thai", "name": "Valvet", "opening_hours": "Mo-Th 11:00-22:00; Fr 11:00-24:00; Sa 12:00-24:00; Su 13:00-21:00"}}, {"type": "node", "id": 1037561849, "lat": 55.7477878, "lon": 13.3522691}, {"type": "node", "id": 1037562082, "lat": 55.7477324, "lon": 13.3523886}, {"type": "node", "id": 1037562462, "lat": 55.7477783, "lon": 13.3523991}, {"type": "node", "id": 1037562592, "lat": 55.748087, "lon": 13.3527745}, {"type": "node", "id": 1037562619, "lat": 55.7477419, "lon": 13.3522586}, {"type": "node", "id": 1037563015, "lat": 55.7477106, "lon": 13.3526884}, {"type": "node", "id": 1090144288, "lat": 55.7140831, "lon": 13.1547962, "tags": {"amenity": "restaurant", "name": "Annas K\u00f6k"}}, {"type": "node", "id": 1114549524, "lat": 55.7021692, "lon": 13.1918578, "tags": {"addr:city": "Lund", "addr:country": "SE", "addr:housenumber": "6a", "addr:postcode": "22223", "addr:street": "Kattesund", "amenity": "restaurant", "cuisine": "italian", "name": "Gattostretto", "wheelchair": "yes"}}, {"type": "node", "id": 1126805508, "lat": 55.7139999, "lon": 13.1600632, "tags": {"amenity": "restaurant", "cuisine": "indian;thai", "name": "Wok Kitchen"}}, {"type": "node", "id": 1126805604, "lat": 55.7140393, "lon": 13.1602174, "tags": {"amenity": "restaurant", "cuisine": "korean;japanese", "name": "Shinsei", "wheelchair": "yes"}}, {"type": "node", "id": 1126805867, "lat": 55.7138418, "lon": 13.1599455, "tags": {"amenity": "restaurant", "cuisine": "pizza;burger;grill", "name": "Mangal Oriental BBQ"}}, {"type": "node", "id": 1205434706, "lat": 55.6643764, "lon": 13.348201, "tags": {"addr:city": "Dalby", "addr:country": "SE", "addr:housenumber": "15", "addr:street": "Kristers v\u00e4g", "amenity": "restaurant", "cuisine": "pizza", "name": "Restaurang & Pizzeria Viking", "opening_hours": "Mo-Th 11:00-21:00;Fr-Sa 11:00-23:00;Su 12:00-21:00"}}, {"type": "node", "id": 1222870560, "lat": 55.7086238, "lon": 13.1988448, "tags": {"amenity": "restaurant", "name": "Restaurang SOL"}}, {"type": "node", "id": 1225095855, "lat": 55.7085537, "lon": 13.193115, "tags": {"addr:city": "Lund", "addr:country": "SE", "addr:housenumber": "28", "addr:postcode": "222 21", "addr:street": "Bredgatan", "amenity": "restaurant", "contact:phone": "+46-46-120413", "diet:vegan": "yes", "diet:vegetarian": "only", "happycow:id": "1175", "name": "Govindas Vegetarisk restaurang", "outdoor_seating": "yes", "takeaway": "yes", "wheelchair": "limited"}}, {"type": "node", "id": 1225095865, "lat": 55.7034251, "lon": 13.1910157, "tags": {"amenity": "restaurant", "cuisine": "salad", "diet:vegetarian": "only", "name": "Gr\u00f6nt och gott"}}, {"type": "node", "id": 1225123423, "lat": 55.7025085, "lon": 13.1967492, "tags": {"amenity": "restaurant", "name": "Spisen", "wheelchair": "no"}}, {"type": "node", "id": 1225186615, "lat": 55.7089113, "lon": 13.1937347, "tags": {"amenity": "restaurant", "cuisine": "persian", "diet:vegan": "yes", "diet:vegetarian": "yes", "name": "Restaurang Cyrus", "phone": "+4646150770"}}, {"type": "node", "id": 1225186620, "lat": 55.7089711, "lon": 13.1935649, "tags": {"amenity": "restaurant", "cuisine": "pizza", "name": "Palmyra Pizzeria & Restaurang"}}, {"type": "node", "id": 1225220880, "lat": 55.7069511, "lon": 13.1893348, "tags": {"addr:city": "Lund", "addr:housenumber": "2", "addr:postcode": "222 21", "addr:street": "Clemenstorget", "amenity": "restaurant", "bar": "yes", "cuisine": "pizza", "name": "Folk Pizza och Bar", "opening_hours": "Mo-Su 11:30-22:00", "outdoor_seating": "yes", "phone": "+46 46129777", "website": "www.folkpizza.se", "wheelchair": "no"}}, {"type": "node", "id": 1225221048, "lat": 55.7046318, "lon": 13.1878673, "tags": {"amenity": "restaurant", "name": "Gastronome", "toilets:wheelchair": "no"}}, {"type": "node", "id": 1234040322, "lat": 55.6640254, "lon": 13.3465413}, {"type": "node", "id": 1234040324, "lat": 55.6640259, "lon": 13.34636}, {"type": "node", "id": 1234040326, "lat": 55.6642415, "lon": 13.3465433}, {"type": "node", "id": 1234040328, "lat": 55.664242, "lon": 13.346362}, {"type": "node", "id": 1234052955, "lat": 55.6635498, "lon": 13.3461918, "tags": {"amenity": "restaurant", "cuisine": "pizza", "name": "Dalby restaurang & pizzeria", "opening_hours": "Mo-Th 11:00-21:00;Fr 11:00-22:00;Su 13:00-21:00"}}, {"type": "node", "id": 1240897912, "lat": 55.7058115, "lon": 13.1924845, "tags": {"addr:city": "Lund", "addr:country": "SE", "addr:housenumber": "21", "addr:postcode": "222 22", "addr:street": "Kyrkogatan", "amenity": "restaurant", "cuisine": "chinese", "delivery": "no", "diet:vegetarian": "yes", "name": "Mui Gong Restaurang", "opening_hours": "Mo-Fr 11:15-22:00; Sa 12:00-22:00", "outdoor_seating": "yes", "phone": "+4646188610", "takeaway": "yes", "website": "www.muigong.se"}}, {"type": "node", "id": 1265133870, "lat": 55.7029897, "lon": 13.1735324, "tags": {"addr:city": "Lund", "addr:country": "SE", "addr:housenumber": "36", "addr:street": "Trollebergsv\u00e4gen", "amenity": "restaurant", "capacity": "5", "cuisine": "pizza", "delivery": "yes", "name": "Pizzeria Papegoja", "opening_hours": "Mo-Su 11:00-20:30; Fr,Sa 11:00-21:30", "takeaway": "yes", "wheelchair": "no"}}, {"type": "node", "id": 1279087017, "lat": 55.7041539, "lon": 13.1897095, "tags": {"amenity": "restaurant", "cuisine": "vietnamese", "name": "Thuy"}}, {"type": "node", "id": 1279245885, "lat": 55.7039829, "lon": 13.19045, "tags": {"addr:country": "SE", "addr:housenumber": "7", "addr:street": "Klostergatan", "amenity": "restaurant", "cuisine": "sushi", "name": "R\u00e5 epok", "website": "https://lund.raepok.com/"}}, {"type": "node", "id": 1379232232, "lat": 55.7035865, "lon": 13.1596398, "tags": {"amenity": "restaurant", "cuisine": "pizza", "name": "Ministern", "opening_hours": "Mo-Th 11:30-14:00,16:00-22:00; Fr 11:30-14:00,16:00-23:00; Sa 14:00-23:00; Su 14:00-22:00", "outdoor_seating": "yes", "wheelchair": "yes"}}, {"type": "node", "id": 1440891786, "lat": 55.711517, "lon": 13.1984486, "tags": {"amenity": "restaurant"}}, {"type": "node", "id": 1442170701, "lat": 55.7149493, "lon": 13.2123005, "tags": {"addr:city": "Lund", "addr:country": "SE", "addr:housenumber": "26A", "addr:street": "S\u00f6lvegatan", "amenity": "restaurant", "name": "Caf\u00e9 Bryggan", "toilets:wheelchair": "yes", "wheelchair": "yes"}}, {"type": "node", "id": 1507737568, "lat": 55.7029864, "lon": 13.1904299, "tags": {"addr:city": "Lund", "addr:country": "SE", "addr:housenumber": "2", "addr:street": "Gr\u00f6negatan", "amenity": "restaurant", "contact:website": "http://www.mediterranean.se/", "cuisine": "greek", "name": "Mediterranean", "website": "http://www.mediterranean.se/", "wheelchair": "limited"}}, {"type": "node", "id": 1512219222, "lat": 55.7156294, "lon": 13.4972228}, {"type": "node", "id": 1512219270, "lat": 55.71576, "lon": 13.4973503}, {"type": "node", "id": 1512219297, "lat": 55.7158543, "lon": 13.4964993}, {"type": "node", "id": 1512219323, "lat": 55.7159375, "lon": 13.496778}, {"type": "node", "id": 1512219333, "lat": 55.7159627, "lon": 13.497548}, {"type": "node", "id": 1512219339, "lat": 55.7159785, "lon": 13.496899}, {"type": "node", "id": 1512219344, "lat": 55.7159846, "lon": 13.4966265}, {"type": "node", "id": 1512219347, "lat": 55.7159978, "lon": 13.4968368}, {"type": "node", "id": 1512219360, "lat": 55.7160434, "lon": 13.4972883}, {"type": "node", "id": 1512219371, "lat": 55.7160709, "lon": 13.4973151}, {"type": "node", "id": 1512219390, "lat": 55.7161266, "lon": 13.4971358}, {"type": "node", "id": 1512219398, "lat": 55.7161356, "lon": 13.4971446}, {"type": "node", "id": 1512219409, "lat": 55.7161576, "lon": 13.4970737}, {"type": "node", "id": 1512699786, "lat": 55.6315789, "lon": 13.7070712}, {"type": "node", "id": 1512699791, "lat": 55.6316825, "lon": 13.707297}, {"type": "node", "id": 1512699794, "lat": 55.6313677, "lon": 13.7072824}, {"type": "node", "id": 1512699959, "lat": 55.6314972, "lon": 13.7070673}, {"type": "node", "id": 1512699963, "lat": 55.6315782, "lon": 13.7070835}, {"type": "node", "id": 1512699967, "lat": 55.6315664, "lon": 13.7072737}, {"type": "node", "id": 1512699971, "lat": 55.6313829, "lon": 13.7070445}, {"type": "node", "id": 1512700035, "lat": 55.6314979, "lon": 13.7070549, "tags": {"entrance": "yes"}}, {"type": "node", "id": 1512700051, "lat": 55.6316947, "lon": 13.7071068}, {"type": "node", "id": 1512700053, "lat": 55.6315633, "lon": 13.7073216}, {"type": "node", "id": 1513311995, "lat": 55.6924583, "lon": 13.2189382, "tags": {"addr:city": "Lund", "addr:country": "SE", "addr:housenumber": "12", "addr:postcode": "22478", "addr:street": "Porfyrv\u00e4gen", "amenity": "restaurant", "contact:email": "info@magnuskitchen.com", "contact:phone": "+46 (0)46-139965", "contact:website": "http://www.magnuskitchen.se/", "name": "Magnus Kitchen", "website": "https://www.magnuskitchen.se/", "wheelchair": "limited"}}, {"type": "node", "id": 1516296901, "lat": 55.7052926, "lon": 13.1859796, "tags": {"amenity": "restaurant", "cuisine": "asian", "diet:vegetarian": "yes", "name": "Asian Express", "opening_hours": "Mo-Fr 11:00-20:00; Sa,Su,PH 12:00-20:00", "wheelchair": "yes"}}, {"type": "node", "id": 1558284894, "lat": 55.6356757, "lon": 13.4914251}, {"type": "node", "id": 1558284901, "lat": 55.6357184, "lon": 13.4912507}, {"type": "node", "id": 1558284909, "lat": 55.6357659, "lon": 13.4913101}, {"type": "node", "id": 1558284910, "lat": 55.6357707, "lon": 13.4912906}, {"type": "node", "id": 1558284915, "lat": 55.6357859, "lon": 13.4914203}, {"type": "node", "id": 1558284918, "lat": 55.6357913, "lon": 13.4915135}, {"type": "node", "id": 1558284923, "lat": 55.6358055, "lon": 13.4913404}, {"type": "node", "id": 1558284924, "lat": 55.6358096, "lon": 13.4914385}, {"type": "node", "id": 1612366963, "lat": 55.7018761, "lon": 13.1932355, "tags": {"amenity": "restaurant", "cuisine": "indian", "name": "Restaurang Spice and Curry", "wheelchair": "limited"}}, {"type": "node", "id": 1612437218, "lat": 55.7031495, "lon": 13.193111, "tags": {"addr:city": "Lund", "addr:country": "SE", "addr:housenumber": "1", "addr:street": "Stortorget", "amenity": "restaurant", "name": "Stortorget bar, caf\u00e9 & restaurang", "opening_hours": "Mo-Th 11:30-23:00; Fr-Sa 11:30-01:00"}}, {"type": "node", "id": 1612437251, "lat": 55.7055359, "lon": 13.1956671, "tags": {"amenity": "restaurant", "contact:website": "http://www.tegners.com/", "name": "Tegn\u00e9rs Matsalar", "website": "http://www.tegners.com/"}}, {"type": "node", "id": 1617122192, "lat": 55.7064171, "lon": 13.1960776, "tags": {"addr:city": "Lund", "addr:country": "SE", "addr:housenumber": "10", "addr:postcode": "223 50", "addr:street": "Sandgatan", "amenity": "restaurant", "name": "Linn\u00e9rs Mat", "opening_hours": "Mo-Fr 10:00-16:00", "phone": "+46706749534", "website": "http://www.linnersmat.se/"}}, {"type": "node", "id": 1657739274, "lat": 55.5084562, "lon": 13.236522, "tags": {"amenity": "restaurant", "cuisine": "chinese", "name": "Golden Crown"}}, {"type": "node", "id": 1657739278, "lat": 55.5078249, "lon": 13.2353848, "tags": {"addr:city": "Svedala", "addr:country": "SE", "addr:housenumber": "10", "addr:street": "Storgatan", "amenity": "restaurant", "name": "Intermezzo Deli", "opening_hours": "Mo-Th 11:00-21:00; Fr-Sa 12:30-22:00; Su 12:30-21:00"}}, {"type": "node", "id": 1657739282, "lat": 55.5102609, "lon": 13.2384792, "tags": {"addr:country": "SE", "addr:housenumber": "14", "addr:postcode": "23331", "addr:street": "Marknadstorget", "amenity": "restaurant", "cuisine": "sushi", "name": "My Sushi", "opening_hours": "Mo-Fr 11:00-20:00; Sa-Su 12:00-20:00"}}, {"type": "node", "id": 1663101421, "lat": 55.6372852, "lon": 13.7459075, "tags": {"addr:city": "Sj\u00f6bo", "addr:country": "SE", "addr:housenumber": "99-20", "addr:postcode": "275 92", "addr:street": "Stora Tol\u00e5ngav\u00e4gen", "amenity": "restaurant", "contact:website": "http://www.tolanga17.se", "cuisine": "regional", "name": "Tol\u00e5nga 17", "smoking": "no", "wheelchair": "yes"}}, {"type": "node", "id": 1666440112, "lat": 55.6343377, "lon": 13.7066839, "tags": {"addr:city": "Sj\u00f6bo", "addr:country": "SE", "addr:housenumber": "18", "addr:street": "Norregatan", "amenity": "restaurant", "cuisine": "pizza", "name": "Amazing Pizza", "toilets:wheelchair": "yes", "wheelchair": "yes"}}, {"type": "node", "id": 1666440169, "lat": 55.6318324, "lon": 13.7002841, "tags": {"amenity": "restaurant", "cuisine": "pizza", "drive_in": "no", "name": "Empoli", "wheelchair": "no"}}, {"type": "node", "id": 1666440224, "lat": 55.63541, "lon": 13.6833943, "tags": {"amenity": "restaurant", "name": "Rondellens caf\u00e9 och mat", "wheelchair": "yes"}}, {"type": "node", "id": 1666440229, "lat": 55.6318178, "lon": 13.7043033, "tags": {"addr:city": "Sj\u00f6bo", "addr:country": "SE", "addr:housenumber": "4C", "addr:street": "V\u00e4stergatan", "amenity": "restaurant", "name": "Mawii Sushi", "phone": "+46416554444", "website": "https://www.mawiisushi.se", "wheelchair": "yes"}}, {"type": "node", "id": 1666440244, "lat": 55.6318068, "lon": 13.7045036, "tags": {"addr:city": "Sj\u00f6bo", "addr:street": "V\u00e4stergatan", "amenity": "restaurant", "cuisine": "pizza", "name": "Sj\u00f6bo Pizzeria", "wheelchair": "yes"}}, {"type": "node", "id": 1666440272, "lat": 55.6311284, "lon": 13.7015151, "tags": {"amenity": "restaurant", "cuisine": "pizza", "name": "S\u00f6der Pizzeria Kebabhouse"}}, {"type": "node", "id": 1668970670, "lat": 55.7027711, "lon": 13.194258, "tags": {"amenity": "restaurant", "name": "Toyo"}}, {"type": "node", "id": 1668970712, "lat": 55.7016218, "lon": 13.1941721, "tags": {"amenity": "restaurant", "cuisine": "burger", "name": "Surf Shack Burger", "wheelchair": "yes"}}, {"type": "node", "id": 1670453066, "lat": 55.7032915, "lon": 13.1883504, "tags": {"amenity": "restaurant", "contact:email": "info@newdelhitandoor.se", "contact:phone": "+46 46-152561", "cuisine": "indian", "name": "New Dehli", "opening_hours": "Mo-Th 11:00-22:00; Fr 11:00-23:00; Sa 12:00-23:00; Su 13:00-21:00", "website": "http://newdelhitandoor.se/"}}, {"type": "node", "id": 1670453070, "lat": 55.7034123, "lon": 13.187738, "tags": {"addr:city": "Lund", "addr:country": "SE", "addr:housenumber": "9", "addr:postcode": "222 29", "addr:street": "Bantorget", "amenity": "restaurant", "cuisine": "thai", "name": "Thaicorner", "website": "https://www.thaicornerlund.se"}}, {"type": "node", "id": 1670510485, "lat": 55.6641294, "lon": 13.346361, "tags": {"entrance": "yes"}}, {"type": "node", "id": 1670510498, "lat": 55.6641661, "lon": 13.3480205, "tags": {"addr:city": "Dalby", "addr:country": "SE", "addr:housenumber": "7", "addr:street": "Kristers v\u00e4g", "amenity": "restaurant", "name": "Thai Garden"}}, {"type": "node", "id": 1685947836, "lat": 55.7016511, "lon": 13.1943372, "tags": {"amenity": "restaurant", "cuisine": "italian", "name": "Alfredo Pasta Fresca", "wheelchair": "yes"}}, {"type": "node", "id": 1685947837, "lat": 55.7017407, "lon": 13.1942122, "tags": {"amenity": "restaurant", "name": "Gamla Franska"}}, {"type": "node", "id": 1685947841, "lat": 55.7016365, "lon": 13.1945055, "tags": {"amenity": "restaurant", "cuisine": "seafood", "name": "Malmstens fisk & k\u00f6k", "wheelchair": "yes"}}, {"type": "node", "id": 1685947849, "lat": 55.7017215, "lon": 13.1943208, "tags": {"amenity": "restaurant", "name": "Shiraz", "wheelchair": "yes"}}, {"type": "node", "id": 1685947854, "lat": 55.7016228, "lon": 13.1950349, "tags": {"amenity": "restaurant", "cuisine": "thai", "name": "Thai Way"}}, {"type": "node", "id": 1688786600, "lat": 55.7037847, "lon": 13.1924756, "tags": {"amenity": "restaurant", "name": "K\u00f6ket i Lund", "phone": "+46 46131213"}}, {"type": "node", "id": 1688786618, "lat": 55.7038755, "lon": 13.1917121, "tags": {"amenity": "restaurant", "name": "Klostergatans vin & delikatess", "wheelchair": "limited"}}, {"type": "node", "id": 1688786621, "lat": 55.7066377, "lon": 13.1899238, "tags": {"amenity": "restaurant", "contact:phone": "+46 46-258258", "cuisine": "chinese", "name": "Sinji", "opening_hours": "Mo-Sa 11:30-14:30,17:30-20:30", "outdoor_seating": "no", "wheelchair": "no"}}, {"type": "node", "id": 1688786635, "lat": 55.7054963, "lon": 13.1924952, "tags": {"addr:city": "Lund", "addr:country": "SE", "addr:housenumber": "17", "addr:postcode": "222 22", "addr:street": "Kyrkogatan", "alt_name": "Mat och destillat", "amenity": "restaurant", "cuisine": "regional", "delivery": "no", "name": "Mat & destillat", "opening_hours": "Mo-Th 11:30-23:00; Fr 11:30-01:00, Sa 12:00-01:00", "phone": "+46 46 -128000", "smoking": "no", "takeaway": "no", "website": "https://www.matochdestillat.se/", "wheelchair": "yes"}}, {"type": "node", "id": 1690352931, "lat": 55.7055135, "lon": 13.187133, "tags": {"addr:city": "Lund", "addr:country": "SE", "addr:housenumber": "1", "addr:street": "Bangatan", "alt_name": "Viggos", "amenity": "restaurant", "cuisine": "burger", "name": "Viggo restaurang & bar", "wheelchair": "yes"}}, {"type": "node", "id": 1719043688, "lat": 55.7097783, "lon": 13.2154181, "tags": {"amenity": "restaurant", "cuisine": "pizza", "diet:vegan": "yes", "diet:vegetarian": "yes", "name": "Olympia Pizza & Caf\u00e9", "wheelchair": "yes"}}, {"type": "node", "id": 1765365610, "lat": 55.701358, "lon": 13.1979793, "tags": {"amenity": "restaurant", "cuisine": "local", "name": "Hjulet"}}, {"type": "node", "id": 1765365611, "lat": 55.7013549, "lon": 13.1982728, "tags": {"amenity": "restaurant", "name": "Buljong"}}, {"type": "node", "id": 1765365659, "lat": 55.7014168, "lon": 13.2002496, "tags": {"amenity": "restaurant", "cuisine": "asian", "name": "Ha Long"}}, {"type": "node", "id": 1765365666, "lat": 55.7013524, "lon": 13.1976, "tags": {"amenity": "restaurant", "contact:website": "http://www.korvhuset.com/", "name": "Korvhuset (closed)", "opening_hours": "closed \"St\u00e4ngt efter 2020-11-13\"", "shop": "deli", "website": "http://www.korvhuset.com/"}}, {"type": "node", "id": 1773531751, "lat": 55.7013536, "lon": 13.1977881, "tags": {"addr:city": "Lund", "addr:country": "SE", "addr:housenumber": "4", "addr:street": "\u00d6stra M\u00e5rtensgatan", "amenity": "restaurant", "contact:website": "http://zen-sushi.se/", "cuisine": "sushi", "happycow:id": "99527", "name": "Zen Sushi & Tea", "payment:cash": "yes", "website": "http://zen-sushi.se/"}}, {"type": "node", "id": 1786807511, "lat": 55.6345164, "lon": 13.4918068, "tags": {"amenity": "restaurant", "name": "Majas Pizzeria & Grill"}}, {"type": "node", "id": 1792909395, "lat": 55.6319873, "lon": 13.7011599, "tags": {"amenity": "restaurant", "contact:street": "V\u00e4stergatan 18", "cuisine": "regional", "name": "Gondolen", "toilets:wheelchair": "yes", "wheelchair": "yes"}}, {"type": "node", "id": 1814668082, "lat": 55.5398442, "lon": 13.3644695, "tags": {"amenity": "restaurant"}}, {"type": "node", "id": 1814668116, "lat": 55.540418, "lon": 13.3660798, "tags": {"amenity": "restaurant", "name": "FoodMarket"}}, {"type": "node", "id": 1836802232, "lat": 55.7021069, "lon": 13.1907648, "tags": {"addr:city": "Lund", "addr:country": "SE", "addr:housenumber": "8", "addr:postcode": "22223", "addr:street": "Kattesund", "amenity": "restaurant", "contact:email": "info@meatgrill.se", "contact:phone": "+46 46-12 78 65", "contact:website": "http://www.meatgrill.se/", "name": "M.E.A.T.", "opening_hours": "Mo-Th 11:30-23:00; Fr 11:30-01:00, Sa 12:00-01:00", "website": "http://www.meatgrill.se/", "wheelchair": "yes"}}, {"type": "node", "id": 1860964169, "lat": 55.7030411, "lon": 13.1901763, "tags": {"amenity": "restaurant", "contact:website": "http://www.italia-ilristorante.com/", "cuisine": "italian", "name": "Italia", "opening_hours": "Mo-Fr 11:30-14:30,15:00-24:00; Sa 12:00-24:00; Su 12:00-22:00", "website": "http://www.italia-ilristorante.com/", "wheelchair": "limited"}}, {"type": "node", "id": 1883166257, "lat": 55.7039649, "lon": 13.1979013, "tags": {"addr:city": "Lund", "addr:country": "SE", "addr:housenumber": "5", "addr:postcode": "223 50", "addr:street": "Stora Algatan", "amenity": "restaurant", "contact:phone": "+46-46-14 37 27", "contact:website": "http://www.lundmediagroup.se/Kunder/Rauhrackel/index.html", "cuisine": "austrian", "name": "Restaurang Rauhrackel", "opening_hours": "Mo-Th 17:00-24:00; Fr,Sa 17:00-01:00", "website": "http://www.lundmediagroup.se/Kunder/Rauhrackel/index.html", "wheelchair": "no"}}, {"type": "node", "id": 1916062593, "lat": 55.7020922, "lon": 13.1959417, "tags": {"amenity": "restaurant", "name": "Rosegarden Neo Asian"}}, {"type": "node", "id": 1916062623, "lat": 55.7021472, "lon": 13.1953837, "tags": {"addr:city": "Lund", "addr:country": "SE", "addr:housenumber": "3", "addr:postcode": "223 51", "addr:street": "M\u00e5rtenstorget", "amenity": "restaurant", "name": "VED", "wheelchair": "limited"}}, {"type": "node", "id": 1917473110, "lat": 55.6986227, "lon": 13.183412, "tags": {"amenity": "restaurant", "contact:phone": "+46 (0)46-211 44 47", "name": "Hos Talevski i Stadsparken", "website": "http://stadsparkscafeet.se/", "wheelchair": "yes"}}, {"type": "node", "id": 1979890938, "lat": 55.6981805, "lon": 13.1899693, "tags": {"addr:country": "SE", "addr:housenumber": "42", "addr:street": "Stora S\u00f6dergatan", "amenity": "restaurant", "name": "Bord 10"}}, {"type": "node", "id": 1979890941, "lat": 55.6996198, "lon": 13.1994001, "tags": {"addr:city": "Lund", "addr:country": "SE", "addr:housenumber": "3", "addr:street": "\u00d6stra Vallgatan", "amenity": "restaurant", "cuisine": "mexican", "name": "Dos Hermanos", "phone": "+46 46 144010", "website": "https://www.doshermanos.se"}}, {"type": "node", "id": 2006141444, "lat": 55.7015296, "lon": 13.1922679, "tags": {"addr:city": "Lund", "addr:country": "SE", "addr:housename": "St\u00e4ket", "addr:housenumber": "6b", "addr:street": "Stora S\u00f6dergatan", "amenity": "restaurant", "cuisine": "italian", "diet:vegan": "no", "diet:vegetarian": "yes", "name": "Restaurang St\u00e4ket", "wheelchair": "no"}}, {"type": "node", "id": 2020547114, "lat": 55.6945375, "lon": 13.192474, "tags": {"addr:city": "Lund", "addr:country": "SE", "addr:housenumber": "10e", "addr:postcode": "223 58", "addr:street": "Karh\u00f6gstorg", "amenity": "restaurant", "contact:email": "info@vivalund.se", "contact:phone": "+46 (0)46-13 35 10", "contact:website": "http://www.vivalund.se/", "name": "Viva", "opening_hours": "Mo,Tu 11:30-14:00; We-Sa 11:30-14:00,18:00-24:00; Fr 11:30-14:00,16:00-24:00", "wheelchair": "yes"}}, {"type": "node", "id": 2145225312, "lat": 55.7096723, "lon": 13.2079405, "tags": {"amenity": "restaurant", "cuisine": "pizza", "name": "Gott & N\u00e4ra", "outdoor_seating": "no", "phone": "+46462115420", "takeaway": "yes", "website": "https://gottonara.se"}}, {"type": "node", "id": 2147439032, "lat": 55.4079569, "lon": 13.6052913, "tags": {"amenity": "restaurant", "name": "Abbek\u00e5s Golfrestaurang"}}, {"type": "node", "id": 2283101921, "lat": 55.7000376, "lon": 13.1913854, "tags": {"addr:city": "Lund", "addr:country": "SE", "addr:housenumber": "20", "addr:postcode": "22223", "addr:street": "Stora S\u00f6dergatan", "amenity": "restaurant", "cuisine": "sushi", "name": "Aiko Sushi", "opening_hours": "Tu-Fr 11:00-22:00; Sa,Su 12:00-22:00", "phone": "+46-46-120080", "website": "https://www.aikosushi.se/"}}, {"type": "node", "id": 2283101924, "lat": 55.7006373, "lon": 13.1944398, "tags": {"amenity": "restaurant", "cuisine": "persian", "fixme": "persian restaurant now", "name": "Khatoon"}}, {"type": "node", "id": 2283101934, "lat": 55.6974942, "lon": 13.1899588, "tags": {"addr:country": "SE", "addr:housenumber": "59", "addr:postcode": "22223", "addr:street": "Stora S\u00f6dergatan", "amenity": "restaurant", "cuisine": "indian", "diet:vegetarian": "yes", "name": "Punjabi", "phone": "+46462115415", "website": "http://www.punjabirestaurant.se/"}}, {"type": "node", "id": 2283101971, "lat": 55.7005118, "lon": 13.1921058, "tags": {"amenity": "restaurant", "cuisine": "pizza", "name": "Dominos Pizza"}}, {"type": "node", "id": 2283252949, "lat": 55.7023911, "lon": 13.1968018, "tags": {"amenity": "restaurant", "cuisine": "thai", "name": "AO Thai"}}, {"type": "node", "id": 2283252953, "lat": 55.701694, "lon": 13.1947754, "tags": {"addr:city": "Lund", "addr:country": "SE", "addr:housenumber": "1", "addr:street": "M\u00e5rtenstorget", "air_conditioning": "yes", "amenity": "restaurant", "brewery": "mikkeller", "cuisine": "sandwich;chicken;american;bbq;comfortfood;burger", "email": "deli@farmshack.se", "name": "Farmshack The Deli", "opening_hours": "Mo-Fr 10:00-18:00", "opening_hours:covid19": "closed", "operator": "Matsmedjan i Sk\u00e5ne AB", "phone": "+46 46 982 56", "website": "https://farmshack.se/"}}, {"type": "node", "id": 2329572598, "lat": 55.7160759, "lon": 13.2049252, "tags": {"addr:city": "Lund", "addr:country": "SE", "addr:housenumber": "52", "addr:street": "Getingev\u00e4gen", "amenity": "restaurant", "cuisine": "pizza", "diet:vegetarian": "yes", "name": "Pizzeria Bellini", "wheelchair": "no"}}, {"type": "node", "id": 2331666135, "lat": 55.7135398, "lon": 13.1994577, "tags": {"amenity": "restaurant", "name": "Pastellen"}}, {"type": "node", "id": 2345402732, "lat": 55.7010831, "lon": 13.1960283, "tags": {"addr:city": "Lund", "addr:country": "SE", "addr:housenumber": "6", "addr:street": "M\u00e5rtenstorget", "amenity": "restaurant", "cuisine": "syrian", "name": "Shamiat", "wheelchair": "yes"}}, {"type": "node", "id": 2377500087, "lat": 55.5305242, "lon": 13.129866}, {"type": "node", "id": 2377500088, "lat": 55.5305308, "lon": 13.1301193}, {"type": "node", "id": 2377500092, "lat": 55.5305601, "lon": 13.130117}, {"type": "node", "id": 2377500093, "lat": 55.530567, "lon": 13.1303802}, {"type": "node", "id": 2377500098, "lat": 55.5305974, "lon": 13.1301404}, {"type": "node", "id": 2377500100, "lat": 55.5306036, "lon": 13.1303772}, {"type": "node", "id": 2377500103, "lat": 55.5306214, "lon": 13.1301385}, {"type": "node", "id": 2377500104, "lat": 55.5306237, "lon": 13.130228}, {"type": "node", "id": 2377500109, "lat": 55.5306636, "lon": 13.1302055}, {"type": "node", "id": 2377500110, "lat": 55.5306641, "lon": 13.1302247}, {"type": "node", "id": 2377500118, "lat": 55.5307361, "lon": 13.1300582}, {"type": "node", "id": 2377500119, "lat": 55.5307398, "lon": 13.1301993}, {"type": "node", "id": 2377500122, "lat": 55.5307855, "lon": 13.1298447}, {"type": "node", "id": 2377500123, "lat": 55.5307909, "lon": 13.1300538}, {"type": "node", "id": 2406170634, "lat": 55.7014479, "lon": 13.199834, "tags": {"amenity": "restaurant", "cuisine": "thai", "name": "Jira Thai Restaurang"}}, {"type": "node", "id": 2406929113, "lat": 55.77619, "lon": 13.1015351}, {"type": "node", "id": 2406929115, "lat": 55.7761936, "lon": 13.1016069}, {"type": "node", "id": 2406929117, "lat": 55.7762085, "lon": 13.1015505}, {"type": "node", "id": 2406929119, "lat": 55.7762101, "lon": 13.1014592}, {"type": "node", "id": 2406929120, "lat": 55.7762179, "lon": 13.1016746}, {"type": "node", "id": 2406929121, "lat": 55.7762282, "lon": 13.1016358}, {"type": "node", "id": 2406929125, "lat": 55.7762636, "lon": 13.1017128}, {"type": "node", "id": 2406929128, "lat": 55.7763088, "lon": 13.1015416}, {"type": "node", "id": 2407348164, "lat": 55.7110289, "lon": 13.2190892, "tags": {"amenity": "restaurant", "name": "Restaurant & Caf\u00e9 Inspira"}}, {"type": "node", "id": 2422978474, "lat": 55.7984123, "lon": 13.0979647}, {"type": "node", "id": 2422978477, "lat": 55.7984487, "lon": 13.097814}, {"type": "node", "id": 2422978480, "lat": 55.7985704, "lon": 13.0980855}, {"type": "node", "id": 2422978485, "lat": 55.7986068, "lon": 13.0979348}, {"type": "node", "id": 2491179288, "lat": 55.4381744, "lon": 13.3189452}, {"type": "node", "id": 2491179318, "lat": 55.4382744, "lon": 13.3185703}, {"type": "node", "id": 2491179319, "lat": 55.4382764, "lon": 13.3190299}, {"type": "node", "id": 2491179322, "lat": 55.4382868, "lon": 13.3185806}, {"type": "node", "id": 2491179323, "lat": 55.4382882, "lon": 13.3189859}, {"type": "node", "id": 2491179327, "lat": 55.438316, "lon": 13.3184715}, {"type": "node", "id": 2491179329, "lat": 55.4383224, "lon": 13.3188578}, {"type": "node", "id": 2491179337, "lat": 55.4383537, "lon": 13.3190403}, {"type": "node", "id": 2491179338, "lat": 55.4383624, "lon": 13.3186433}, {"type": "node", "id": 2491179340, "lat": 55.4383652, "lon": 13.3186326}, {"type": "node", "id": 2491179342, "lat": 55.4383765, "lon": 13.318655}, {"type": "node", "id": 2491179346, "lat": 55.4383879, "lon": 13.3189122}, {"type": "node", "id": 2491179382, "lat": 55.4385407, "lon": 13.3187783}, {"type": "node", "id": 2491179398, "lat": 55.438567, "lon": 13.3186797}, {"type": "node", "id": 2511479637, "lat": 55.479743, "lon": 13.5004628}, {"type": "node", "id": 2511479639, "lat": 55.4797961, "lon": 13.5000769}, {"type": "node", "id": 2511479640, "lat": 55.4798355, "lon": 13.5005025}, {"type": "node", "id": 2511479641, "lat": 55.4798887, "lon": 13.5001166}, {"type": "node", "id": 2522119223, "lat": 55.71742, "lon": 13.2137297, "tags": {"addr:city": "Lund", "addr:country": "SE", "addr:housenumber": "27", "addr:postcode": "22363", "addr:street": "Scheelev\u00e4gen", "amenity": "restaurant", "cuisine": "italian", "name": "Paolo's", "note": "M\u00e5ndag-Fredag kl. 11.00-14.00* L\u00f6rdag-S\u00f6ndag St\u00e4ngt * Fr\u00e5n kl. 15.00 kan du hyra Paolo\u2019s till din privata fest eller annan tillst\u00e4llning. Kontakta oss f\u00f6r mer information.", "phone": "+46 46 287 11 19", "website": "https://www.elite.se/sv/paolos/lund"}}, {"type": "node", "id": 2539809527, "lat": 55.4229873, "lon": 13.56745}, {"type": "node", "id": 2539809529, "lat": 55.4230116, "lon": 13.5672361}, {"type": "node", "id": 2539809536, "lat": 55.4230505, "lon": 13.5669231}, {"type": "node", "id": 2539809537, "lat": 55.4230664, "lon": 13.5667823}, {"type": "node", "id": 2539809545, "lat": 55.4230806, "lon": 13.5674829}, {"type": "node", "id": 2539809548, "lat": 55.4230888, "lon": 13.5674105}, {"type": "node", "id": 2539809574, "lat": 55.4232351, "lon": 13.567462}, {"type": "node", "id": 2539809576, "lat": 55.4232512, "lon": 13.5673205}, {"type": "node", "id": 2539809588, "lat": 55.4232869, "lon": 13.5670064}, {"type": "node", "id": 2539809600, "lat": 55.4233146, "lon": 13.56749}, {"type": "node", "id": 2539809622, "lat": 55.4233823, "lon": 13.5668936}, {"type": "node", "id": 2666031624, "lat": 55.6433201, "lon": 13.2078018, "tags": {"amenity": "restaurant", "name": "Anderssons skafferi"}}, {"type": "node", "id": 2739647791, "lat": 55.7784374, "lon": 13.2444646, "tags": {"amenity": "restaurant", "cuisine": "pizza"}}, {"type": "node", "id": 2846193401, "lat": 55.7060549, "lon": 13.1924669, "tags": {"amenity": "restaurant", "cuisine": "sushi", "name": "Bonsai Sushi"}}, {"type": "node", "id": 3089482460, "lat": 55.6980442, "lon": 13.2050248, "tags": {"addr:city": "Lund", "addr:country": "SE", "addr:housenumber": "8 B", "addr:postcode": "22458", "addr:street": "Ulrikedalsv\u00e4gen", "amenity": "restaurant", "cuisine": "pizza", "name": "Ulrikedal Pizzeria", "phone": "+46462118725", "source": "http://www.ulrikedalpizzeria.com", "website": "http://www.ulrikedalpizzeria.com"}}, {"type": "node", "id": 3132958532, "lat": 55.7113359, "lon": 13.2017285, "tags": {"addr:city": "Lund", "addr:country": "SE", "addr:housenumber": "19", "addr:postcode": "22362", "addr:street": "S\u00f6lvegatan", "amenity": "restaurant", "name": "Stamst\u00e4llet", "opening_hours": "08:00-16:00", "phone": "+46-70-9713630", "smoking": "no", "website": "http://stamstallet.se"}}, {"type": "node", "id": 3168580242, "lat": 55.6330674, "lon": 13.4937646, "tags": {"amenity": "restaurant", "name": "Pizzeria Valentino"}}, {"type": "node", "id": 3170405396, "lat": 55.632011, "lon": 13.7008267, "tags": {"amenity": "restaurant", "cuisine": "chinese", "name": "Ching a Ling"}}, {"type": "node", "id": 3357341793, "lat": 55.5084702, "lon": 13.2403486, "tags": {"addr:country": "SE", "addr:housenumber": "1", "addr:postcode": "23331", "addr:street": "Repslagaregatan", "amenity": "restaurant", "cuisine": "local", "name": "Svedala Folkets Hus", "name:sv": "Svedala Folkets Hus", "opening_hours": "Mo-Fr 11:00-13:00", "phone": "+46-40403015", "website": "https://m.facebook.com/Svedala-folketshus-Restaurang-fest-konferens-och-catering-687118048074839/"}}, {"type": "node", "id": 3357345656, "lat": 55.5163525, "lon": 13.247126, "tags": {"addr:country": "SE", "addr:housenumber": "19", "addr:postcode": "23351", "addr:street": "F\u00f6retagsgatan", "amenity": "restaurant", "name": "Svea", "name:sv": "Svea"}}, {"type": "node", "id": 3359295210, "lat": 55.7032435, "lon": 13.188507, "tags": {"amenity": "restaurant", "cuisine": "thai", "name": "Mae Yai"}}, {"type": "node", "id": 3379564487, "lat": 55.6685452, "lon": 13.1414318, "tags": {"amenity": "restaurant", "name": "Centrumkrogen"}}, {"type": "node", "id": 3471793419, "lat": 55.4649627, "lon": 13.3626496, "tags": {"amenity": "restaurant", "name": "H\u00e4ll\u00e5kra Ving\u00e5rd"}}, {"type": "node", "id": 3491419142, "lat": 55.7063201, "lon": 13.1927211, "tags": {"addr:city": "Lund", "addr:country": "SE", "addr:housenumber": "2", "addr:postcode": "222 21", "addr:street": "Bredgatan", "amenity": "restaurant", "diet:vegan": "only", "diet:vegetarian": "only", "name": "Herbivore", "opening_hours": "Tu-Th 11:30-23:00; Fr-Sa 11:30-01:00"}}, {"type": "node", "id": 3530445687, "lat": 55.7124018, "lon": 13.2092988, "tags": {"amenity": "restaurant", "contact:email": "info@morotenopiskan.se", "contact:phone": "+46-709-622554", "contact:website": "http://morotenopiskan.se/", "name": "Moroten & Piskan", "website": "http://morotenopiskan.se/"}}, {"type": "node", "id": 3612914392, "lat": 55.7176784, "lon": 13.2138859, "tags": {"addr:city": "Lund", "addr:country": "SE", "addr:housenumber": "27", "addr:postcode": "22363", "addr:street": "Scheelev\u00e4gen", "amenity": "restaurant", "cuisine": "regional", "name": "NorthEast", "website": "https://www.elite.se/sv/hotell/lund/hotel-ideon/northeast/"}}, {"type": "node", "id": 3625639565, "lat": 55.6541183, "lon": 13.1059818, "tags": {"amenity": "restaurant", "cuisine": "pizza", "name": "Pizzeria Palermo", "opening_hours": "Mo-Fr 16:00-21:30; Sa,Su 13:00-21:30"}}, {"type": "node", "id": 3674010532, "lat": 55.7173119, "lon": 13.2178337, "tags": {"addr:city": "Lund", "addr:country": "SE", "addr:housenumber": "6B", "addr:postcode": "22369", "addr:street": "Emdalav\u00e4gen", "amenity": "restaurant", "cuisine": "lunch", "level": "0", "name": "Restaurang Edison", "opening_hours": "Mo-Fr 11:15-13:30 open \"Lunch\" || Mo-Fr 08:00-10:00 open \"Frukost\" || Mo-Fr 08:00-15:00 open \"Caf\u00e9\"", "outdoor_seating": "yes", "phone": "+464650102", "takeaway": "yes", "website": "http://restaurangedison.se"}}, {"type": "node", "id": 3711880057, "lat": 55.7174651, "lon": 13.5243199, "tags": {"amenity": "restaurant", "name": "Grand Pizzeria"}}, {"type": "node", "id": 3775316573, "lat": 55.705314, "lon": 13.1896923, "tags": {"addr:city": "Lund", "addr:country": "SE", "addr:housenumber": "14", "addr:postcode": "22221", "addr:street": "Bytaregatan", "amenity": "restaurant", "cuisine": "thai", "delivery": "no", "name": "Ihsiri", "opening_hours": "mo-tu 11:00-22:00, we-fr 11:00-23:00,sa 12:00-23:00,su 12:00-21:00", "phone": "+46 46 30 77 26", "smoking": "no", "takeaway": "no"}}, {"type": "node", "id": 3790809257, "lat": 55.7181882, "lon": 13.2265558, "tags": {"amenity": "restaurant", "name": "Eatery (opens Sept 2021)", "smoking": "no", "start_date": "2021-09"}}, {"type": "node", "id": 4067908022, "lat": 55.5307611, "lon": 13.1296891}, {"type": "node", "id": 4067908023, "lat": 55.5305631, "lon": 13.1297052}, {"type": "node", "id": 4067908024, "lat": 55.5305672, "lon": 13.1298625}, {"type": "node", "id": 4067908025, "lat": 55.5307651, "lon": 13.1298464}, {"type": "node", "id": 4089005192, "lat": 55.7038275, "lon": 13.1900366, "tags": {"addr:country": "SE", "addr:housenumber": "9", "addr:street": "Klostergatan", "amenity": "restaurant", "cuisine": "burger", "name": "Tugg Burgers", "opening_hours": "Tu-Fr 11:00-15:00; Tu-Th 16:00-22:00; Fr 16:00-23:00; Sa 12:00-23:00; Su 12:00-20:00", "outdoor_seating": "yes", "payment:cash": "no"}}, {"type": "node", "id": 4098107755, "lat": 55.7032724, "lon": 13.2221352, "tags": {"amenity": "restaurant", "name": "Restaurang Vipan"}}, {"type": "node", "id": 4127945983, "lat": 55.6746895, "lon": 13.1350817, "tags": {"addr:city": "Hj\u00e4rup", "addr:country": "SE", "addr:housenumber": "17", "addr:postcode": "245 65", "addr:street": "K\u00f6pmannagatan", "amenity": "restaurant", "cuisine": "pizza;kebab", "delivery": "no", "name": "Hj\u00e4rups Pizzeria och Restaurang", "smoking": "no", "takeaway": "yes"}}, {"type": "node", "id": 4226321489, "lat": 55.7224572, "lon": 13.265568, "tags": {"addr:city": "Lund", "addr:country": "SE", "addr:postcode": "22592", "addr:street": "Dammstorpsv\u00e4gen", "amenity": "restaurant", "cuisine": "american;bbq", "name": "Farmshack BBQ", "phone": "+46 46 98256"}}, {"type": "node", "id": 4226571742, "lat": 55.5511407, "lon": 13.2282579, "tags": {"addr:street": "Torupsv\u00e4gen", "amenity": "restaurant", "name": "[ma:deriet] p\u00e5 Bokskogen", "phone": "+46406308809", "website": "http://maderiet.se"}}, {"type": "node", "id": 4424875068, "lat": 55.7165297, "lon": 13.2269887, "tags": {"amenity": "restaurant", "name": "Bricks Eatery", "opening_hours": "Mo-Fr 07:30-15:30", "website": "https://brickseatery.se/"}}, {"type": "node", "id": 4605372433, "lat": 55.5989758, "lon": 13.4032916, "tags": {"amenity": "restaurant", "cuisine": "pizza", "name": "Genarps Pizzeria"}}, {"type": "node", "id": 4704924390, "lat": 55.5561765, "lon": 13.2823244, "tags": {"addr:country": "SE", "addr:housenumber": "15", "addr:postcode": "23394", "addr:street": "Holmeja byv\u00e4g", "amenity": "restaurant", "cuisine": "thai", "name": "Niyoms K\u00f6k", "name:sv": "Niyoms K\u00f6k", "phone": "+464087453", "website": "http://www.niyomskok.se"}}, {"type": "node", "id": 4788654322, "lat": 55.5099674, "lon": 13.2387891, "tags": {"addr:country": "SE", "addr:housenumber": "29B", "addr:postcode": "23331", "addr:street": "Storgatan", "amenity": "restaurant", "cuisine": "pizza", "name": "Pizzaboden", "name:sv": "Pizzaboden", "opening_hours": "Mo-Fr 11:30-21:00; Sa-Su 12:00-21:00"}}, {"type": "node", "id": 4788656024, "lat": 55.5101488, "lon": 13.2397609, "tags": {"addr:postcode": "23331", "amenity": "restaurant", "cuisine": "thai", "name": "Sabaidee", "name:sv": "Sabaidee", "opening_hours": "Tu-Fr 11:00-20:00; Sa-Su 15:00-20:00"}}, {"type": "node", "id": 4788666121, "lat": 55.5101848, "lon": 13.2391588, "tags": {"addr:country": "SE", "addr:housenumber": "31", "addr:postcode": "23331", "addr:street": "Storgatan", "amenity": "restaurant", "cuisine": "pizza", "name": "Huses Grill & Pizzeria", "name:sv": "Huses Grill & Pizzeria", "opening_hours": "Mo-Fr 11:00-21:00; Sa 12:00-21:00; Su 13:00-21:00"}}, {"type": "node", "id": 4788672421, "lat": 55.5081699, "lon": 13.2359511, "tags": {"addr:country": "SE", "addr:housenumber": "14", "addr:postcode": "23331", "addr:street": "Storgatan", "amenity": "restaurant", "cuisine": "pizza", "name": "Hollywood 2", "name:sv": "Hollywood 2", "opening_hours": "Mo-Fr 11:00-18:00; Sa-Su 11:00-22:00"}}, {"type": "node", "id": 4788967221, "lat": 55.5071793, "lon": 13.3274403, "tags": {"addr:country": "SE", "addr:housenumber": "84", "addr:postcode": "23391", "addr:street": "Klosterv\u00e4gen", "amenity": "restaurant", "name": "Anita p\u00e5 B\u00f6rringekloster", "name:sv": "Anita p\u00e5 B\u00f6rringekloster", "opening_hours": "We-Fr 11:00-18:00; Sa-Su 11:00-16:00"}}, {"type": "node", "id": 4916330221, "lat": 55.6312776, "lon": 13.7068344, "tags": {"addr:city": "Sj\u00f6bo", "addr:postcode": "275 30", "addr:street": "Gamla torg 8", "amenity": "restaurant", "name": "Palladium Cafe & Bistro", "phone": "+46 416-184 84", "toilets:wheelchair": "yes", "website": "http://palladiumcafebistro.se/contact.html", "wheelchair": "yes"}}, {"type": "node", "id": 4916911602, "lat": 55.7021002, "lon": 13.1962058, "tags": {"addr:city": "Lund", "addr:country": "SE", "addr:housenumber": "7a", "addr:postcode": "223 51", "addr:street": "M\u00e5rtenstorget", "amenity": "restaurant", "contact:website": "https://shadyburgers.se/", "cuisine": "burger", "name": "Shady Burgers", "phone": "+46-46-144442"}}, {"type": "node", "id": 5108875397, "lat": 55.701437, "lon": 13.2000695, "tags": {"addr:city": "Lund", "addr:country": "SE", "addr:housenumber": "15", "addr:postcode": "22361", "addr:street": "\u00d6stra M\u00e5rtensgatan", "amenity": "restaurant", "cuisine": "indian", "diet:vegan": "yes", "lunch:buffet": "Mo-Fr 11:00-15:00", "name": "Taste of India", "opening_hours": "Mo-Th 11:00-22:00; Fr-Sa 11:00-01:00, Su 11:00-21:00", "phone": "+46 (0)46-12 33 30"}}, {"type": "node", "id": 5217143621, "lat": 55.7013523, "lon": 13.1970236, "tags": {"addr:country": "SE", "addr:housenumber": "12", "addr:postcode": "22351", "addr:street": "M\u00e5rtenstorget", "alt_name": "Pinchos", "amenity": "restaurant", "name": "Pincho Nation", "opening_hours": "Fr-Su 16:00-23:00; Tu-Th 17:00-23:00", "phone": "+46-34650393"}}, {"type": "node", "id": 5833582898, "lat": 55.7099136, "lon": 13.2085005, "tags": {"amenity": "restaurant", "cuisine": "salad", "name": "Gr\u00f6nt & Gott"}}, {"type": "node", "id": 6024922796, "lat": 55.7338327, "lon": 13.2521471}, {"type": "node", "id": 6024922797, "lat": 55.7337874, "lon": 13.2522008}, {"type": "node", "id": 6024922798, "lat": 55.7337587, "lon": 13.2520989}, {"type": "node", "id": 6024922799, "lat": 55.7338055, "lon": 13.2520586}, {"type": "node", "id": 6263049525, "lat": 55.7080279, "lon": 13.1980122, "tags": {"addr:city": "Lund", "addr:postcode": "22362", "addr:street": "Finngatan", "amenity": "restaurant", "cuisine": "french", "name": "P\u00e5 Skissernas", "opening_hours": "Tu 11:30-17:00, We-Fr 11:30-23:00, Sa 12:00-23:00, Su 12:00-17:00"}}, {"type": "node", "id": 6431653769, "lat": 55.6914526, "lon": 13.2133244, "tags": {"alt_name": "M&N Siam Thaik\u00f6k", "amenity": "restaurant", "cuisine": "thai", "name": "Siam Thaik\u00f6k", "opening_hours": "Mo-Fr 11:00-17:30"}}, {"type": "node", "id": 6456209733, "lat": 55.7912626, "lon": 13.1094696, "tags": {"amenity": "restaurant", "cuisine": "chinese", "name": "Dream Garden"}}, {"type": "node", "id": 6558463085, "lat": 55.508034, "lon": 13.2357178, "tags": {"amenity": "restaurant", "contact:phone": "+46 40 483 000", "name": "Mr Java"}}, {"type": "node", "id": 6561435618, "lat": 55.6000061, "lon": 13.4003663, "tags": {"amenity": "restaurant", "name": "Fortuna Krog & Restaurang"}}, {"type": "node", "id": 6684140964, "lat": 55.7137642, "lon": 13.1600241, "tags": {"amenity": "restaurant", "cuisine": "potato", "name": "Grafitti Caf\u00e9"}}, {"type": "node", "id": 6761693004, "lat": 55.720955, "lon": 13.1994349, "tags": {"amenity": "restaurant", "cuisine": "asian", "name": "Chop Chop"}}, {"type": "node", "id": 7098342043, "lat": 55.7209304, "lon": 13.199638, "tags": {"amenity": "restaurant", "cuisine": "pakistani", "diet:vegan": "yes", "diet:vegetarian": "yes", "name": "Splice", "opening_hours": "Mo-Th 11:00-20:00; Fr,Sa 11:00-21:00"}}, {"type": "node", "id": 7107652055, "lat": 55.6819872, "lon": 13.4019238, "tags": {"addr:street": "Trollskogsv\u00e4gen", "amenity": "restaurant", "name": "Boklunden", "phone": "+46 46-530 82", "website": "https://boklunden.se/"}}, {"type": "node", "id": 7122181885, "lat": 55.7012716, "lon": 13.1922309, "tags": {"addr:postcode": "22223", "amenity": "restaurant", "name": "F\u00e4rgstarkt Bar & Restaurang (Closed)", "phone": "+4646-590 32 00", "website": "http://barfargstarkt.se"}}, {"type": "node", "id": 7387441972, "lat": 55.7103922, "lon": 13.1839536, "tags": {"amenity": "restaurant", "cuisine": "sushi", "name": "Sugoi", "opening_hours": "Mo-Fr 11:00-21:00; Sa,Su 16:00-21:00"}}, {"type": "node", "id": 7514753655, "lat": 55.720886, "lon": 13.1996831, "tags": {"amenity": "restaurant", "cuisine": "asian;sushi;japanese", "diet:vegan": "yes", "diet:vegetarian": "yes", "name": "Chaoban", "opening_hours": "Mo-Fr 11:00-20:00", "website": "http://chaoban.se/"}}, {"type": "node", "id": 7683548487, "lat": 55.7059555, "lon": 13.1924661, "tags": {"amenity": "restaurant", "cuisine": "lebanese", "diet:vegan": "yes", "diet:vegetarian": "yes", "name": "Mezaya Restaurang"}}, {"type": "node", "id": 8984085576, "lat": 55.713714, "lon": 13.1602042, "tags": {"addr:city": "Lund", "addr:housenumber": "10", "addr:postcode": "227 61", "addr:street": "F\u00f6retagsv\u00e4gen", "amenity": "restaurant", "cuisine": "sushi", "name": "Sushi Yama", "opening_hours": "Mo-Fr 10:00-20:00, Sa-Su 10:00-18:00", "phone": "+4619 96 66", "website": "https://www.sushiyama.se"}}, {"type": "node", "id": 8998651864, "lat": 55.7876416, "lon": 13.1147036}, {"type": "node", "id": 8998651865, "lat": 55.7875763, "lon": 13.1147318}, {"type": "node", "id": 8998651866, "lat": 55.7875624, "lon": 13.1145642}, {"type": "node", "id": 8998651867, "lat": 55.7876306, "lon": 13.1145508}, {"type": "node", "id": 9003279802, "lat": 55.4231634, "lon": 13.5674367, "tags": {"entrance": "main"}}, {"type": "node", "id": 9004248717, "lat": 55.6317359, "lon": 13.7025396, "tags": {"amenity": "restaurant", "name": "Vietnam Food"}}, {"type": "node", "id": 9004270420, "lat": 55.6319621, "lon": 13.6984306, "tags": {"amenity": "restaurant", "cuisine": "pizza", "name": "Donna Gina"}}, {"type": "node", "id": 9032789325, "lat": 55.7901593, "lon": 13.1151959, "tags": {"amenity": "restaurant", "cuisine": "pizza", "name": "Pizzeria Ferrari"}}, {"type": "node", "id": 9032789327, "lat": 55.790542, "lon": 13.1079321, "tags": {"amenity": "restaurant", "name": "Pappi\u2019s Restaurang & Pizzeria"}}, {"type": "node", "id": 9032789328, "lat": 55.7908631, "lon": 13.1100527, "tags": {"amenity": "restaurant", "cuisine": "steak_house", "diet:vegetarian": "yes", "name": "Matmakarna i K\u00e4vlinge", "opening_hours": "Mo-We 10:00-15:00; Th-Sa 10:00-21:00", "payment:cash": "yes", "shop": "butcher", "wheelchair": "yes"}}, {"type": "node", "id": 9043626420, "lat": 55.7913507, "lon": 13.108855, "tags": {"addr:city": "K\u00e4vlinge", "addr:housenumber": "5", "addr:postcode": "244 30", "addr:street": "Bruksgatan", "amenity": "restaurant", "cuisine": "asian", "name": "Fenugreek", "website": "https://www.fenugreek.se/"}}, {"type": "node", "id": 9054132271, "lat": 55.7927469, "lon": 13.1184624, "tags": {"addr:city": "K\u00e4vlinge", "addr:housenumber": "5", "addr:postcode": "244 45", "addr:street": "V\u00e4stra L\u00e5nggatan", "amenity": "restaurant", "cuisine": "thai", "name": "Thai Cuisine Express"}}, {"type": "way", "id": 53090393, "nodes": [672091477, 672091211, 672091221, 672091541, 672091228, 672091535, 672091251, 672091426, 672091400, 672091477], "tags": {"addr:city": "Staffanstorp", "addr:country": "SE", "addr:housenumber": "16", "addr:street": "J\u00e4rnv\u00e4gsgatan", "amenity": "restaurant", "building": "train_station", "name": "J\u00e4rnv\u00e4gskrogen"}}, {"type": "way", "id": 53090613, "nodes": [672097276, 672097264, 672097268, 672097261, 672097256, 672097240, 672097276], "tags": {"addr:city": "Staffanstorp", "addr:country": "SE", "addr:housenumber": "2", "addr:street": "Stationsv\u00e4gen", "amenity": "restaurant", "building": "yes", "name": "G\u00e4stgivareg\u00e5rden"}}, {"type": "way", "id": 64951668, "nodes": [795771194, 795771418, 795771272, 795771158, 795771135, 795771490, 795771547, 795771261, 795771258, 795771288, 795771481, 795771379, 795771414, 795771215, 795771361, 795771464, 795771120, 795771303, 795771486, 795771305, 795771166, 795771583, 795771162, 795771198, 795771504, 795771207, 795771569, 795771122, 795771329, 795771411, 795771131, 795771125, 795771164, 795771355, 795771482, 795771377, 795771249, 795771172, 795771297, 795771322, 795771194], "tags": {"DEP": "YTAOFF", "SHAPE_area": "244.831187125", "SHAPE_len": "131.240271045", "amenity": "restaurant", "building": "yes", "name": "Kulturkrogen", "website": "http://www.kulturkrogen.se"}}, {"type": "way", "id": 89472944, "nodes": [710465515, 1037562592, 1037563015, 1037562082, 1037562619, 1037561849, 1037562462, 710465515], "tags": {"addr:city": "Flyinge", "addr:postcode": "24729", "amenity": "restaurant", "building": "yes", "cuisine": "regional", "name": "Flyinge Kungsg\u00e5rd", "website": "http://flyinge.se/besok-och-bo/restaurang-flyinge-kungsgard", "wikidata": "Q18289850"}}, {"type": "way", "id": 107359935, "nodes": [1234040324, 1234040322, 1234040326, 1234040328, 1670510485, 1234040324], "tags": {"addr:city": "Dalby", "addr:country": "SE", "addr:housenumber": "6a", "addr:street": "Tingsgatan", "amenity": "restaurant", "building": "yes", "name": "Dalby G\u00e4stgivarestuga"}}, {"type": "way", "id": 137905444, "nodes": [1512219339, 1512219409, 1512219398, 1512219390, 1512219371, 1512219360, 1512219333, 1512219270, 1512219222, 1512219297, 1512219344, 1512219323, 1512219347, 1512219339], "tags": {"amenity": "restaurant", "building": "yes", "name": "Matsalen"}}, {"type": "way", "id": 137956425, "nodes": [1512699959, 1512700035, 1512699786, 1512699963, 1512700051, 1512699791, 1512699967, 1512700053, 1512699794, 1512699971, 1512699959], "tags": {"addr:city": "Sj\u00f6bo", "addr:country": "SE", "addr:housenumber": "7B", "addr:postcode": "275 30", "addr:street": "Gamla Torg", "amenity": "restaurant", "building": "hotel", "contact:website": "http://www.sjobogastgifveri.se/", "cuisine": "regional", "name": "Sj\u00f6bo G\u00e4stgifvareg\u00e5rd", "smoking": "no", "toilets:wheelchair": "yes", "wheelchair": "yes"}}, {"type": "way", "id": 142391765, "nodes": [1558284918, 1558284894, 1558284901, 1558284910, 1558284909, 1558284923, 1558284915, 1558284924, 1558284918], "tags": {"addr:city": "Veber\u00f6d", "addr:country": "SE", "addr:housenumber": "5", "addr:postcode": "247 62", "addr:street": "Mejerigatan", "amenity": "restaurant", "building": "yes", "cuisine": "pizza", "name": "Veber\u00f6ds pub & pizzeria"}}, {"type": "way", "id": 229117879, "nodes": [2377500122, 2377500123, 2377500118, 2377500119, 2377500109, 2377500110, 2377500104, 2377500103, 2377500098, 2377500100, 2377500093, 2377500092, 2377500088, 2377500087, 4067908024, 4067908025, 2377500122], "tags": {"amenity": "restaurant", "building": "yes", "capacity": "120", "capacity:outdoors": "150", "opening_hours": "Mo-Fr 11:30-14:30; Su 13:00-18:00", "takeaway": "yes"}}, {"type": "way", "id": 232335950, "nodes": [2406929121, 2406929115, 2406929117, 2406929113, 2406929119, 2406929128, 2406929125, 2406929120, 2406929121], "tags": {"addr:city": "Furulund", "addr:country": "SE", "addr:housenumber": "2", "addr:street": "V\u00e5rgatan", "amenity": "restaurant", "building": "yes", "name": "Valentino Pizzeria", "phone": "+4646732033"}}, {"type": "way", "id": 233987806, "nodes": [2422978485, 2422978480, 2422978474, 2422978477, 2422978485], "tags": {"addr:city": "K\u00e4vlinge", "addr:country": "SE", "addr:housenumber": "1", "addr:street": "Bogesholmsv\u00e4gen", "amenity": "restaurant", "building": "yes", "cuisine": "burger;regional", "name": "104:ans Taverna"}}, {"type": "way", "id": 241500034, "nodes": [2491179322, 2491179327, 2491179398, 2491179382, 2491179340, 2491179338, 2491179342, 2491179329, 2491179346, 2491179337, 2491179323, 2491179319, 2491179288, 2491179318, 2491179322], "tags": {"amenity": "restaurant", "building": "yes", "name": "Andersl\u00f6vs g\u00e4stgivarg\u00e5rd", "tourism": "hotel"}}, {"type": "way", "id": 243783208, "nodes": [2511479639, 2511479641, 2511479640, 2511479637, 2511479639], "tags": {"addr:city": "Skurup", "addr:country": "SE", "addr:housenumber": "2", "addr:postcode": "274 34", "addr:street": "J\u00e4rnv\u00e4gsgatan", "amenity": "restaurant", "building": "yes", "contact:phone": "+46 (0)411-406 39", "contact:website": "http://www.restaurangkarljohan.se", "cuisine": "regional", "name": "Restaurang Karl Johan", "opening_hours": "Mo-Th 11:30-15:30, Fr 11:30-15:30, 18:00-23:30"}}, {"type": "way", "id": 247038930, "nodes": [2539809622, 2539809600, 2539809574, 9003279802, 2539809548, 2539809545, 2539809527, 2539809529, 2539809576, 2539809588, 2539809536, 2539809537, 2539809622], "tags": {"amenity": "restaurant", "building": "yes", "name": "Skivarps G\u00e4stgivareg\u00e5rd", "phone": "+46-411-30551", "tourism": "hotel", "website": "https://www.skivarp.com/"}}, {"type": "way", "id": 404496513, "nodes": [4067908022, 4067908023, 4067908024, 4067908025, 4067908022], "tags": {"access": "customers", "amenity": "restaurant", "capacity": "150"}}, {"type": "way", "id": 639396830, "nodes": [6024922796, 6024922797, 6024922798, 6024922799, 6024922796], "tags": {"addr:city": "Lund", "addr:country": "SE", "addr:housenumber": "113", "addr:postcode": "224 84", "addr:street": "Odarsl\u00f6vsv\u00e4gen", "amenity": "restaurant", "building": "yes", "email": "info@blessatess.se", "name": "BLESS", "opening_hours": "Mo-Fr 08:00-14:00", "outdoor_seating": "yes", "phone": "+46 076-318 72 43", "takeaway": "yes", "website": "https://www.blessatess.se/"}}, {"type": "way", "id": 972268809, "nodes": [8998651864, 8998651865, 8998651866, 8998651867, 8998651864], "tags": {"addr:city": "K\u00e4vlinge", "addr:housenumber": "22", "addr:postcode": "24431", "addr:street": "Dalgatan", "amenity": "restaurant", "building": "terrace", "name": "Outdoor Cafe", "opening_hours": "24/7", "opening_hours:covid19": "same"}}]}