{"version": 0.6, "generator": "Overpass API 0.7.56.9 76e5016d", "osm3s": {"timestamp_osm_base": "2021-09-21T11:12:58Z", "copyright": "The data included in this document is from www.openstreetmap.org. The data is made available under ODbL."}, "elements": [{"type": "node", "id": 2540964454, "lat": 55.3945552, "lon": 13.5949652}, {"type": "node", "id": 2540964459, "lat": 55.3946157, "lon": 13.5951095}, {"type": "node", "id": 2540964461, "lat": 55.3946455, "lon": 13.594848}, {"type": "node", "id": 2540964464, "lat": 55.3947059, "lon": 13.5949922}, {"type": "node", "id": 2542662484, "lat": 55.3944708, "lon": 13.6023486}, {"type": "node", "id": 2542662490, "lat": 55.3945084, "lon": 13.6021899}, {"type": "node", "id": 2542662503, "lat": 55.3946617, "lon": 13.6024888}, {"type": "node", "id": 2542662513, "lat": 55.3946993, "lon": 13.60233}, {"type": "node", "id": 3413938811, "lat": 55.3643388, "lon": 13.4319588, "tags": {"amenity": "restaurant", "name": "Restaurang Amalfi"}}, {"type": "node", "id": 8960974982, "lat": 55.3864383, "lon": 13.5484192, "tags": {"amenity": "restaurant", "cuisine": "local", "name": "K\u00f6ksbordet", "website": "https://www.koksbordet.se/"}}, {"type": "node", "id": 8960974983, "lat": 55.3864223, "lon": 13.5484487, "tags": {"amenity": "restaurant", "name": "H\u00f6rte Brygga", "phone": "+46 73 9971041", "website": "https://hortebrygga.se/"}}, {"type": "way", "id": 247163238, "nodes": [2540964461, 2540964464, 2540964459, 2540964454, 2540964461], "tags": {"amenity": "restaurant", "building": "yes", "cuisine": "regional", "name": "Abbek\u00e5s Restaurang & Vinbar"}}, {"type": "way", "id": 247366601, "nodes": [2542662484, 2542662490, 2542662513, 2542662503, 2542662484], "tags": {"amenity": "restaurant", "building": "yes", "name": "By the sea", "tourism": "hotel"}}]}