{"version": 0.6, "generator": "Overpass API 0.7.56.9 76e5016d", "osm3s": {"timestamp_osm_base": "2021-09-21T11:12:58Z", "copyright": "The data included in this document is from www.openstreetmap.org. The data is made available under ODbL."}, "elements": [{"type": "node", "id": 1438335832, "lat": 55.4526517, "lon": 13.8372301, "tags": {"amenity": "restaurant", "name": "\u00d6ja Krog", "wheelchair": "yes"}}, {"type": "node", "id": 1680808361, "lat": 55.4281985, "lon": 13.8216809, "tags": {"amenity": "restaurant", "name": "Br\u00f6derna M", "toilets:wheelchair": "no", "wheelchair": "limited"}}, {"type": "node", "id": 1680808399, "lat": 55.4311155, "lon": 13.830315, "tags": {"addr:city": "Ystad", "addr:country": "SE", "addr:housenumber": "7", "addr:street": "Regementsgatan", "amenity": "restaurant", "name": "Donna Gina", "toilets:wheelchair": "no", "wheelchair": "no"}}, {"type": "node", "id": 1680808488, "lat": 55.430501, "lon": 13.8258525, "tags": {"amenity": "restaurant", "name": "Graffiti Cafe", "toilets:wheelchair": "no", "wheelchair": "no"}}, {"type": "node", "id": 1680808530, "lat": 55.429617, "lon": 13.8205872, "tags": {"amenity": "restaurant", "cuisine": "chinese", "name": "Loong Sching", "toilets:wheelchair": "no", "wheelchair": "no"}}, {"type": "node", "id": 1680808535, "lat": 55.4292037, "lon": 13.8200952, "tags": {"amenity": "restaurant", "name": "Upp Eller Ner", "toilets:wheelchair": "no", "wheelchair": "no"}}, {"type": "node", "id": 1680808578, "lat": 55.4311518, "lon": 13.8307176, "tags": {"addr:city": "Ystad", "addr:country": "SE", "addr:housenumber": "7", "addr:street": "Regementsgatan", "amenity": "restaurant", "cuisine": "pizza", "name": "Pizzeria & Restaurang Regement", "toilets:wheelchair": "no", "wheelchair": "no"}}, {"type": "node", "id": 1680808609, "lat": 55.4305832, "lon": 13.818923, "tags": {"amenity": "restaurant", "cuisine": "pizza", "name": "Pizzeria Casper", "toilets:wheelchair": "no", "wheelchair": "no"}}, {"type": "node", "id": 1680808652, "lat": 55.4293255, "lon": 13.8197528, "tags": {"addr:city": "Ystad", "addr:country": "SE", "addr:housenumber": "1", "addr:postcode": "271 43", "addr:street": "Stortorget", "amenity": "restaurant", "contact:phone": "+46 411-185 10", "contact:website": "http://www.storethor.se", "name": "Store Thor", "wheelchair": "no"}}, {"type": "node", "id": 1680808686, "lat": 55.4365415, "lon": 13.8264911, "tags": {"addr:city": "Ystad", "addr:country": "SE", "addr:housenumber": "24", "addr:street": "Surbrunnsv\u00e4gen", "amenity": "restaurant", "contact:website": "http://www.surbrunnsparken.se", "cuisine": "regional", "name": "Surbrunnsparken", "toilets:wheelchair": "yes", "wheelchair": "limited"}}, {"type": "node", "id": 1680808739, "lat": 55.4272218, "lon": 13.8215821, "tags": {"amenity": "restaurant", "cuisine": "pizza", "toilets:wheelchair": "no", "wheelchair": "limited"}}, {"type": "node", "id": 1682244380, "lat": 55.4315672, "lon": 13.8408247, "tags": {"addr:country": "SE", "addr:housenumber": "6", "addr:street": "Bj\u00f6rnstjernegatan", "amenity": "restaurant", "cuisine": "regional", "name": "Litemer", "toilets:wheelchair": "no", "wheelchair": "limited"}}, {"type": "node", "id": 1829900405, "lat": 55.4272496, "lon": 13.8498559, "tags": {"amenity": "restaurant", "name": "Sandskogens V\u00e4rdshus", "toilets:wheelchair": "no", "wheelchair": "limited"}}, {"type": "node", "id": 1857066029, "lat": 55.4392807, "lon": 14.1125789, "tags": {"amenity": "restaurant", "cuisine": "pizza", "name": "Jadran"}}, {"type": "node", "id": 1910180544, "lat": 55.430581, "lon": 13.826754, "tags": {"amenity": "restaurant", "created_by": "iLOE 1.9", "cuisine": "sushi", "name": "Sushinu", "toilets:wheelchair": "no", "wheelchair": "no"}}, {"type": "node", "id": 2380900247, "lat": 55.4284306, "lon": 13.8215972, "tags": {"amenity": "restaurant", "cuisine": "sushi", "name": "Oishii Ngon", "wheelchair": "no"}}, {"type": "node", "id": 2546912860, "lat": 55.4345883, "lon": 13.8219043}, {"type": "node", "id": 2546912870, "lat": 55.4346536, "lon": 13.8217413}, {"type": "node", "id": 2546912875, "lat": 55.434669, "lon": 13.8220046}, {"type": "node", "id": 2546912883, "lat": 55.4347343, "lon": 13.8218417}, {"type": "node", "id": 2901412304, "lat": 55.4259771, "lon": 13.8139439, "tags": {"amenity": "restaurant", "name": "Ystad Marinan", "website": "http://www.ystadmarinan.se/"}}, {"type": "node", "id": 4179238798, "lat": 55.4248515, "lon": 13.8486292, "tags": {"amenity": "restaurant", "capacity": "200", "cuisine": "seafood", "name": "Port", "toilets:wheelchair": "yes", "wheelchair": "yes"}}, {"type": "node", "id": 4179238799, "lat": 55.4249109, "lon": 13.8485173, "tags": {"amenity": "restaurant", "capacity": "45", "cuisine": "international", "name": "Vitas", "toilets:wheelchair": "yes", "wheelchair": "yes"}}, {"type": "node", "id": 4325356144, "lat": 55.5445535, "lon": 13.9505195, "tags": {"amenity": "restaurant", "name": "Celtic Bar", "wheelchair": "yes"}}, {"type": "node", "id": 4895454236, "lat": 55.4297188, "lon": 13.8210584, "tags": {"addr:city": "Ystad", "addr:country": "SE", "addr:housenumber": "1", "addr:postcode": "271 34", "addr:street": "Stora \u00d6stergatan", "amenity": "restaurant", "cuisine": "thai", "name": "Thai Corner", "phone": "+46-411-555588", "wheelchair": "no"}}, {"type": "node", "id": 6828585740, "lat": 55.4299954, "lon": 13.8273415, "tags": {"addr:city": "Ystad", "addr:country": "SE", "addr:housenumber": "3", "addr:postcode": "27142", "addr:street": "Piparegr\u00e4nd", "amenity": "restaurant", "contact:phone": "+46 411 171 50", "contact:website": "https://www.grandensmat.se/", "name": "Gr\u00e4ndens Mat"}}, {"type": "node", "id": 6829156597, "lat": 55.4288692, "lon": 13.8183955, "tags": {"addr:city": "Ystad", "addr:country": "SE", "addr:housenumber": "15", "addr:postcode": "271 43", "addr:street": "Stortorget", "amenity": "restaurant", "cuisine": "pizza;steak_house", "name": "Le Cardinal", "phone": "+46 41 11 65 15"}}, {"type": "node", "id": 7989727436, "lat": 55.4285344, "lon": 13.8293586, "tags": {"amenity": "restaurant", "name": "Harrys"}}, {"type": "node", "id": 8752722018, "lat": 55.4748513, "lon": 14.2853037, "tags": {"amenity": "restaurant", "name": "Skillinge  Hamnkrog"}}, {"type": "node", "id": 8752888580, "lat": 55.4527795, "lon": 14.2576772, "tags": {"addr:housenumber": "63", "addr:street": "H\u00e4vdav\u00e4gen", "amenity": "restaurant", "name": "Jord & Bord", "website": "http://www.jordochbord.com/"}}, {"type": "node", "id": 8863789772, "lat": 55.4285402, "lon": 13.8171295, "tags": {"addr:housenumber": "20", "addr:street": "L\u00e5nggatan", "amenity": "restaurant", "name": "M\u00f6llers bryggeri", "opening_hours": "Mo-Su 14:00-22:30", "phone": "+46 411 19200", "website": "http://mollersbryggeri.se/"}}, {"type": "node", "id": 8865900717, "lat": 55.4303342, "lon": 13.8256792, "tags": {"amenity": "restaurant", "cuisine": "buschenschank;fish", "name": "Le Petit Bistrot"}}, {"type": "node", "id": 8996107618, "lat": 55.430347, "lon": 13.8261716, "tags": {"amenity": "restaurant", "name": "JH matbar"}}, {"type": "node", "id": 8996111717, "lat": 55.4304274, "lon": 13.8247712, "tags": {"amenity": "restaurant", "cuisine": "sushi", "name": "Saigon Sushi"}}, {"type": "node", "id": 8996121717, "lat": 55.4304672, "lon": 13.8254915, "tags": {"amenity": "restaurant", "name": "Smaken av Danmark"}}, {"type": "node", "id": 8996192418, "lat": 55.4309201, "lon": 13.8243121, "tags": {"amenity": "restaurant", "cuisine": "pizza", "name": "Cafe Venus"}}, {"type": "node", "id": 8996353618, "lat": 55.4289356, "lon": 13.8212572, "tags": {"amenity": "restaurant", "cuisine": "tapas", "name": "Pinchos"}}, {"type": "node", "id": 8996370417, "lat": 55.4280658, "lon": 13.8220317, "tags": {"amenity": "restaurant", "name": "Bakfickan"}}, {"type": "node", "id": 8996376117, "lat": 55.427786, "lon": 13.8219386, "tags": {"amenity": "restaurant", "name": "Du Sud"}}, {"type": "node", "id": 9004494919, "lat": 55.5437517, "lon": 13.949227, "tags": {"amenity": "restaurant", "cuisine": "pizza", "name": "Pizzeria Capri"}}, {"type": "node", "id": 9004523319, "lat": 55.5451984, "lon": 13.9509955, "tags": {"amenity": "restaurant", "name": "La Sosta"}}, {"type": "node", "id": 9004555118, "lat": 55.5443473, "lon": 13.9525634, "tags": {"amenity": "restaurant", "name": "Rayams Favoriter"}}, {"type": "node", "id": 9004556917, "lat": 55.544301, "lon": 13.95096, "tags": {"amenity": "restaurant", "name": "Pizzeria Roma"}}, {"type": "node", "id": 9004556919, "lat": 55.5441139, "lon": 13.951767, "tags": {"amenity": "restaurant", "name": "Thai Garden"}}, {"type": "way", "id": 247830583, "nodes": [2546912870, 2546912883, 2546912875, 2546912860, 2546912870], "tags": {"amenity": "restaurant", "building": "yes", "cuisine": "pizza", "name": "Pizzeria Triangeln", "wheelchair": "yes"}}]}