{"version": 0.6, "generator": "Overpass API 0.7.56.9 76e5016d", "osm3s": {"timestamp_osm_base": "2021-09-21T11:12:58Z", "copyright": "The data included in this document is from www.openstreetmap.org. The data is made available under ODbL."}, "elements": [{"type": "node", "id": 381699203, "lat": 55.1397361, "lon": 15.1430765}, {"type": "node", "id": 381699206, "lat": 55.1395036, "lon": 15.1431236}, {"type": "node", "id": 381699210, "lat": 55.1396466, "lon": 15.1436341}, {"type": "node", "id": 381699216, "lat": 55.1397897, "lon": 15.1436051}, {"type": "node", "id": 480457223, "lat": 55.2485398, "lon": 14.738164, "tags": {"amenity": "restaurant", "fvst:navnelbnr": "504160", "name": "Le Port", "opening_hours": "Mar-Apr Tu-Sa 12:00-15:00,17:30-20:30; May Tu-Su 12:00-15:00,18:00-21:30; Jun-Aug 12:00-15:00,17:30-21:30; Sep Tu-Su 12:00-15:00,17:30-20:30; Oct 01-20 Th-Sa 12:00-15:00,17:30-20:30; Dec Th-Sa 17:30-20:30", "phone": "+45 56969201", "website": "https://www.leport.dk/"}}, {"type": "node", "id": 491125558, "lat": 54.9932907, "lon": 15.0782443, "tags": {"amenity": "restaurant", "fvst:navnelbnr": "931694", "name": "Dueodde Diner og Steakhouse", "opening_hours": "Jun 1-Sep 20 11:00-21:00", "seasonal": "summer", "website": "https://www.dueoddesteakhouse.dk/"}}, {"type": "node", "id": 492063638, "lat": 55.2882483, "lon": 14.7764203, "tags": {"amenity": "restaurant", "cuisine": "regional", "fvst:navnelbnr": "119764", "highchair": "yes", "name": "Ella's Restaurant og Konditori", "opening_hours": "Apr 11-Sep 20 12:00-21:00; Sep we off", "phone": "+45 56480329", "website": "https://ellasrestaurant.dk/"}}, {"type": "node", "id": 846322305, "lat": 55.1076094, "lon": 15.1436372, "tags": {"amenity": "restaurant", "cuisine": "smoked_fish", "fvst:navnelbnr": "948100", "name": "\u00c5rsdale Silder\u00f8geri", "opening_hours": "May Tu-Su 10:30-16:00; Jun 10:30-18:00; Jul-Aug 10:30-20:00; Sep 10:30-18:00; Oct Tu-Sa 10:30-16:00; week 42 10:30-16:00", "phone": "+45 56496508", "website": "https://www.aarsdalesilderoegeri.dk/"}}, {"type": "node", "id": 863200099, "lat": 55.2099617, "lon": 14.9709282, "tags": {"amenity": "restaurant", "email": "info@pandekagehusetgudhjem.dk", "fvst:navnelbnr": "527588", "name": "Pandekage Huset", "website": "http://www.pandekagehusetgudhjem.dk"}}, {"type": "node", "id": 945305048, "lat": 55.1361429, "lon": 15.1405676, "tags": {"amenity": "restaurant", "cuisine": "regional", "dinner": "yes", "fvst:navnelbnr": "120115", "lunch": "yes", "microbrewery": "yes", "name": "Svaneke Bryghus", "opening_hours": "Mo-Su 11:00+", "payment:credit_cards": "yes", "phone": "+45 56497321", "reservation": "yes", "takeaway": "yes", "toilets": "yes", "website": "https://svanekebryghus.dk"}}, {"type": "node", "id": 1184119006, "lat": 55.179847, "lon": 14.7036286}, {"type": "node", "id": 1184119031, "lat": 55.1798035, "lon": 14.7029719}, {"type": "node", "id": 1184119054, "lat": 55.1796862, "lon": 14.7029957}, {"type": "node", "id": 1184119066, "lat": 55.1797824, "lon": 14.7036417}, {"type": "node", "id": 1184119102, "lat": 55.1797475, "lon": 14.7031143}, {"type": "node", "id": 1184119141, "lat": 55.1796949, "lon": 14.703125}, {"type": "node", "id": 1308326891, "lat": 55.1037637, "lon": 14.6996441, "tags": {"amenity": "restaurant", "cuisine": "steak", "fvst:name": "Restauration Texas Bornholm", "fvst:navnelbnr": "767650", "name": "Texas", "opening_hours": "Su-Th 11:00-21:00; Fr-Sa 11:00-22:00", "phone": "+45 56911009", "website": "http://www.texas-bornholm.dk/"}}, {"type": "node", "id": 1330433158, "lat": 55.2808443, "lon": 14.7992344}, {"type": "node", "id": 1330438255, "lat": 55.2758051, "lon": 14.8054225, "tags": {"amenity": "restaurant", "cuisine": "seafood", "fvst:navnelbnr": "513367", "name": "Nordbornholms R\u00f8geri Restaurant", "opening_hours": "11:00-22:00", "outdoor_seating": "yes", "phone": "+45 56480730", "website": "http://www.nbr.dk"}}, {"type": "node", "id": 1500787395, "lat": 55.1215839, "lon": 14.9064691}, {"type": "node", "id": 1500787403, "lat": 55.1215505, "lon": 14.9061925}, {"type": "node", "id": 1500787405, "lat": 55.1215197, "lon": 14.9067022}, {"type": "node", "id": 1500787406, "lat": 55.1215963, "lon": 14.9066739}, {"type": "node", "id": 1500787407, "lat": 55.1214621, "lon": 14.9062251}, {"type": "node", "id": 1500787409, "lat": 55.1216156, "lon": 14.9065854}, {"type": "node", "id": 1500787411, "lat": 55.1216008, "lon": 14.9064629}, {"type": "node", "id": 1500787412, "lat": 55.1215869, "lon": 14.906596}, {"type": "node", "id": 1506394009, "lat": 55.1797544, "lon": 14.7032183}, {"type": "node", "id": 1506394067, "lat": 55.1797015, "lon": 14.7033238}, {"type": "node", "id": 1506394119, "lat": 55.1797606, "lon": 14.7033118}, {"type": "node", "id": 1506394341, "lat": 55.1796952, "lon": 14.7032303}, {"type": "node", "id": 1584017947, "lat": 55.1430822, "lon": 14.7112536, "tags": {"amenity": "restaurant", "fvst:navnelbnr": "559387", "name": "Skovly", "opening_hours": "Jun-Aug 07:00+", "phone": "+45 60178238"}}, {"type": "node", "id": 1769538314, "lat": 55.139514, "lon": 15.1432802}, {"type": "node", "id": 1814819836, "lat": 55.1363021, "lon": 15.1420491, "tags": {"alt_name": "Pakhuset Svaneke", "amenity": "restaurant", "branch": "Svaneke", "cuisine": "regional", "fvst:navnelbnr": "795221", "internet_access": "wlan", "internet_access:fee": "no", "name": "Pakhuset", "opening_hours": "easter -1days- easter + 40 days 12:00-20:30; May 1-Oct 14 12:00-20:30; week 42 12:00-20:30", "phone": "+45 56496585", "website": "http://www.restaurantpakhuset.dk/"}}, {"type": "node", "id": 1825229570, "lat": 55.1396217, "lon": 15.1432584}, {"type": "node", "id": 1852011660, "lat": 55.0045177, "lon": 14.969038, "tags": {"amenity": "restaurant", "award:michelin": "1", "cuisine": "regional", "fvst:navnelbnr": "945563", "name": "Kadeau Bornholm", "opening_hours": "Th-Su 17:30-24:00; Jun-Aug 12:00-16:00,17:30-24:00", "outdoor_seating": "yes", "payment:credit_cards": "yes", "phone": "+45 56978250", "reservation": "yes", "stars": "1", "website": "http://www.kadeau.dk", "wikidata": "Q22980120"}}, {"type": "node", "id": 3404449295, "lat": 55.10184, "lon": 14.69805, "tags": {"amenity": "restaurant", "cuisine": "pizza", "fvst:navnelbnr": "574866", "name": "Casa Mia", "opening_hours": "Tu-Su 15:00-21:00", "phone": "+45 56959573", "takeaway": "yes", "website": "https://www.casamia-bornholm.dk/"}}, {"type": "node", "id": 3404449333, "lat": 55.1535768, "lon": 15.0775669, "tags": {"amenity": "restaurant", "cuisine": "steak_house", "fvst:navnelbnr": "738570", "name": "Louisekroen", "phone": "+4556496203", "smoking": "outside", "website": "https://louisekroen.dk/"}}, {"type": "node", "id": 3404449361, "lat": 55.2392232, "lon": 14.8659936}, {"type": "node", "id": 3782607250, "lat": 55.1044754, "lon": 14.7000128, "tags": {"amenity": "restaurant", "cuisine": "sushi", "fvst:fixme": "no geo loc in FVST", "fvst:navnelbnr": "539884", "name": "Dong Fang", "opening_hours": "16:30-21:30", "phone": "+45 56958898", "website": "https://dong-fang.dk/"}}, {"type": "node", "id": 3792234919, "lat": 55.0719166, "lon": 15.141224}, {"type": "node", "id": 3792234922, "lat": 55.0719834, "lon": 15.1408024}, {"type": "node", "id": 3792234923, "lat": 55.0719813, "lon": 15.141297}, {"type": "node", "id": 3792234925, "lat": 55.0720097, "lon": 15.1407313}, {"type": "node", "id": 3792234926, "lat": 55.0720324, "lon": 15.140733}, {"type": "node", "id": 3792234927, "lat": 55.0720262, "lon": 15.1407499}, {"type": "node", "id": 3792234928, "lat": 55.0720463, "lon": 15.1408733}, {"type": "node", "id": 3792234929, "lat": 55.0720718, "lon": 15.1408137}, {"type": "node", "id": 3792234930, "lat": 55.0720813, "lon": 15.1407882}, {"type": "node", "id": 3792234931, "lat": 55.0720862, "lon": 15.1408299}, {"type": "node", "id": 3792234932, "lat": 55.0721031, "lon": 15.1407843}, {"type": "node", "id": 3792234933, "lat": 55.0721509, "lon": 15.1408382}, {"type": "node", "id": 3802593304, "lat": 55.0267477, "lon": 15.1184994, "tags": {"amenity": "restaurant", "cuisine": "smokes_fish", "dinner": "yes", "fvst:navnelbnr": "119904", "lunch": "yes", "name": "Snogeb\u00e6k R\u00f8geri", "opening_hours": "Mar 28-Oct 17 10:00-17:00; Jun 13-Sep 5 10:00-21:00; Jul 10:00-22:00 \"approximate seasons, see website\"", "outdoor_seating": "yes", "payment:credit_cards": "yes", "phone": "+45 5648 8011", "takeaway": "yes", "toilets": "yes", "website": "http://www.smokedfish.dk/"}}, {"type": "node", "id": 3822503078, "lat": 55.2806392, "lon": 14.7992103}, {"type": "node", "id": 3822503079, "lat": 55.2807492, "lon": 14.7994014}, {"type": "node", "id": 3822503080, "lat": 55.2807396, "lon": 14.7990333}, {"type": "node", "id": 3822503081, "lat": 55.2808034, "lon": 14.798869}, {"type": "node", "id": 3822503082, "lat": 55.2808347, "lon": 14.799048}, {"type": "node", "id": 3822503084, "lat": 55.2808607, "lon": 14.7992619}, {"type": "node", "id": 3822503085, "lat": 55.2808809, "lon": 14.7989139}, {"type": "node", "id": 3822503086, "lat": 55.280908, "lon": 14.7991808}, {"type": "node", "id": 4277807403, "lat": 55.1010805, "lon": 14.6983948, "tags": {"amenity": "restaurant", "cuisine": "asian;danish", "fvst:navnelbnr": "119598", "name": "Selma's Home Cooking", "opening_hours": "17:30+; Su off", "phone": "+45 56953475", "takeaway": "yes", "website": "http://restaurantselmas.dk/"}}, {"type": "node", "id": 4277807406, "lat": 55.1028326, "lon": 14.6994369, "tags": {"amenity": "restaurant", "fvst:name": "BRAZZ Spise og Levested", "fvst:navnelbnr": "500111", "name": "Brazz", "phone": "+45 56954400", "website": "http://brazz.dk/"}}, {"type": "node", "id": 4277807415, "lat": 55.1049007, "lon": 14.7001185, "tags": {"amenity": "restaurant", "cuisine": "regional", "fvst:navnelbnr": "118896", "name": "Str\u00f8gets Spiseh\u00fbz", "opening_hours": "Tu-Th 17:00-21:00; Fr-Sa 17:00-21:30; Su 17:00-20:30", "phone": "+45 56 95 81 69", "website": "https://spisehuzed.dk"}}, {"type": "node", "id": 4307584729, "lat": 55.1011572, "lon": 14.6918528, "tags": {"amenity": "restaurant", "cuisine": "local", "fvst:navnelbnr": "646375", "name": "R\u00f8nne H", "outdoor_seating": "yes"}}, {"type": "node", "id": 4307584731, "lat": 55.094921, "lon": 14.7027024, "tags": {"amenity": "restaurant", "fvst:navnelbnr": "665097", "name": "Skot inn", "phone": "+45 56951102"}}, {"type": "node", "id": 4307622339, "lat": 55.0569471, "lon": 14.7793727, "tags": {"amenity": "restaurant", "cuisine": "local", "fvst:navnelbnr": "533251", "name": "Arnager R\u00f8geri Restaurant", "phone": "+45 56972200", "ref:DK:cvr": "10007186", "ref:DK:cvr:pnummer": "1017696730", "website": "https://arnager-rogeri.dk/"}}, {"type": "node", "id": 4307627933, "lat": 55.1367149, "lon": 14.8912801, "tags": {"amenity": "restaurant", "cuisine": "danish", "fvst:navnelbnr": "119910", "name": "Restaurant Bolsterbjerg", "phone": "+45 56999200", "website": "http://www.bolsterbjerg.dk/", "wikidata": "Q4940085"}}, {"type": "node", "id": 4308061455, "lat": 55.1768078, "lon": 14.7114599, "tags": {"amenity": "restaurant", "fvst:navnelbnr": "119654", "name": "Hasle Feriepark Restaurant"}}, {"type": "node", "id": 4308061458, "lat": 55.1852644, "lon": 14.7042807, "tags": {"amenity": "restaurant", "cuisine": "danish", "fvst:navnelbnr": "119575", "name": "Herold", "phone": "+45 56964024", "website": "https://hotelherold.dk/"}}, {"type": "node", "id": 4308061460, "lat": 55.1789633, "lon": 14.7071349, "tags": {"amenity": "restaurant", "fvst:name": "Hasle Camping I/S Restaurant Krudthuzed og Kiosk", "fvst:navnelbnr": "126771", "name": "Krudthuzet", "operator": "Hasle Camping", "website": "http://haslecamp.dk/dk/restaurant/buffet/"}}, {"type": "node", "id": 4308190204, "lat": 55.2842934, "lon": 14.7699721, "tags": {"amenity": "restaurant", "fvst:navnelbnr": "760282", "name": "Hotel Hammers\u00f8 Restaurant", "phone": "+45 56480364", "website": "http://hotel-hammersoe.dk/restaurant-hotel-hammersoe/"}}, {"type": "node", "id": 4309491307, "lat": 55.0823208, "lon": 14.7144001, "tags": {"amenity": "restaurant", "cuisine": "danish", "fvst:name": "Radisson Blu Fredensborg Hotel Restaurant Di 5 Stauerna", "fvst:navnelbnr": "700448", "name": "Restaurant Fredensborg Badehotel", "opening_hours": "17:00-21:30", "operator": "Radisson Blu Fredensborg Hotel", "phone": "+45 56904444", "website": "https://bornholmhotels.dk/fredensborg-badehotel/restaurant/"}}, {"type": "node", "id": 4309491308, "lat": 55.0852414, "lon": 14.7105632, "tags": {"alt_name": "GSH", "amenity": "restaurant", "fvst:name": "Hotel Rytterg\u00e5rden", "fvst:navnelbnr": "120013", "name": "Green Solution House Restaurant", "opening_hours": "12:00-15:00,17:00-21:30; Su off", "phone": "+45 56951913"}}, {"type": "node", "id": 4309491311, "lat": 55.2877214, "lon": 14.7813735, "tags": {"amenity": "restaurant", "fvst:navnelbnr": "1010372", "name": "Hotel Pepita", "phone": "+45 56480451", "ref:DK:cvr": "42389722", "ref:DK:cvr:pnummer": "1027164591", "website": "http://www.pepita.dk/restaurant"}}, {"type": "node", "id": 4309673910, "lat": 55.2769602, "lon": 14.8026279, "tags": {"amenity": "restaurant", "fvst:navnelbnr": "120109", "name": "Restarant Det Gamle Posthus", "outdoor_seating": "yes", "payment:credit_cards": "yes", "phone": "+45 5648 1042", "takeaway": "yes", "toilets": "yes", "website": "https://www.detgamleposthusallinge.dk/"}}, {"type": "node", "id": 4309673911, "lat": 55.2770005, "lon": 14.8008092, "tags": {"amenity": "restaurant", "fvst:navnelbnr": "988786", "name": "G\u00e6stgiveren Restaurant", "outdoor_seating": "yes", "payment:credit_cards": "yes", "ref:DK:cvr": "35227091", "ref:DK:cvr:pnummer": "1018416472", "toilets": "yes", "website": "http://www.gaestgiveren.dk/", "wikidata": "Q12314786"}}, {"type": "node", "id": 4309673919, "lat": 55.2787583, "lon": 14.8004439, "tags": {"amenity": "restaurant", "cuisine": "sm\u00f8rrebr\u00f8d", "fvst:navnelbnr": "760175", "name": "Sommer", "opening_hours": "Jun-Aug 11:30-21:30", "outdoor_seating": "yes", "phone": "+45 56484849", "website": "https://restaurantsommer.dk/"}}, {"type": "node", "id": 4309716469, "lat": 55.2555994, "lon": 14.8181285, "tags": {"amenity": "restaurant", "cuisine": "regional", "fvst:navnelbnr": "915828", "name": "Friheden", "opening_hours": "May-Sep", "seasonal": "spring;summer;fall", "website": "http://juhls-hoteller.dk/friheden/restaurant/"}}, {"type": "node", "id": 4309716471, "lat": 55.252847, "lon": 14.8204915}, {"type": "node", "id": 4309849646, "lat": 55.2107082, "lon": 14.9709259, "tags": {"amenity": "restaurant", "cuisine": "buffet", "fvst:name": "Restaurant Br\u00f8ddan Br\u00f8ddan Gudhjem", "fvst:navnelbnr": "120026", "name": "Br\u00f8DDan Gudhjem", "phone": "+45 56485022", "website": "https://www.broddan.dk/"}}, {"type": "node", "id": 4309849648, "lat": 55.2138144, "lon": 14.9693153, "tags": {"amenity": "restaurant", "cuisine": "smoked_fish", "fvst:name": "Gudhjem R\u00f8geri m. restaurant", "fvst:navnelbnr": "120072", "name": "Gudhjem R\u00f8geri", "opening_hours": "Mo-Fr 11:00-20:00", "outdoor_seating": "yes", "phone": "+45 56485708", "website": "https://www.smokedfish.dk/gudhjem"}}, {"type": "node", "id": 4309849653, "lat": 55.2002212, "lon": 14.983267, "tags": {"amenity": "restaurant", "fvst:navnelbnr": "745479", "name": "Melsted Badehotel", "phone": "+45 56485100", "website": "https://melsted-badehotel.dk/da/restaurant"}}, {"type": "node", "id": 4309849656, "lat": 55.2112218, "lon": 14.9709199, "tags": {"amenity": "restaurant", "cuisine": "international", "fvst:navnelbnr": "561921", "name": "Restaurant 3760", "phone": "+45 35353760", "website": "http://www.restaurant3760.dk/"}}, {"type": "node", "id": 4309849657, "lat": 55.212965, "lon": 14.8800427, "tags": {"amenity": "restaurant", "fvst:navnelbnr": "636388", "name": "Restaurant Stenby M\u00f8lle", "phone": "+45 56488840", "website": "http://www.stenbymolle.dk/?"}}, {"type": "node", "id": 4309918254, "lat": 55.0244842, "lon": 15.1165001, "tags": {"amenity": "restaurant", "cuisine": "regional", "diet:vegan": "no", "diet:vegetarian": "yes", "facebook": "https://m.facebook.com/restaurantdenlillehavfrue/", "fvst:navnelbnr": "120376", "name": "Restaurant Den Lille Havfrue Bornholm", "opening_hours": "12:00+", "outdoor_seating": "yes", "phone": "+45 56488055", "website": "https://denlillehavfruebornholm.dk/"}}, {"type": "node", "id": 4309918256, "lat": 55.0247422, "lon": 15.1172804, "tags": {"amenity": "restaurant", "cuisine": "steak_house", "dinner": "yes", "fvst:navnelbnr": "523331", "name": "Restaurant Breno's", "outdoor_seating": "yes", "payment:credit_cards": "yes", "phone": "+45 56489044", "toilets": "yes", "website": "http://brenos.dk/"}}, {"type": "node", "id": 4309918257, "lat": 55.0235577, "lon": 15.11176, "tags": {"amenity": "restaurant", "cuisine": "danish", "fvst:navnelbnr": "722263", "internet_access": "wlan", "internet_access:fee": "no", "name": "Restaurant Snogeb\u00e6k Kro", "opening_hours": "17:30+", "phone": "+45 2025 9112", "website": "http://www.restaurant-snogebaek-kro.dk/"}}, {"type": "node", "id": 4309932947, "lat": 55.040551, "lon": 15.1058872, "tags": {"amenity": "restaurant", "cuisine": "danish", "fvst:navnelbnr": "503649", "name": "Hotel Balka Strand Restaurant", "operator": "Hotel Balka Strand", "phone": "+45 5649 4949", "website": "https://www.hotelbalkastrand.dk/restaurant/"}}, {"type": "node", "id": 4309970538, "lat": 55.0633899, "lon": 15.1357118, "tags": {"amenity": "restaurant", "cuisine": "regional", "fvst:navnelbnr": "508515", "name": "Restaurant Culinarium IS", "opening_hours": "12:00-14:30,18:00-21:00; Sa 12:00-14:30,17:30-21:00", "phone": "+45 56443361", "website": "http://www.culinarium-bornholm.com/"}}, {"type": "node", "id": 4309970539, "lat": 55.0633152, "lon": 15.1362804, "tags": {"amenity": "restaurant", "cuisine": "seafood", "fvst:navnelbnr": "913841", "name": "Restaurant Molen", "opening_hours": "12:00-15:00,18:00-21:00; Su off", "outdoor_seating": "yes", "phone": "+45 88876733", "website": "http://www.restaurantmolen.dk/"}}, {"type": "node", "id": 4309999502, "lat": 55.2122608, "lon": 14.970098, "tags": {"amenity": "restaurant", "cuisine": "italian", "fvst:navnelbnr": "119595", "name": "Venezia", "phone": "+45 56485353"}}, {"type": "node", "id": 4310009706, "lat": 55.136527, "lon": 15.1439043, "tags": {"amenity": "restaurant", "cuisine": "regional", "fvst:navnelbnr": "120342", "name": "Siemsens Gaard Restaurant", "outdoor_seating": "yes", "phone": "+45 56496149", "website": "http://www.siemsens.dk/da/restauranten/restaurant"}}, {"type": "node", "id": 4331606418, "lat": 55.070405, "lon": 14.9227132, "tags": {"amenity": "restaurant", "fvst:navnelbnr": "654421", "name": "Restaurant Kanns Hotel", "phone": "+45 56974012", "tourism": "hotel", "website": "http://www.kannshotel.dk/"}}, {"type": "node", "id": 4723364146, "lat": 55.2758479, "lon": 14.8054165, "tags": {"amenity": "restaurant", "fvst:navnelbnr": "119233", "name": "Nordbornholms R\u00f8geri Fiskebutik", "opening_hours": "PH,Mo-Su 09:00-18:00", "phone": "+45 56480730", "shop": "seafood"}}, {"type": "node", "id": 5206032170, "lat": 55.2808469, "lon": 14.7989944}, {"type": "node", "id": 5206032171, "lat": 55.2807503, "lon": 14.7990514}, {"type": "node", "id": 5206032172, "lat": 55.280816, "lon": 14.7988844}, {"type": "node", "id": 5206032173, "lat": 55.2808317, "lon": 14.7988495}, {"type": "node", "id": 5257082760, "lat": 55.2763009, "lon": 14.8023994}, {"type": "node", "id": 5257082761, "lat": 55.276322, "lon": 14.802582}, {"type": "node", "id": 5257082762, "lat": 55.2762118, "lon": 14.8026212}, {"type": "node", "id": 5257082763, "lat": 55.2761907, "lon": 14.8024386}, {"type": "node", "id": 5268596918, "lat": 55.1397454, "lon": 15.1432179}, {"type": "node", "id": 5268596919, "lat": 55.1397638, "lon": 15.1432142}, {"type": "node", "id": 5335614738, "lat": 55.2393165, "lon": 14.8661783}, {"type": "node", "id": 5335614739, "lat": 55.2392978, "lon": 14.8662035}, {"type": "node", "id": 5335614740, "lat": 55.2393247, "lon": 14.8661495}, {"type": "node", "id": 5335614741, "lat": 55.2393235, "lon": 14.8659928}, {"type": "node", "id": 5335614742, "lat": 55.2392992, "lon": 14.8659974}, {"type": "node", "id": 5335614743, "lat": 55.2392433, "lon": 14.8662176}, {"type": "node", "id": 5335614744, "lat": 55.2391124, "lon": 14.8663115}, {"type": "node", "id": 5335614745, "lat": 55.2390648, "lon": 14.8661073}, {"type": "node", "id": 5335614746, "lat": 55.2392074, "lon": 14.8657408}, {"type": "node", "id": 5335614747, "lat": 55.2393306, "lon": 14.8661073}, {"type": "node", "id": 5335614748, "lat": 55.2392823, "lon": 14.8657264}, {"type": "node", "id": 5390829733, "lat": 55.2530123, "lon": 14.8203901}, {"type": "node", "id": 5390829734, "lat": 55.2530093, "lon": 14.8206766}, {"type": "node", "id": 5390829735, "lat": 55.2529781, "lon": 14.8207679}, {"type": "node", "id": 5390829736, "lat": 55.2529045, "lon": 14.8201531}, {"type": "node", "id": 5390829737, "lat": 55.2527754, "lon": 14.820334}, {"type": "node", "id": 5390829738, "lat": 55.2528681, "lon": 14.8209221}, {"type": "node", "id": 5390829739, "lat": 55.2527402, "lon": 14.8206411}, {"type": "node", "id": 5390829740, "lat": 55.2529939, "lon": 14.8208026}, {"type": "node", "id": 5390829741, "lat": 55.2530383, "lon": 14.8207404}, {"type": "node", "id": 5390829742, "lat": 55.2531448, "lon": 14.8202044}, {"type": "node", "id": 5390829743, "lat": 55.2532233, "lon": 14.8203769}, {"type": "node", "id": 6668273697, "lat": 55.1012912, "lon": 14.6973693, "tags": {"amenity": "restaurant", "fvst:navnelbnr": "778775", "name": "Restaurant Det R\u00f8de Pakhus", "opening_hours": "11:30-15:00, 17:30-21:00", "phone": "+45 64635026", "website": "https://www.roedepakhus.dk/"}}, {"type": "node", "id": 6705280193, "lat": 55.1044981, "lon": 14.6997361, "tags": {"amenity": "restaurant", "fvst:name": "Restaurant p\u00e5 Laksetorvet", "fvst:navnelbnr": "765768", "name": "Brasserie Laksetorvet"}}, {"type": "node", "id": 6713042005, "lat": 55.1357104, "lon": 15.1438392, "tags": {"alt_name": "Den Islandske Familie", "amenity": "restaurant", "branch": "Bornholm", "cuisine": "icelandic", "diet:vegetarian": "yes", "dinner": "yes", "fvst:navnelbnr": "796843", "lunch": "yes", "name": "Tre Tjenere", "payment:credit_cards": "yes", "phone": "+45 51527898", "toilets": "yes", "website": "https://www.tretjenere.dk/"}}, {"type": "node", "id": 6800547104, "lat": 55.2879287, "lon": 14.7778889, "tags": {"alt_name": "\u00d8stb\u00f8 og Engholm", "amenity": "restaurant", "fvst:fixme": "fvst position missing, fixed from overpassturbo/osak", "fvst:navnelbnr": "930435", "name": "Restaurant Hos Engholm", "opening_hours": "Jul 1-Aug 16", "phone": "+45 53610036", "seasonal": "summer", "website": "https://hosengholm.dk/"}}, {"type": "node", "id": 7471408189, "lat": 55.2884586, "lon": 14.780928, "tags": {"amenity": "restaurant", "fvst:navnelbnr": "937074", "name": "Spisestedet KokkenBerg", "phone": "+45 56 48 00 05", "website": "https://www.kokkenberg.dk/"}}, {"type": "node", "id": 7684938089, "lat": 55.136781, "lon": 15.144105, "tags": {"amenity": "restaurant", "cuisine": "regional", "fvst:fixme": "fvst position missing, fixed from overpassturbo/osak", "fvst:navnelbnr": "936802", "name": "Restaurant 1B", "opening_hours": "Th-Sa 18:00+", "website": "https://restaurant-1b.dk/"}}, {"type": "node", "id": 7704626528, "lat": 55.102052, "lon": 14.695953, "tags": {"amenity": "restaurant", "cuisine": "regional", "fvst:fixme": "fvst position missing, fixed from overpassturbo/osak", "fvst:navnelbnr": "933880", "name": "Amtmandsg\u00e5rden", "phone": "+45 61159999", "website": "https://www.amtmandsgarden.dk/"}}, {"type": "node", "id": 7722396065, "lat": 55.0617088, "lon": 15.1349129, "tags": {"amenity": "restaurant", "cuisine": "thai", "fvst:navnelbnr": "764353", "name": "R60 Thai Food", "phone": "+45 60516799"}}, {"type": "node", "id": 7777550035, "lat": 55.20844, "lon": 14.972627, "tags": {"amenity": "restaurant", "fvst:fixme": "fvst position missing, fixed from overpassturbo/osak", "fvst:navnelbnr": "947405", "name": "Restaurant Gudhjem M\u00f8lle"}}, {"type": "node", "id": 8983482816, "lat": 55.2885499, "lon": 14.781121, "tags": {"amenity": "restaurant", "name": "Ros\u00e9 Haven"}}, {"type": "node", "id": 8983486031, "lat": 55.2019692, "lon": 14.9797696, "tags": {"amenity": "restaurant", "name": "Gourmet Bornholm - en del af regional madkultur", "website": "https://gaarden.nu/"}}, {"type": "way", "id": 33495182, "nodes": [381699203, 381699206, 1769538314, 1825229570, 381699210, 381699216, 5268596919, 5268596918, 381699203], "tags": {"amenity": "restaurant", "building": "yes", "cuisine": "seafood", "fvst:navnelbnr": "119779", "lunch": "yes", "name": "Svaneke R\u00f8geri", "opening_hours": "Mo-Su 10:00-20:00", "payment:credit_cards": "yes", "phone": "+45 56 49 63 24", "takeaway": "yes", "toilets": "yes", "website": "http://www.roegerietsvaneke.dk/", "wheelchair": "yes"}}, {"type": "way", "id": 102528465, "nodes": [1184119102, 1184119141, 1184119054, 1184119031, 1184119006, 1184119066, 1506394119, 1506394067, 1506394341, 1506394009, 1184119102], "tags": {"amenity": "restaurant", "building": "yes", "cuisine": "regional", "fvst:navnelbnr": "120219", "lunch": "yes", "name": "Hasle R\u00f8geri", "opening_hours": "Apr1-Sep 14 10:00-16:00; week 42 11:00-16:00; Jun 28-Aug 15 10:00-22:00 \"approximate, see webpage for up-to-date hours\"", "payment:credit_cards": "yes", "phone": "+45 56 96 20 02", "takeaway": "yes", "website": "http://www.hasleroegeri.dk"}}, {"type": "way", "id": 136791908, "nodes": [1500787407, 1500787405, 1500787406, 1500787412, 1500787409, 1500787411, 1500787395, 1500787403, 1500787407], "tags": {"amenity": "restaurant", "building": "yes", "cuisine": "local", "fvst:navnelbnr": "989517", "name": "Christiansh\u00f8jkroen", "opening_hours": "12:00-16:00,18:00-21:00; Mo off", "phone": "+45 56974013", "ref:DK:cvr": "41261676", "ref:DK:cvr:pnummer": "1027089778", "website": "https://www.christianshojkroen.dk/", "wikidata": "Q101064544"}}, {"type": "way", "id": 375884054, "nodes": [3792234933, 3792234923, 3792234919, 3792234928, 3792234922, 3792234925, 3792234927, 3792234926, 3792234930, 3792234929, 3792234931, 3792234932, 3792234933], "tags": {"amenity": "restaurant", "building": "yes", "cuisine": "regional", "fvst:navnelbnr": "120255", "name": "Nex\u00f8 Gamle R\u00f8geri", "opening_hours": "Mo-Su 10:00-19:00", "outdoor_seating": "yes"}}, {"type": "way", "id": 378890217, "nodes": [5206032173, 5206032172, 3822503081, 5206032171, 3822503080, 3822503078, 3822503079, 1330433158, 3822503084, 3822503086, 3822503082, 5206032170, 3822503085, 5206032173], "tags": {"amenity": "restaurant", "building": "yes", "cuisine": "seafood", "fvst:navnelbnr": "119982", "name": "Allinge R\u00f8geri", "phone": "56 48 05 33", "website": "https://www.smokedfish.dk/allinge"}}, {"type": "way", "id": 543825843, "nodes": [5257082760, 5257082761, 5257082762, 5257082763, 5257082760], "tags": {"amenity": "restaurant", "building": "yes", "changing_table": "yes", "changing_table:location": "dedicated_room", "contact:email": "post@margeritten.dk", "contact:phone": "+45 56482209", "contact:website": "http://www.margeritten.dk/", "fvst:fixme": "fvst:no_pos", "fvst:navnelbnr": "120183", "highchair": "yes", "name": "Margeritten", "operator": "J\u00f8rn Johnsen", "outdoor_seating": "yes", "toilets": "yes", "toilets:wheelchair": "no", "wheelchair": "yes"}}, {"type": "way", "id": 552670062, "nodes": [3404449361, 5335614746, 5335614748, 5335614742, 5335614741, 5335614747, 5335614740, 5335614738, 5335614739, 5335614743, 5335614744, 5335614745, 3404449361], "tags": {"amenity": "restaurant", "building": "yes", "fvst:navnelbnr": "126772", "name": "Stammershalle Badehotel", "opening_hours": "\"18:00-23.00 more days open in the summer than winter\"", "phone": "+45 56484210", "tourism": "hotel", "website": "http://stammershalle-badehotel.dk/en/the-restaurant/"}}, {"type": "way", "id": 558891420, "nodes": [4309716471, 5390829737, 5390829736, 5390829733, 5390829742, 5390829743, 5390829734, 5390829741, 5390829740, 5390829735, 5390829738, 5390829739, 4309716471], "tags": {"amenity": "restaurant", "building": "yes", "email": "mail@hotel-abildgaard.dk", "fvst:navnelbnr": "915973", "name": "Hotel Abildg\u00e5rd", "phone": "+45 56480955", "tourism": "hotel", "website": "https://juhls-hoteller.dk/abildgaard/"}}]}